siteid,name,f_name,street_address,f_addr,city,state,zipcode,county_name,phone,toll_free,fax,email,website,hours,live_chat_url,latitude,longitude,is_mobile
109,far south clinic,afrs,405 W Stassney Lane,045aenssy,austin,tx,78745,travis,512-972-4942,NA,512-442-4342,FarSouthWIC@austintexas.gov,https://www.austintexas.gov/WIC,Mon-Thu | 7:30-4:30 Lunch 12:00-12:30 && 2nd Wed | Closed && Fri | 7:30-1:30,https://texaswic.org/about-wic/live-chat-with-wic?la=001,30.20709,-97.77927,NO
112,dove springs clinic,deginoprssv,5811 Palo Blanco Lane,1158aabcllnoop,austin,tx,78744,travis,512-972-4942,NA,512-978-7621,DovespringsWIC@austintexas.gov,https://www.austintexas.gov/WIC,Mon-Thu | 7:30-4:30 Lunch 12:00-12:30 && 2nd Wed | Closed && Fri | 7:30-1:30,https://texaswic.org/about-wic/live-chat-with-wic?la=001,30.1889799,-97.7382069,NO
107,montopolis neighborhood center,bdeghhiilmnnooooooprst,"2901 Montopolis Dr, Suite 1300",00011239ilmnooopst,austin,tx,78741,travis,512-972-4942,NA,512-972-6237,Montopoliswic@Austintexas.Gov,https://www.austintexas.gov/WIC,Mon-Thu | 7:30-4:30 Lunch 12:00-12:30 && 2nd Wed | Closed && Fri | 7:30-1:30,https://texaswic.org/about-wic/live-chat-with-wic?la=001,30.21468,-97.71017,NO
132,roving mobile unit,ginorv,2800 Webberville Rd,0028bbeeeillrvw,austin,tx,78702,travis,512-972-4942,NA,NA,WICMobileUnit@austintexas.gov,https://www.austintexas.gov/page/wic-locations,Please refer to the website for all hours and site locations,NA,30.26562,-97.71003,YES
724,north dallas clinic,aadllns,8202 Spring Valley Rd # 100,0001228ginprs,dallas,tx,75240,dallas,214-670-7200,NA,214-670-6573,Askwic@Dallascityhall.Com,NA,Mon-Thu | 7:30-6:00 && Fri | 7:30-4:30 && Sat | 7:30-4:00,https://texaswic.org/about-wic/live-chat-with-wic?la=007,32.9396951,-96.7637408,NO
3506,carrollton wic clinic,acllnoorrt,3024 E. Hebron Pkwy,0234ehno,carrollton,tx,75010,dallas,972-446-1507,NA,972-446-1586,NA,NA,Mon/Tue/Wed/Thu  |  9:00-6:00  Lunch 12:00-1:00  &&  Fri  |  7:30-4:30  Lunch 12:00-1:00,NA,33.02542,-96.85436,NO
709,irving clinic,giinrv,1111 West Airport Freeway Suit 237,1111237aiioprrsttu,irving,tx,75062,dallas,214-670-7200,NA,972-257-8323,Askwic@Dallascityhall.Com,NA,Mon-Thu | 7:30-6:00 && Fri | 7:30-4:30 && Sat | 7:30-4:00,https://texaswic.org/about-wic/live-chat-with-wic?la=007,32.8374649,-96.9601899,NO
717,north west dallas clinic,aadllnsw,3207 W Northwest Hwy,0237nw,dallas,tx,75220,dallas,214-670-7200,NA,214-670-6253,Askwic@Dallascityhall.Com,NA,Mon-Fri | 7:30-4:30,https://texaswic.org/about-wic/live-chat-with-wic?la=007,32.85564,-96.86696,NO
9002,urban inter-tribal center - temporarily closed,aaabbcdeeiiilllmnnooprrrrsttuy,"Mobile Services Offered, 1283 Record Crossing Rd",1238bccdeeeeeeffiilmooorrrssv,dallas,tx,75235,dallas,214-941-1050,NA,--,NA,NA,Mon - Thu | 7:30-6:00 && Fri | 7:30-4:00,NA,32.81609,-96.86151,NO
1002,denison clinic,deinnos,205 N Houston,025hnoou,denison,tx,75020,grayson,903-465-2878,NA,903-465-2978,NA,NA,Mon | 8:00-6:00 Lunch 1:00-2:00 && Tue | 8:00-7:00 Lunch 1:00-2:00 && Wed/Thu | 8:00-5:00 Lunch 1:00-2:00 && First working day of the month | 5:00-7:00 && 3rd Thu | 2:00-7:00,NA,33.75714,-96.53556,NO
7102,collin county health care services,aacccceeeehhiilllnnoorrssttuvy,"900 East Park Blvd, Suite 165",001569,plano,tx,75074,collin,972-633-3350,NA,972-633-3355,mckinneywic@co.collin.tx.us,https://www.collincountytx.gov/Services/Health-Care-Services/wic-program,Mon/Wed | 8:00-5:00 && Tue/Thu | 8:00-5:30 && Fri | 8:00-1:00,NA,33.0304,-96.70285,NO
3502,lewisville clinic,eeiilllsvw,190 North Valley Parkway,019,lewisville,tx,75067,denton,972-221-1603,NA,972-420-1433,NA,NA,Mon/Tue/Wed/Thu  |  9:00-6:00  Lunch 12:00-1:00  &&  Fri  |  7:30-4:30  Lunch 12:00-1:00,NA,33.04458,-97.02129,NO
711,east garland wic clinic,aeglr,2851 Dairy Rd,1258adiry,garland,tx,75041,dallas,214-670-7200,NA,NA,Askwic@Dallascityhall.Com,NA,Mon-Thu | 7:30-6:00 && Fri | 7:30-4:30 && Sat | 7:30-4:00,https://texaswic.org/about-wic/live-chat-with-wic?la=007,32.882442,-96.622253,NO
13167,rockwall wic,ackllorw,"2305 Ridge Rd, Suite 103",0012335,rockwall,tx,75087,rockwall,972-771-9541,NA,NA,Wictx@Spcaa.Org,https://www.spcaawic.org/,Mon/Wed | 9:00-6:00  Lunch 1:00-2:00 && 1st Wed | Closed && Tue/Thu | 7:00-4:00 Lunch 1:00-2:00,https://texaswic.org/about-wic/live-chat-with-wic?la=130-131,32.9266949,-96.461148,NO
732,west garland,aglrw,"618 Clara Barton, Suite 102",011268aaabclnorrt,garland,tx,75042,dallas,214-670-7200,NA,972-272-5931,Askwic@Dallascityhall.Com,NA,Mon-Fri | 7:30-4:30,https://texaswic.org/about-wic/live-chat-with-wic?la=007,32.918222,-96.6614,NO
708,grand prairie clinic,aegiiprrr,828 S Carrier Parkway Suite 100,001288aceirrr,grand prairie,tx,75051,dallas,214-670-7200,NA,214-670-6462,Askwic@Dallascityhall.Com,NA,Mon-Fri | 7:30-4:30,https://texaswic.org/about-wic/live-chat-with-wic?la=007,32.7357299,-97.0155,NO
5403,arkansas wic clinic - in person services-,aaaceeeiiknnnoprrrsssssv,2596 East Arkansas Ln Suite 180,0125689aaaknrss,arlington,tx,76014,dallas,817-321-5400,NA,817-548-3968,NA,https://www.tarrantcountytx.gov/en/public-health/family-health-services/wic-program.html,Mon/Tue/Wed/Thu/Fri | 9:00-6:00 Lunch 1:00-2:00 && 2nd Sat | 8:00-5:00 Lunch 12:00-1:00 && Mon after Saturday hours | Closed && Saturdays may vary based on holidays,NA,32.704617,-97.064153,NO
5439,south east green oaks - in person services-,aceeeeeegiiknnnooprrrsssssv,"2001 South East Green Oaks Blvd, Suite 150",0001125aeegknors,arlington,tx,76018,dallas,817-321-5400,NA,817-375-6172,NA,https://www.tarrantcountytx.gov/en/public-health/family-health-services/wic-program.html,Mon/Tue/Wed/Thu/Fri | 9:00-6:00 Lunch 1:00-2:00 && 2nd Sat | 8:00-5:00 Lunch 12:00-1:00 && Mon after Saturday hours | Closed && Saturdays may vary based on holidays,NA,32.65581,-97.07568,NO
5410,euless wic clinic -in person services-,ceeeeeiilnnoprrsssssuv,417 West Euless Blvd Ste 200,001247eelssu,euless,tx,76040,NA,817-321-5400,NA,817-850-2914,NA,https://www.tarrantcountytx.gov/en/public-health/family-health-services/wic-program.html,Mon/Tue/Wed/Thu/Fri | 9:00-6:00 Lunch 1:00-2:00 && 2nd Sat | 8:00-5:00 Lunch 12:00-1:00 && Mon after Saturday hours | Closed && Saturdays may vary based on holidays,NA,32.83444,-97.08888,NO
7101,collin county health care services,aacccceeeehhiilllnnoorrssttuvy,"825 N McDonald St , Suite 120",012258acddlmno,mckinney,tx,75069,collin,972-548-5543,NA,972-548-5552,mckinneywic@co.collin.tx.us,https://www.collincountytx.gov/Services/Health-Care-Services/wic-program,Mon/Wed | 8:00-500 && Tue/Thu | 8:00-5:30 && Fri | 8:00-1:00,NA,33.20532,-96.61311,NO
1003,grayson wic mobile,agnorsy,515 N Walnut St,155atuw,sherman,tx,75090,grayson,903-818-5511,NA,NA,NA,NA,Tue of Second Full Week of Each Month  |  8:00am-12:30pm  &&  4th Tuesday of Each Month  |  2:00pm-5:30pm,NA,33.64116,-96.60888,NO
1001,grayson county health department,aaceghhlnnoorsttuyy,515 North Walnut,155atuw,sherman,tx,75090,grayson,903-893-0131,NA,903-892-3776,NA,NA,Mon/Tue/Wed/Thu | 8:00-7:00  Lunch 1:00-2:00 && First working day of the frst week of the month | 5:00-7:00 && 3rd Thu | 2:00-7:00 && Fri | 8:00-1:00,NA,33.64116,-96.60888,NO
3910,canton wic,acnnot,301 E State Hwy 243 Ste 107,001123347aet,canton,tx,75103,van zandt,903-567-6732,NA,903-567-6732,NA,NA,Mon | 10:00-7:00  &&  Tue/Wed/Thu/Fri | 8:30-5:30,https://texaswic.org/about-wic/live-chat-with-wic?la=039,32.54365,-95.85961,NO
730,duncanville,acdeillnnuv,1110 South Sante Fe Trail Ste,0111aeefnst,duncanville,tx,75137,dallas,214-670-7200,NA,214-670-0526,Askwic@Dallascityhall.Com,NA,Mon-Fri | 7:30-4:30,https://texaswic.org/about-wic/live-chat-with-wic?la=007,32.6405699,-96.91931,NO
6701,corsicana-navarro wic,aaaacinnorrv,219 W Sixth Ave,129histx,corsicana,tx,75110,navarro,903-872-6743,NA,903-872-3213,abarajas@navarrohealth.com,https://navarrocountypublichealthdistr.godaddysites.com,Mon/Tue/Wed/Thu | 7:30-6:00 Lunch 12-12:30 && Fri | 7:30-12:00 && 3rd Sat | 7:30-11:30,NA,32.09159,-96.46484,NO
9003,lbu wic,blu,4732 W Illinois Ave,2347iiillnos,dallas,tx,75211,dallas,214-761-0959,NA,NA,NA,NA,Mon - Thu | 7:30-6:00 && Fri | 7:30-4:00,NA,32.719395,-96.902252,NO
725,ledbetter clinic,bdeelt,1111 W Ledbetter St Suite 600,0011116bdeelt,dallas,tx,75224,dallas,214-670-7200,NA,214-670-7533,Askwic@Dallascityhall.Com,NA,Mon-Thu | 7:30-6:00 && Fri | 7:30-4:30 && Sat | 7:30-4:00,https://texaswic.org/about-wic/live-chat-with-wic?la=007,32.69244,-96.84059,NO
13191,ennis wic,einns,"2604 N Kaufman St, Suite C",0246aafkmnu,ennis,tx,75119,ellis,972-875-0285,NA,NA,Wictx@Spcaa.Org,https://www.spcaawic.org/,Mon/Tue/Wed | 9:00-6:00  Lunch 12:30-1:30 && 1st Wed | Closed && Thu | 7:00-4:00 Lunch 11:30-12:30,https://texaswic.org/about-wic/live-chat-with-wic?la=130-131,32.3524699,-96.63292,NO
710,highland hills wic clinic,ghhhiillls,3624 Simpson Stuart Rd,2346aimnoprsstu,dallas,tx,75241,dallas,214-670-7200,NA,214-670-7442,Askwic@Dallascityhall.Com,NA,Mon/Tue/Fri | 8:00-4:30,https://texaswic.org/about-wic/live-chat-with-wic?la=007,32.67372,-96.75974,NO
13150,kaufman wic,aafkmnu,"100 Old Rail Rd, Suite E",001adillor,kaufman,tx,75142,kaufman,972-932-1961,NA,972-932-1961,Wictx@Spcaa.Org,https://www.spcaawic.org/,Mon/Tue/Wed | 9:00-6:00 Lunch 12:30-1:30 && 1st Wed | Closed && Thu | 7:00-4:00 Lunch 11:30-12:30,https://texaswic.org/about-wic/live-chat-with-wic?la=130-131,32.5888203,-96.3028975,NO
726,buckner/john west clinic,bcehjknnoruw,3302 North Buckner Suite 130,0012333bceknru,dallas,tx,75228,dallas,214-670-7200,NA,214-670-0937,Askwic@Dallascityhall.Com,NA,Mon-Thu | 7:30-6:00 && Fri | 7:30-4:30 && Sat | 7:30-4:00,https://texaswic.org/about-wic/live-chat-with-wic?la=007,32.8058609,-96.6822331,NO
3925,gun barrel city wic clinic,abcegilnrrtuy,1901 W Main St,0119aimn,gun barrel city,tx,75156,henderson,903-887-0212,NA,903-887-0905,NA,NA,Mon | 10:00-7:00  &&  Tue/Wed/Thu/Fri | 8:30-5:30,https://texaswic.org/about-wic/live-chat-with-wic?la=039,32.330471,-96.146605,NO
13155,terrell wic,ellr,310 E Nash St,013ahns,terrell,tx,75160,kaufman,972-551-2121,NA,NA,Wictx@Spcaa.Org,https://www.spcaawic.org/,Mon/Tue/Wed | 9:00-6:00  Lunch 12:30-1:30 && 1st Wed | Closed && Thu | 7:00-4:00 Lunch 11:30-12:30,https://texaswic.org/about-wic/live-chat-with-wic?la=130-131,32.7369413,-96.2743365,NO
13190,waxahachie wic,aaacehhiwx,110 Amanda Ln,011aam,waxahachie,tx,75165,ellis,972-937-4777,NA,NA,Wictx@Spcaa.Org,https://www.spcaawic.org/,Mon/Tue/Wed | 9:00-6:00  Lunch 12:30-1:30 && 1st Wed | Closed && Thu | 7:00-4:00 Lunch 11:30-12:30,https://texaswic.org/about-wic/live-chat-with-wic?la=130-131,32.4210493,-96.8518989,NO
9001,los barrios unidos wic services,abcdeeiiilnooorrrsssssuv,809 Singleton Blvd,089egilnnost,dallas,tx,75212,dallas,214-761-0956,NA,214-651-9514,NA,NA,Mon - Thu | 7:30-6:00 && Fri | 7:30-4:00,NA,32.77901,-96.8364,NO
701,martin luther king jr clinic,aeghiijklmnnrrrttu,2922-B MLK Jr Blvd,2229jklmr,dallas,tx,75215,dallas,214-670-7200,NA,214-670-8542,Askwic@Dallascityhall.Com,NA,Mon-Fri | 7:30-4:30,https://texaswic.org/about-wic/live-chat-with-wic?la=007,32.76947,-96.76609,NO
742,fruitdale wic clinic,firtu,4408 Vandervort Dr,0448eorrtvv,dallas,tx,75216,dallas,214-670-7200,NA,NA,Askwic@Dallascityhall.Com,NA,Wed/Thu | 8:00-4:30,NA,32.70951,-96.76005,NO
703,westmoreland clinic,elmorw,1050 North Westmoreland Suite 316,0011356elmorw,dallas,tx,75211,dallas,214-670-7200,NA,214-337-1355,Askwic@Dallascityhall.Com,NA,Mon-Fri | 7:30-4:30,https://texaswic.org/about-wic/live-chat-with-wic?la=007,32.7346741,-96.8740551,NO
737,abrams road clinic,aams,6012 Abrams Rd Ste 150,0011256aams,dallas,tx,75231,dallas,214-670-7200,NA,214-939-2280,Askwic@Dallascityhall.Com,NA,Mon-Fri | 7:30-4:30,https://texaswic.org/about-wic/live-chat-with-wic?la=007,32.85775,-96.74767,NO
743,healing hands ministries,aeeghhiiiilmnnrss,"5750 Pineland Dr, Suite #326",0235567eilnp,dallas,tx,75231,dallas,214-670-7200,NA,NA,askWIC@Dallas.gov,NA,Tue | 8:00-4:00 && Thu | 12:00-4:00,NA,32.87792,-96.75817,NO
705,lake june clinic,aeejklnu,6925 Lake June Road,2569aeejklnu,dallas,tx,75217,dallas,214-670-7200,NA,214-670-8224,Askwic@Dallascityhall.Com,NA,Mon-Thu | 7:30-6:00 && Fri | 7:30-4:30 && Sat | 7:30-4:00,https://texaswic.org/about-wic/live-chat-with-wic?la=007,32.7345349,-96.7027414,NO
13163,greenville wic,eeegillnrv,"4907 Stonewall St, Suite C",0479aellnow,greenville,tx,75401,hunt,903-454-4888,NA,NA,Wictx@Spcaa.Org,https://www.spcaawic.org/,Mon/Wed | 9:00-6:00  Lunch 1:00-2:00 && 1st Wed | Closed && Tue/Thu | 7:00-4:00 Lunch 1:00-2:00,https://texaswic.org/about-wic/live-chat-with-wic?la=130-131,33.12184,-96.10691,NO
13166,bonham wic,abhmno,1205 Broadfoot St,0125bfoot,bonham,tx,75418,fannin,903-705-3995,NA,NA,Wictx@Spcaa.Org,https://www.spcaawic.org/,1st Mon/3rd Wed | 10:00-4:30 Lunch 1:00-2:00,https://texaswic.org/about-wic/live-chat-with-wic?la=130-131,33.58542,-96.18706,NO
3922,clarksville wic clinic,aceiklllrsv,1608 East Main St Ste A,0168aimn,clarksville,tx,75426,red river,903-427-1563,NA,903-427-1964,NA,NA,Mon | 9:00-6:00  &&  Wed | 9:30-4:30,https://texaswic.org/about-wic/live-chat-with-wic?la=039,33.6124788,-95.0374431,NO
13165,commerce wic,cceemmor,"100 Kings Plaza, Suite F",001gikns,commerce,tx,75428,hunt,903-886-1288,NA,NA,Wictx@Spcaa.Org,https://www.spcaawic.org/,Mon/Wed | 9:00-6:00 Lunch 1:00-2:00 && 1st Wed | Closed && Tue/ Thu | 7:00-4:00 Lunch 1:00-2:00 && 1st/3rd Tue | Closed,https://texaswic.org/about-wic/live-chat-with-wic?la=130-131,33.2362,-95.90777,NO
3921,mount pleasant clinic,aaemnnosttu,2001 W Ferguson Rd Ste 3010,00001123efgnorsu,mt pleasant,tx,75455,titus,903-572-9879,NA,--,NA,NA,Mon | 10:00-7:00  &&  Tue/Wed/Thu/Fri | 8:30-5:30,https://texaswic.org/about-wic/live-chat-with-wic?la=039,33.1592,-94.98882,NO
6201,paris-lamar county health department,aaaehhillmnoprsttuy,400 W Sherman St,004aehns,paris,tx,75460,lamar,903-784-1411,NA,903-784-1442,CarlaR@suddenlinkmail.com,NA,Mon-Thu |  7:00am - 6:00pm,NA,33.6573449,-95.5603171,NO
13178,quinlan wic,ailnnqu,401 Panther Path,014aaehhnpprtt,quinlan,tx,75474,hunt,903-363-4543,NA,NA,Wictx@Spcaa.Org,https://www.spcaawic.org/,1st/3rd Tue | 8:00-3:00 Lunch 1:00-2:00,https://texaswic.org/about-wic/live-chat-with-wic?la=130-131,32.9178251,-96.1291037,NO
3923,sulphur springs clinic,gilnprrsssuu,"1335 Shannon Road East, Suite A",1335ahnnnos,sulphur springs,tx,75482,hopkins,903-885-2813,NA,903-885-7897,NA,NA,Mon | 10:00-7:00  &&  Tue/Wed/Thu/Fri | 8:30-5:30,https://texaswic.org/about-wic/live-chat-with-wic?la=039,33.1396,-95.569327,NO
6501,texarkana-bowie county clinic,aaabceeiknnoorttuwxy,"In Person Services, 902 West 12Th Street",01229ceeehiinnoprrssstv,texarkana,tx,75501,bowie,903-798-3250,NA,903-278-7078,Kristi.kilgore@texarkanatexas.gov,NA,Mon/Tue/Wed/Thu | 7:00-6:00 Lunch 12:00-1:00,NA,33.42946,-94.05261,NO
3915,atlanta wic clinic,aaalntt,211 North Pinecrest Drive Suit,112ceeiinprstu,atlanta,tx,75551,cass,903-799-5298,NA,903-799-5579,NA,NA,Mon | 10:00-7:00  &&  Tue/Wed/Thu/Fri | 8:30-5:30,https://texaswic.org/about-wic/live-chat-with-wic?la=039,33.1063222,-94.1805415,NO
10801,"longview wellness ctr,inc dba wellness pointe",abcdeeeeeegiilllnnossssvwww,2430 S High St Suite C1,01234cghhi,longview,tx,75602,gregg,903-212-4835,NA,903-757-2142,NA,https://www.wellnesspointe.org/,Mon/Tue/Wed | 7:00-5:30 && 2nd Wed | 9:00-5:30 && Thu | 7:00-7:00 && Fri | 7:00-12:00 && 2nd Sat | 7:30-12:30,NA,32.4626,-94.73237,NO
3919,carthage wic clinic,aaceghrt,446 West Sabine,446abeins,carthage,tx,75633,panola,903-693-9331,NA,903-693-8592,NA,NA,Mon | 10:00-7:00  &&  Tue/Wed/Fri | 8:30-5:30 && Thu | Closed,https://texaswic.org/about-wic/live-chat-with-wic?la=039,32.1556138,-94.3455604,NO
3908,daingerfield wic,adeginr,1402-B Linda Drive,0124adiln,daingerfield,tx,75638,morris,903-645-2005,NA,903-645-4845,NA,NA,Tue/Thu/Fri | 8:30-5:30,https://texaswic.org/about-wic/live-chat-with-wic?la=039,33.01525,-94.72037,NO
3907,gilmer wic,egilmr,100 Buffalo St,001abfflou,gilmer,tx,75644,upshur,903-843-7561,NA,903-843-1132,NA,NA,Mon | 10:00-7:00  &&  Tue/Wed/Thu/Fri | 8:30-5:30,https://texaswic.org/about-wic/live-chat-with-wic?la=039,32.729856,-94.944969,NO
3920,henderson wic clinic,deehnnors,1115 Hwy 259 S Ste D,1112559,henderson,tx,75654,rusk,903-657-5056,NA,903-655-6467,NA,NA,Mon | 10:00-7:00  &&  Tue/Wed/Thu/Fri | 8:30-5:30,https://texaswic.org/about-wic/live-chat-with-wic?la=039,32.1418238,-94.7888884,NO
3917,jefferson wic clinic,eeffjnors,1113 N Walcott,1113aclottw,jefferson,tx,75657,marion,903-665-9266,NA,903-665-9316,NA,NA,Tue/Thu/Fri | 8:30-5:30,https://texaswic.org/about-wic/live-chat-with-wic?la=039,32.7715847,-94.3555087,NO
10803,"longview wellness ctr,inc dba wellness pointe",abcdeeeeeegiilllnnossssvwww,1711 South Henderson Suite 500,0011157deehnnors,kilgore,tx,75662,gregg,903-212-4855,NA,903-986-3422,NA,https://www.wellnesspointe.org/,Mon/Tue/Wed | 7:00-6:00 && 2nd Wed | 9:30-6:00 && Thu | 7:00-6:00 && 3rd Sat | 7:30-12:30,NA,32.37318,-94.87002,NO
3918,marshall wic clinic,aahllmrs,310 East Bowie,013beiow,marshall,tx,75670,harrison,903-935-1781,NA,903-935-0476,NA,NA,Mon | 10:00-7:00  &&  Tue/Wed/Thu/Fri | 8:30-5:30,https://texaswic.org/about-wic/live-chat-with-wic?la=039,32.54386,-94.36465,NO
3914,family care center - wic,aacefilmry,"225 E. Amherst St, Ste 800",002258aehmr,tyler,tx,75701,smith,(903) 533-1319,NA,NA,NA,NA,Mon | 10:00-7:00  &&  Tue/Wed/Thu/Fri | 8:30-5:30,https://texaswic.org/about-wic/live-chat-with-wic?la=039,32.311775,-95.300009,NO
3904,tyler wic clinic,elrty,815 North Broadway,158,tyler,tx,75701,smith,903-592-7635,NA,903-592-8442,NA,NA,Mon | 10:00-7:00  &&  Tue/Wed/Thu/Fri | 8:30-5:30,https://texaswic.org/about-wic/live-chat-with-wic?la=039,32.35871,-95.30049,NO
3926,athens wic clinic,aehnst,1212 S Palestine St,1122aeeilnp,athens,tx,75751,henderson,903-677-2400,NA,--,NA,NA,Mon | 10:00-7:00  &&  Tue/Wed/Thu/Fri | 8:30-5:30,https://texaswic.org/about-wic/live-chat-with-wic?la=039,32.18148,-95.84994,NO
3902,jacksonville wic clinic,aceijkllnosv,335 Neches St,335ceehns,jacksonville,tx,75766,cherokee,903-589-0734,NA,903-586-6124,NA,NA,Mon | 10:00-7:00  &&  Tue/Wed/Thu/Fri | 8:30-5:30,https://texaswic.org/about-wic/live-chat-with-wic?la=039,31.96246,-95.26911,NO
3903,lindale wic clinic,iln,402 West Hubbard,024abbhu,lindale,tx,75771,smith,903-592-7635,NA,--,NA,NA,Thu | 9:30-4:30 && Thu | Cell Number Available : (903)360-3128,https://texaswic.org/about-wic/live-chat-with-wic?la=039,32.5159499,-95.40503,NO
3909,quitman wic,aimnqtu,1020 East Goode Street,0012degoo,quitman,tx,75783,wood,903-763-4123,NA,903-763-3203,NA,NA,Mon | 10:00-7:00  &&  Tue/Wed/Thu/Fri | 8:30-5:30,https://texaswic.org/about-wic/live-chat-with-wic?la=039,32.79517,-95.43264,NO
3924,palestine clinic,aeeilnp,305 East Lacy St Ste 130,001335acly,palestine,tx,75801,anderson,903-729-2310,NA,903-729-2762,NA,NA,Mon | 10:00-7:00  &&  Tue/Wed/Thu/Fri | 8:30-5:30,https://texaswic.org/about-wic/live-chat-with-wic?la=039,31.76568,-95.62915,NO
13307,buffalo wic clinic,abfflou,942 North Hill St,249hill,buffalo,tx,75831,leon,979-260-2942,NA,903-536-2110,NA,NA,Mon/Wed | 8:30-5:30  Lunch 12:30-1:30,NA,31.46472,-96.057823,NO
7706,u t m b- crockett wic,bccekmortttu,400 Alabama Street,004aaaablm,crockett,tx,75835,houston,936-544-3002,NA,936-544-8643,JSNeal@UTMB.edu,https://www.utmbhealth.com/services/rmchp/,Mon  |  8:00-7:00  &&  Tue | 8:00-5:00  Lunch 12:00-1:00  &&  Wed| 8:00-5:00  && Thu | 8:00-5:00 Lunch 12:00-1:00 && Fri  |  8:00-3:00,https://texaswic.org/about-wic/live-chat-with-wic?la=077,31.3020804,-95.4592434,NO
13101,fairfield wic,afir,"Brookshire Brothers Parking Lot, 300 West Hwy 84",00348eeghhiilnoorrsstt,fairfield,tx,75840,freestone,903-388-9490,NA,--,Wictx@Spcaa.Org,https://www.spcaawic.org/,2nd Tue | 9:30-5:15  Lunch 12:30-1:30,https://texaswic.org/about-wic/live-chat-with-wic?la=130-131,31.726578,-96.165163,NO
7712,utmb groveton wic,bmnottu,219 W Front,129fnort,groveton,tx,75845,trinity,936-544-3002,NA,NA,JSNeal@UTMB.edu,https://www.utmbhealth.com/services/rmchp/,1st Thur  |  9:00-3:30  Lunch  12:00-1:00,https://texaswic.org/about-wic/live-chat-with-wic?la=077,31.054128,-95.126927,NO
5801,lufkin wic clinic,fiklnu,205 Shands Dr,025hss,lufkin,tx,75904,angelina,936-637-7242,NA,936-633-0610,Emalloy@Acchd.Us,https://www.acchd.us/,Mon/Tue/Wed/Thu| 7:30-6:30  &&  Fri | 7:30-4:30,NA,31.33758,-94.74913,NO
3912,alto wic clinic,alot,123 Busy Bee St,123bbeesuy,alto,tx,75925,cherokee,936-589-0734,NA,--,NA,NA,1st Wed/3rd Wed | 9:30-4:30  &&  Cell Number Available During Business Hours | 903-574-9897,https://texaswic.org/about-wic/live-chat-with-wic?la=039,31.6503805,-95.073954,NO
6110,kirbyville wic clinic,beiikllrvy,204 MLK Ave,024klm,kirbyville,tx,75956,newton,409-509-0315,NA,409-994-4086,wic6100@jaspernewton.org,https://www.jaspernewton.org/,Wed/Thu | 7:30-4:00 Lunch 12:00-12:30,NA,30.658954,-93.892104,NO
7705,u t m b- center wic,bmtu,105 Foster Street,015for,center,tx,75935,shelby,936-598-5021,NA,936-591-0664,JSNeal@UTMB.edu,https://www.utmbhealth.com/services/rmchp/,Mon  |  9:00-6:00  &&  Tue/Wed/Thu  | 8:00-5:00  &&  Fri  |  8:00-3:00,https://texaswic.org/about-wic/live-chat-with-wic?la=077,31.80423,-94.18728,NO
5802,diboll wic clinic - special procedures -,abccddeeeiillloopprrssu,"For Assistance Call 936-637-7242, 201 N Temple",0122233466779aaacceeefillmnorsst,diboll,tx,75941,angelina,936-829-4666,NA,936-633-0610,Emalloy@Acchd.Us,https://www.acchd.us/,For Assistance Call 936-637-7242,NA,31.18504,-94.78207,NO
7710,u t m b- woodville wic,bdeillmootuvw,302 North Magnolia,023aagilmno,woodville,tx,75979,tyler,409-283-2667,NA,409-283-5764,JSNeal@UTMB.edu,https://www.utmbhealth.com/services/rmchp/,Mon | 9:00-6:00 Lunch 12:00-1:00 && Tue | 9:00-6:00 Lunch 12:30-1:00  && Wed | 8:00-5:00 Lunch 12:30-1:00  &&  Thu | 8:00-5:00 Lunch 12:30-1:00 &&  Fri  |  8:00-3:00  && Lunch 12:30-1:00,https://texaswic.org/about-wic/live-chat-with-wic?la=077,30.77752,-94.4144,NO
5803,huntington wic clinic - special procedures -,accdeeeghiilnnnoopprrssttuu,"Huntington Civic Center, 1179 N Us Highway 69",116799ccghiiinnnosttuuv,huntington,tx,75949,angelina,936-637-7242,NA,936-633-0610,Emalloy@Acchd.Us,https://www.acchd.us/,For Assistance Call 936-637-7242,NA,31.2835555,-94.5948256,NO
6102,jasper-newton county public health,aabcceeehhijllnnnoopprstttuuwy,139 West Lamar,139aalmr,jasper,tx,75951,jasper,409-384-3868,NA,409-384-4521,wic6100@jaspernewton.org,https://www.jaspernewton.org/,Mon/Tue/Wed/Thu | 7:00-4:30  Lunch 12:00-12:30,NA,30.92167,-94.00111,NO
7704,u t m b- nacogdoches wic,abccdeghmnoostu,2016 N Stallings Dr,0126agillns,nacogdoches,tx,75964,nacogdoches,936-560-2944,NA,936-564-4886,JSNeal@UTMB.edu,https://www.utmbhealth.com/services/rmchp/,Mon/Tue  |  8:00-6:00  &&  Wed/Thu  |  8:00-5:00  &&  Fri  |  8:00-3:00  &&  2Nd Sat  |  8:00-12:00,https://texaswic.org/about-wic/live-chat-with-wic?la=077,31.6522149,-94.6679319,NO
6101,jasper-newton county public health,aabcceeehhijllnnnoopprstttuuwy,210 High Street,012ghhi,newton,tx,75966,newton,409-379-2753,NA,409-379-3054,wic6100@jaspernewton.org,https://www.jaspernewton.org/,Tue/Wed | 7:00-4:30  Lunch 12:00-12:30,NA,30.8493,-93.7609,NO
6107,wic-6107,0167,581 S El Camino Crossing,158aceilmno,san augustine,tx,75972,san augustine,936-275-5331,NA,936-275-5331,wic6100@jaspernewton.org,https://www.jaspernewton.org/,Mon/Tue/Wed | 7:00-4:30  Lunch 12:00-12:30,NA,31.52733,-94.1255,NO
5804,zavalla wic clinic - special procedures -,aaaaccdeeeilllopprrssuvz,"Solid Rock Missionary Baptist Church, Youth Building, 16663 FM 2109",011236669abcccdfhhhiiiiklmmnoooorrrssstuuyy,zavalla,tx,75980,angelina,936-637-7242,NA,936-633-0610,Emalloy@Acchd.Us,https://www.acchd.us/,For Assistance Call 936-637-7242,NA,31.164353,-94.409655,NO
5434,east side clinic - in person services-,cdeeeeeiiinnoprrssssv,1100 Bridgewood Suite 116,0011116doow,fort worth,tx,76112,tarrant,817-321-5400,NA,817-492-5202,NA,https://www.tarrantcountytx.gov/en/public-health/family-health-services/wic-program.html,Mon/Tue/Wed/Thu/Fri | 9:00-6:00 Lunch 1:00-2:00 && 2nd Sat | 8:00-5:00 Lunch 12:00-1:00 && Mon after Saturday hours | Closed && Saturdays may vary based on holidays,NA,32.76377,-97.21808,NO
5418,miller wic clinic,eillmr,3212 Miller Ave,1223eillmr,fort worth,tx,76119,tarrant,817-321-5400,NA,817-531-6725,NA,https://www.tarrantcountytx.gov/en/public-health/family-health-services/wic-program.html,Mon/Tue/Wed/Thu/Fri | 9:00-6:00 Lunch 1:00-2:00 && 2nd Sat | 8:00-5:00 Lunch 12:00-1:00 && Mon after Saturday hours | Closed && Saturdays may vary based on holidays,NA,32.71206,-97.26335,NO
13146,burleson wic,belnorsu,228 SW Wilshire Blvd,228ehiilrssww,burleson,tx,76028,johnson,817-447-6110,NA,NA,Wictx@Spcaa.Org,https://www.spcaawic.org/,Mon/Tue | 9:00-6:00  Lunch 12:00-1:00  && Wed/Thu | 7:00-4:00 Lunch 12:00-1:00 && 1st Wed | Closed,https://texaswic.org/about-wic/live-chat-with-wic?la=130-131,32.5425814,-97.330047,NO
13120,cleburne wic,bceelnru,106 Del Rio Ct,016deilor,cleburne,tx,76033,johnson,817-641-7211,NA,NA,Wictx@Spcaa.Org,https://www.spcaawic.org/, Mon/Tue | 9:00-6:00  Lunch 12:00-1:00  && Wed/Thu | 7:00-4:00 Lunch 12:00-1:00 && 1st Wed | Closed,https://texaswic.org/about-wic/live-chat-with-wic?la=130-131,32.34227,-97.4063,NO
13181,glen rose wic,eors,107 Shepherd St.,017eehs,glen rose,tx,76043,somervell,254-396-5405,NA,NA,Wictx@Spcaa.Org,https://www.spcaawic.org/,1st Tue | 9:30-4:30 Lunch 12:00-12:30,https://texaswic.org/about-wic/live-chat-with-wic?la=130-131,32.2356471,-97.7569047,NO
13185,granbury wic,abgnrruy,"1250 Weatherford Hwy, Bldg A",0125aeehrtw,granbury,tx,76048,hood,817-579-6760,NA,NA,Wictx@Spcaa.Org,https://www.spcaawic.org/, Mon/Tue | 9:00-6:00  Lunch 12:00-1:00 && Wed/Thu | 7:00-4:00 Lunch 12:00-1:00 && 1st Tue/1st Wed | Closed && Close 1 hour early on the last day of the month,https://texaswic.org/about-wic/live-chat-with-wic?la=130-131,32.4573745,-97.7855219,NO
13170,mineral wells wic,aeeilllmnrsw,"103 S Oak St, Suite 101",001113ako,mineral wells,tx,76067,palo pinto,940-325-0045,NA,NA,Wictx@Spcaa.Org,https://www.spcaawic.org/,Mon/Wed | 9:00-6:00  Lunch 1:00-2:00 && 1st Wed | Closed && Tue/Thu | 7:00-4:00 Lunch 1:00-2:00,https://texaswic.org/about-wic/live-chat-with-wic?la=130-131,32.8090004,-98.1127851,NO
13173,springtown wic,ginnoprstw,458 SH-199 E,145899hs,springtown,tx,76082,parker,254-436-5580,NA,254-436-5583,Wictx@Spcaa.Org,https://www.spcaawic.org/,Mon/Wed | 9:00-6:00  Lunch 1:00-2:00 && 1st Wed | Closed && Tue/Thu | 7:00-4:00 Lunch 1:00-2:00,https://texaswic.org/about-wic/live-chat-with-wic?la=130-131,32.960874,-97.677711,NO
13175,weatherford wic,aeehrtw,"925 Santa Fe Dr, Suite 107 & 108",001125789aaefnst,weatherford,tx,76086,parker,817-594-8536,NA,NA,Wictx@Spcaa.Org,https://www.spcaawic.org/,Mon/Wed | 9:00-6:00 Lunch 1:00-2:00 && 1st Wed | Closed && Tue/ Thu | 7:00-4:00 Lunch 1:00-2:00 && 1st/3rd Tue | Closed,https://texaswic.org/about-wic/live-chat-with-wic?la=130-131,32.7585327,-97.793165,NO
5419,southside clinic - in person services-,cdeeeeiiinnoprrsssssv,1101 South Main Street Suite 1401,00111114aimn,fort worth,tx,76104,tarrant,817-321-5400,NA,817-321-5442,NA,https://www.tarrantcountytx.gov/en/public-health/family-health-services/wic-program.html,Mon/Tue/Wed/Thu/Fri | 9:00-6:00 Lunch 1:00-2:00 && 2nd Sat | 8:00-5:00 Lunch 12:00-1:00 && Mon after Saturday hours | Closed && Saturdays may vary based on holidays,NA,32.73239,-97.32525,NO
5412,resource connection,cceeeinnnooorrsu,2500 Circle Drive Suite 400,0000245,fort worth,tx,76119,tarrant,817-321-5400,NA,817-413-6303,NA,https://www.tarrantcountytx.gov/en/public-health/family-health-services/wic-program.html,Mon/Tue/Wed/Thu/Fri | 9:00-6:00 Lunch 1:00-2:00 && 2nd Sat | 8:00-5:00 Lunch 12:00-1:00 && Mon after Saturday hours | Closed && Saturdays may vary based on holidays,NA,32.67645,-97.30069,NO
5402,lake worth wic clinic- in person services-,aceeeehiiklnnooprrrssstvw,3800 Adam Grubb Rd,0038aabbdgmru,lake worth,tx,76135,tarrant,817-321-5400,NA,817-238-4454,NA,https://www.tarrantcountytx.gov/en/public-health/family-health-services/wic-program.html,Mon/Tue/Wed/Thu/Fri | 9:00-6:00 Lunch 1:00-2:00 && 2nd Sat | 8:00-5:00 Lunch 12:00-1:00 && Mon after Saturday hours | Closed && Saturdays may vary based on holidays,NA,32.8105208,-97.4358814,NO
5405,white settlement wic clinic - in person services -,ceeeeeeehiiilmnnnoprrssssttttvw,1638 South Cherry Lane,1368cehrry,white settlement,tx,76108,tarrant,817-321-5400,NA,817-935-6052,NA,https://www.tarrantcountytx.gov/en/public-health/family-health-services/wic-program.html,Mon/Tue/Wed/Thu/Fri | 9:00-6:00 Lunch 1:00-2:00 && 2nd Sat | 8:00-5:00 Lunch 12:00-1:00 && Mon after Saturday hours | Closed && Saturdays may vary based on holidays,NA,32.7421477,-97.4518849,NO
5417,southwest wic clinic,sw,6551 Granbury Rd,1556abgnrruy,fort worth,tx,76133,tarrant,817-321-5400,NA,817-370-4544,NA,https://www.tarrantcountytx.gov/en/public-health/family-health-services/wic-program.html,Mon/Tue/Wed/Thu/Fri | 9:00-6:00 Lunch 1:00-2:00 && 2nd Sat | 8:00-5:00 Lunch 12:00-1:00 && Mon after Saturday hours | Closed && Saturdays may vary based on holidays,NA,32.65195,-97.40745,NO
5407,haltom city clinic,achilmotty,4113 Denton Hwy,1134dennot,haltom city,tx,76117,tarrant,817-321-5400,NA,817-514-5053,NA,https://www.tarrantcountytx.gov/en/public-health/family-health-services/wic-program.html,Mon/Tue/Wed/Thu/Fri | 9:00-6:00 Lunch 1:00-2:00 && 2nd Sat | 8:00-5:00 Lunch 12:00-1:00 && Mon after Saturday hours | Closed && Saturdays may vary based on holidays,NA,32.824122,-97.265778,NO
3501,denton county health department,acdeehhlnnnootttuy,535 South Loop 288 Suite 1066,0123556688loop,denton,tx,76205,denton,940-349-2930,NA,940-349-2931,NA,NA,Mon/Tue/Wed/Thu  |  9:00-6:00  Lunch 12:00-1:00  &&  Fri  |  7:30-4:30  Lunch 12:00-1:00,NA,33.202876,-97.0896,NO
13108,bowie wic,beiow,"207 E Greenwood Ave, Suite A",027deegnoorw,bowie,tx,76230,montague,940-872-6266,NA,NA,Wictx@Spcaa.Org,https://www.spcaawic.org/,Tue/Thu | 7:00-4:00  Lunch 1:00-2:00,https://texaswic.org/about-wic/live-chat-with-wic?la=130-131,33.565146,-97.838791,NO
13130,decatur wic,acdertu,"2014 Ben Merritt Dr, Suite C",0124beeimnrrtt,decatur,tx,76234,wise,940-627-5796,NA,940-627-2190,Wictx@Spcaa.Org,https://www.spcaawic.org/,Mon/Wed | 9:00-6:00  Lunch 1:00-2:00 && 1st Wed | Closed && Tue/Thu | 7:00-4:00 Lunch 1:00-2:00,https://texaswic.org/about-wic/live-chat-with-wic?la=130-131,33.24726,-97.58373,NO
13140,gainesville wic,aeegiillnsv,1103 E California St,0113aacfiilnor,gainesville,tx,76240,cooke,940-668-1292,NA,940-668-1298,Wictx@Spcaa.Org,https://www.spcaawic.org/,Mon/Wed | 9:00-6:00  Lunch 1:00-2:00 && 1st Wed | Closed && Tue/Thu | 7:00-4:00 Lunch 1:00-2:00,https://texaswic.org/about-wic/live-chat-with-wic?la=130-131,33.6243249,-97.1342347,NO
13153,nocona wic,acnnoo,"Community Center, 400 Hobson St",004bchmmnooosy,nocona,tx,76255,montague,254-216-9211,NA,--,Wictx@Spcaa.Org,https://www.spcaawic.org/,3rd Mon | 10:00-4:30  Lunch  1:00-2:00,https://texaswic.org/about-wic/live-chat-with-wic?la=130-131,33.7812476,-97.7294844,NO
2101,wichita falls-wichita county health district,aaacdehhhhiiiilnorttttuy,1700 Third Street,0017hit,wichita falls,tx,76301,wichita,940-761-7815,NA,940-761-8803,Janice.Piper@Wichitafallstx.Gov,https://www.wichitafallstx.gov/359/Women-Infants-Children-WIC,Mon | 8:00-6:30 && Tues-Fri | 8:00-5:00 && Last Fri of Month | Closed,NA,33.9122476,-98.5046613,NO
13116,archer city wic,cehirty,509 S Cedar St,059acder,archer city,tx,76351,archer,940-575-7491,NA,940-905-1029,Wictx@Spcaa.Org,https://www.spcaawic.org/,Mon | 7:00-4:00  Lunch 12:00-1:00,https://texaswic.org/about-wic/live-chat-with-wic?la=130-131,33.5911578,-98.6222604,NO
13125,olney wic,eoy,1016 Arbor Street,0116aborr,olney,tx,76374,young,682-432-9958,NA,682-432-9959,Wictx@Spcaa.Org,https://www.spcaawic.org/,Tue | 9:00-3:30  Lunch 12:00-1:00 && 5th Tue | Closed,https://texaswic.org/about-wic/live-chat-with-wic?la=130-131,33.3674902,-98.7660383,NO
13109,seymour wic,emorsuy,108 S Washington St,018aghinnostw,seymour,tx,76380,baylor,940-586-6331,NA,940-586-6337,Wictx@Spcaa.Org,https://www.spcaawic.org/,Mon | 7:00-4:00  Lunch 12:00-1:00,https://texaswic.org/about-wic/live-chat-with-wic?la=130-131,33.58773,-99.2617049,NO
13117,vernon wic,ennorv,2400 Texas,0024aestx,vernon,tx,76384,wilbarger,940-223-0979,NA,940-223-0980,Wictx@Spcaa.Org,https://www.spcaawic.org/,Mon/Wed/Thu | 7:00-4:00 Lunch 12:00-1:00 && Tue | 9:00-6:00 Lunch 12:00-1:00 && 3rd Mon | Closed && 1st/2nd Tue | Closed && 1st Wed | Closed && 3rd Thu | Closed,https://texaswic.org/about-wic/live-chat-with-wic?la=130-131,34.1546549,-99.2911793,NO
13180,stephenville wic,eeillnv,125 W Oak St,125ako,stephenville,tx,76401,erath,254-968-3680,NA,NA,Wictx@Spcaa.Org,https://www.spcaawic.org/, Mon/Tue | 9:00-6:00  Lunch 12:00-1:00 && Wed/Thu | 7:00-4:00 Lunch 12:00-1:00 && 1st Wed | Closed,https://texaswic.org/about-wic/live-chat-with-wic?la=130-131,32.2304699,-98.20938,NO
13102,breckenridge wic,ceekn,2802 W Walker St,0228aeklrw,breckenridge,tx,76424,stephens,254-559-6577,NA,254-559-8377,Wictx@Spcaa.Org,https://www.spcaawic.org/,Wed/3rd Thu | 9:00-4:00  Lunch 12:00-1:00 && 1st Wed | Closed,https://texaswic.org/about-wic/live-chat-with-wic?la=130-131,32.757692,-98.936216,NO
13126,albany wic,aablny,84 N Ave B,48,albany,tx,76430,shackelford,254-212-9914,NA,--,Wictx@Spcaa.Org,https://www.spcaawic.org/,3rd Wed |8:00- 11:00,https://texaswic.org/about-wic/live-chat-with-wic?la=130-131,32.72911,-99.30035,NO
13197,comanche wic,accehmno,209 W Duncan Ave,029acdnnu,comanche,tx,76442,comanche,254-979-9052,NA,--,Wictx@Spcaa.Org,https://www.spcaawic.org/,Mon| 10:00-5:00 Lunch 12:00-12:30,https://texaswic.org/about-wic/live-chat-with-wic?la=130-131,31.8995,-98.60513,NO
13179,cross plains wic,acinorsss,"Community Center, 108 N Beech St",018bcceehmmoy,cross plains,tx,76443,callahan,254-212-9914,NA,NA,Wictx@Spcaa.Org,https://www.spcaawic.org/,1st Thu | 8:00-3:00,https://texaswic.org/about-wic/live-chat-with-wic?la=130-131,32.12499,-99.15847,NO
13198,de leon wic,deelno,"Old Hotel Apartments , 101 W Labadie Ave Apt 102",001112aabddeehillloot,de leon,tx,76444,comanche,254-979-9052,NA,NA,Wictx@Spcaa.Org,https://www.spcaawic.org/,4th Tue | 10:00-5:00 Lunch 12:00-12:30,https://texaswic.org/about-wic/live-chat-with-wic?la=130-131,32.10835,-98.53758,NO
13112,eastland wic,el,935 E Main St,359aimn,eastland,tx,76448,eastland,254-629-1783,NA,NA,Wictx@Spcaa.Org,https://www.spcaawic.org/,Mon/Tue | 9:00-6:00  Lunch 12:00-1:00,https://texaswic.org/about-wic/live-chat-with-wic?la=130-131,32.4016151,-98.8049216,NO
13104,graham wic,aaghmr,"2015 Hwy 16 South, Suite C",011256,graham,tx,76450,young,940-549-9600,NA,940-549-7224,Wictx@Spcaa.Org,https://www.spcaawic.org/,Mon | 7:00-4:00  Lunch 12:00-1:00 && Tue | 9:00-6:00 Lunch 12:00-1:00 && 1st/2nd/4th Thu | 7:00-4:00 Lunch 12:00-1:00,https://texaswic.org/about-wic/live-chat-with-wic?la=130-131,33.0839085,-98.5838654,NO
13118,jacksboro wic,abcjkoors,"212 North Church St, Suite B",122cchhru,jacksboro,tx,76458,jack,940-567-2601,NA,940-567-2142,Wictx@Spcaa.Org,https://www.spcaawic.org/,2nd/3rd/4th Wed | 9:00-4:00  Lunch 12:00-1:00,https://texaswic.org/about-wic/live-chat-with-wic?la=130-131,33.22014,-98.15712,NO
3101,temple clinic,eemt,201 North 8Th,0128ht,temple,tx,76501,bell,254-532-9800,NA,254-778-6914,NA,NA,Mon/Tue/Wed/Thu - 7:00-5:30 Lunch 12:00-12:30 | 1st Sat  |  8:00-12:00  &&  1st Thu after 1st Sat  |  7:00-1:00,NA,31.09788,-97.3361199,NO
10501,milam county wic/cameron,aacceilmmmnnoortuy,908 N. Crockett,089ccekortt,cameron,tx,76520,milam,254-697-4913,NA,254-697-8763,NA,NA,Mon | 8:30-6:00 Lunch 12:30-1:00 && Tue | 8:00-6:00  Lunch 12:00-1:00 && Wed | 8:00-5:30 Lunch 12:00-1:00 && Thu | 8:30-5:30  Lunch 12:30-1:00 && Fri | 8:30-1:30,NA,30.84943,-96.9776,NO
3103,copperas cove clinic,aceopprs,213 W Avenue D,123,copperas cove,tx,76522,coryell,254-532-9800,NA,254-547-7767,NA,NA,Mon/Tue/Wed/Thu - 7:00-5:30 Lunch 12:00-12:30 | 1st Sat   |  8:00-12:00  &&  1st Thu after To 1st Sat  |  7:00-1:00,NA,31.12434,-97.90441,NO
13195,hamilton wic,ahilmnot,101 E Henry St,011ehnry,hamilton,tx,76531,hamilton,325-451-0126,254-978-3739,--,Wictx@Spcaa.Org,https://www.spcaawic.org/,2nd/3rd Tue | 10:00-5:00  Lunch 12:00-1:00,https://texaswic.org/about-wic/live-chat-with-wic?la=130-131,31.70479,-98.12357,NO
3102,killeen clinic,eeiklln,111 Santa Fe Plaza Dr,111aaefnst,killeen,tx,76541,bell,254-532-9800,NA,254-526-2073,NA,NA,Mon/Tue/Wed/Thu - 7:00-5:30 Lunch 12:00-12:30 | 1st Sat   |  8:00-12:00  &&  1st Thu after 1st Sat  |  7:00-1:00,NA,31.12011,-97.72978,NO
3104,fort cavazos wic clinic,aacfoorstvz,"36000 Darnall Loop, 2nd Floor Suite 2135",0001223356aaddlllnnoopr,fort hood,tx,76544,bell,254-532-9800,NA,NA,NA,NA,Mon/Tue/Wed/Thu | 7:00-4:30  Lunch 12:00-12:30  &&  Fri  8:00-12:00,NA,31.13257,-97.77515,NO
13158,lampasas wic,aaalmpss,"1305 S Key Ave, Suite 104",0011345eky,lampasas,tx,76550,lampasas,512-556-3195,NA,NA,Wictx@Spcaa.Org,https://www.spcaawic.org/,Mon | 9:00-6:00 Lunch 12:00-1:00 && Wed | 9:00-6:00 Lunch 12:00-1:00 && 1st/Last Wed | Closed && Thu | 7:00-4:00 Lunch 12:00-1:00,https://texaswic.org/about-wic/live-chat-with-wic?la=130-131,31.05684,-98.17872,NO
10502,milam county wic/rockdale,acciklmmnoortuy,313 North Main,133aimn,rockdale,tx,76567,milam,512-446-6245,NA,512-446-2746,NA,NA,Mon/Tue/Wed/Thu | 8:00-5:00,NA,30.65655,-97.00211,NO
4202,taylor public health center,aabcehhillloprttuy,"Appointments are now in person. Please enter the WIC clinic building for your appointment., 115 West 6Th Street",1156aaaaccceeeeeeeefhhiiiilmmnnnnnnnooooppprrrrsssttttuwwy,taylor,tx,76574,williamson,512-352-4109,NA,512-238-2197,Taylorwic@Wilco.Org,http://www.wcchd.org/,Tue/Wed/Thu | 8:00-6:00 Lunch 12:00-1:00,NA,30.57229,-97.41072,NO
13121,clifton wic,cfilnot,"Clifton Civic Center, 403 W 3rd St",0334cccfiiilnotv,clifton,tx,76634,bosque,325-451-0126,NA,--,Wictx@Spcaa.Org,https://www.spcaawic.org/,1st Tue | 10:00-5:00 Lunch 12:00-1:00 && 2nd/3rd/4th Wed | 10:00-5:00  Lunch 12:00-1:00,https://texaswic.org/about-wic/live-chat-with-wic?la=130-131,31.78383,-97.57389,NO
13110,hillsboro wic,bhilloors,211 A E Franklin St,112afiklnnr,hillsboro,tx,76645,hill,254-582-8242,NA,NA,Wictx@Spcaa.Org,https://www.spcaawic.org/,Mon/Tue/Wed | 9:00-6:00  Lunch 12:30-1:30 && 1st Wed | Closed && Thu | 7:00-4:30 Lunch 11:30-12:30,https://texaswic.org/about-wic/live-chat-with-wic?la=130-131,32.01212,-97.12754,NO
2203,mcgregor wic clinic - special procedures,acccdeeeeggilmoopprrrrssu,"No In Person Services - For Assistance Call 254-750-5474, 217 South Madison",0122444555777aaaacccdeeeefiiiillmnnnnnooooprrrssssssv,mcgregor,tx,76657,mclennan,(254) 840-4212,NA,NA,NA,NA,For Assistance Call 254-750-5474,NA,31.43954,-97.40768,NO
13162,marlin wic,ailmnr,211-A Fortune St,112efnortu,marlin,tx,76661,falls,254-883-6252,NA,NA,Wictx@Spcaa.Org,https://www.spcaawic.org/,Mon/Tue/Wed | 9:00-6:00 Lunch 12:00-1:00 && 1st Wed | Closed && Thu | 7:00-4:00 Lunch 12:00-1:00,https://texaswic.org/about-wic/live-chat-with-wic?la=130-131,31.3075549,-96.9001199,NO
2202,mart clinic,amrt,215 North Elm,125elm,mart,tx,76664,mclennan,254-876-2173,NA,--,NA,NA,For Assistance Call 254-750-5474,NA,31.54191,-96.83993,NO
13111,mexia wic,aeimx,403 N Bailey St,034abeily,mexia,tx,76667,limestone,254-562-0923,NA,NA,Wictx@Spcaa.Org,https://www.spcaawic.org/,Mon/Tue/Wed | 9:00-6:00  Lunch 12:30-1:30 && 1st Wed | Closed && Thu | 7:00-4:00 Lunch 11:30-12:30,https://texaswic.org/about-wic/live-chat-with-wic?la=130-131,31.6867862,-96.4716562,NO
2201,waco-mclennan county public health dept,aaabcccceehhilllmnnnnoopttuuwy,225 West Waco Drive,225acow,waco,tx,76707,mclennan,254-750-5474,NA,254-750-5415,NA,NA,Mon/Thu/Fri  |  8:00-5:00  &&  Tue  |  9:00-6:00  &&  Wedn  |  9:00-5:00  &&  2nd Sat of Month  |  8:30-12:30,NA,31.56446,-97.13572,NO
2209,south 18th st community clinic,18chmmosty,1800 Gurley Ln,0018eglruy,waco,tx,76706,mclennan,(254) 709-9935,NA,--,NA,NA,For Assistance Call 254-750-5474,NA,31.52493,-97.11868,NO
7401,brownwood-brown county health dept,acdehhlnnnooooottuwwwy,305 Booker St,035bekoor,brownwood,tx,76801,brown,325-646-1514,NA,325-643-8157,Wic@Brownwoodtexas.Gov,NA,Monday-Thursday  |  7:30am-6:30pm Lunch 12:00-1:00,NA,31.72248,-98.98459,NO
5603,ballinger wic clinic,abegillnr,1501 North Broadway St,0115,ballinger,tx,76821,runnels,325-365-5925,NA,325-365-3117,NA,NA,Mon | 7:00-6:00 Closed 12:00-1:00 && Wed | 7:00-6:00 Closed 12:00-1:00,NA,31.73729,-99.94704,NO
13050,brady wic,ady,405 S Bridge St,045,brady,tx,76825,mcculloch,325-597-2444,NA,325-597-2441,Wictx@Spcaa.Org,https://www.spcaawic.org/,3rd Tues | 9:00-6:00 Lunch 12:00-1:00 && last Wed 9:00 - 6:00 Lunch 12:00 - 1:00 && 1st Thurs | 7:00 - 4:00 Lunch | 12:00 - 1:00,https://texaswic.org/about-wic/live-chat-with-wic?la=130-131,31.12766,-99.33536,NO
5604,coleman wic clinic,acelmno,114 Needham St,114adeehmn,coleman,tx,76834,coleman,325-625-3447,NA,325-625-5744,NA,NA,Thur | 8:00-5:00 Closed 12:00-1:00,NA,31.830331,-99.423958,NO
13196,goldthwaite wic,adeghilottw,1011 Hutchings St,0111cghhinstu,goldthwaite,tx,76844,mills,512-571-0258,NA,NA,Wictx@Spcaa.Org,https://www.spcaawic.org/,1st Tue | 10:00-4:30 Lunch 12:00-1:00,https://texaswic.org/about-wic/live-chat-with-wic?la=130-131,31.448978,-98.572665,NO
13043,junction wic,,"First Baptist Church, 202 S 8th St",0228bccfhhhiirrtu,junction,tx,76849,kimble,325-240-8641,NA,NA,Wictx@Spcaa.Org,https://www.spcaawic.org/,2nd/4th Thu | 9:00-2:45  Lunch 12:00-1:00,https://texaswic.org/about-wic/live-chat-with-wic?la=130-131,30.48703,-99.76921,NO
13171,san saba wic,aaabnss,"2005 W Wallace St, Suite 110",0001125aacellw,san saba,tx,76877,san saba,512-571-0258,NA,NA,Wictx@Spcaa.Org,https://www.spcaawic.org/,2nd/4th Tue | 10:00-5:00  Lunch 12:00-1:00,https://texaswic.org/about-wic/live-chat-with-wic?la=130-131,31.1956207,-98.7386625,NO
5601,city of san angelo wic,aacefgilnnoosty,52 West College Ave,25ceegllo,san angelo,tx,76903,tom green,325-657-4396,NA,325-658-7180,NA,NA,Mon/Tue/Wed/Thu | 7:00-6:00 Closed 12:00-1:00 && 1st Sat | 8:00-12:00,NA,31.46498,-100.43919,NO
13049,eldorado wic,addeloor,400 E Murchison Ave,004chimnorsu,eldorado,tx,76936,schleicher,325-226-8325,NA,NA,Wictx@Spcaa.Org,https://www.spcaawic.org/,1st/3rd Tue | 7:30-3:30  Lunch 12:00-1:00,https://texaswic.org/about-wic/live-chat-with-wic?la=130-131,30.86278,-100.60271,NO
13035,ozona wic,anooz,106 Medical Dr,016acdeilm,ozona,tx,76943,crockett,830-491-0163,NA,NA,Wictx@Spcaa.Org,https://www.spcaawic.org/,2nd/4th Wed  |  8:00-3:00  Lunch 12:00-1:00,https://texaswic.org/about-wic/live-chat-with-wic?la=130-131,30.722326,-101.20621,NO
13044,sonora wic,anoors,103 E Main St,013aimn,sonora,tx,76950,sutton,325-226-8325,NA,325-387-2023,Wictx@Spcaa.Org,https://www.spcaawic.org/,2nd Tue | 9:00-6:00  Lunch 12:00-1:00 && 4th/5th Tue | 7:00-4:00 Lunch 12:00-1:00,https://texaswic.org/about-wic/live-chat-with-wic?la=130-131,30.57116,-100.64619,NO
2624,la nueva casa,aaaacelnsuv,1809 North Main,0189aimn,houston,tx,77009,harris,832-393-5427,NA,713-547-8033,Hltwicinfo@houstontx.gov,NA,Mon | 9:00-6:00 Lunch 12:00-1:00 && Tue/Wed/Thu/Fri | 8:00-5:00 Lunch 12:00-1:00 && 2nd Thu | 1:00-5:00 && 4th Sat | 8:00-12:00 && Friday after 4th Sat | 8:00-12:00,https://texaswic.org/about-wic/live-chat-with-wic?la=026,29.77543,-95.36161,NO
2612,denver harbor wic center,abdeehnorrrv,6402 Market Street,0246aekmrt,houston,tx,77020,harris,832-393-5427,NA,713-676-6815,Hltwicinfo@houstontx.gov,NA,Mon | 9:00-6:00 Lunch 12:00-1:00 && Tue/Wed/Thu/Fri | 8:00-5:00 Lunch 12:00-1:00 && 2nd Thu | 1:00-5:00 && 2nd Sat | 8:00-12:00 && Friday after 2nd Sat | 8:00-12:00,https://texaswic.org/about-wic/live-chat-with-wic?la=026,29.7726951,-95.3061308,NO
2603,magnolia multi-service center-wic center,aaceegiiillmmnorstuv,7037 Capitol #201,0012377acilopt,houston,tx,77011,harris,832-393-5427,NA,713-928-9545,Hltwicinfo@houstontx.gov,NA,Mon | 9:00-6:00 Lunch 12:00-1:00 && Tue/Wed/Thu/Fri | 8:00-5:00 Lunch 12:00-1:00 && 2nd Thu | 1:00-5:00 && 3rd Sat | 8:00-12:00 && Friday after 3rd Sat | 8:00-12:00,https://texaswic.org/about-wic/live-chat-with-wic?la=026,29.73455,-95.30107,NO
1708,gulfgate wic clinic,aefggltu,"3329 Telephone Rd , Suite B",2339eeelnot,houston,tx,77023,harris,713-500-2800,NA,713-641-5269,wicgulfgateclinic@uth.tmc.edu,https://med.uth.edu/wic/,Mon - Fri  |  7:30-4:00  Lunch 11:00-11:30 && 1St Sat | 7:30-4 Lunch 11:00-11:30 Closed The Following Monday && 3Rd Sat | 7:30-4 Lunch 11:00-11:30 Closed The Following Friday,NA,29.71104,-95.31441,NO
2605,sunnyside multi-service center-wic center,cdeeeiiilmnnrssstuuvy,4410 Reed Rd,0144deer,houston,tx,77051,harris,832-393-5427,NA,713-732-5052,Hltwicinfo@houstontx.gov,NA,Mon | 9:00-6:00 Lunch 12:00-1:00 && Tue/Wed/Thu/Fri | 8:00-5:00 Lunch 12:00-1:00 && 2nd Thu | 1:00-5:00 && 1st Sat | 8:00-12:00 && Friday after 1st Sat | 8:00-12:00,https://texaswic.org/about-wic/live-chat-with-wic?la=026,29.65775,-95.36108,NO
2620,southwest wic center,sw,6400 Highstar,0046aghhir,houston,tx,77074,harris,832-393-5427,NA,713-778-6529,Hltwicinfo@houstontx.gov,NA,Mon | 9:00-6:00 Lunch 12:00-1:00 && Tue/Wed/Thu/Fri | 8:00-5:00 Lunch 12:00-1:00 && 2nd Thu | 1:00-5:00 && 3rd Sat | 8:00-12:00 && Friday after 3rd Sat | 8:00-12:00,https://texaswic.org/about-wic/live-chat-with-wic?la=026,29.710968,-95.496265,NO
1716,university wic clinic,eiinrstuvy,6015 Hillcroft Suite 2000,00001256cfhillort,houston,tx,77081,harris,713-500-2800,NA,713-541-5042,Wicuniversityclinic@Uth.Tmc.Edu,https://med.uth.edu/wic/,Mon - Fri  |  7:30-4:00  Lunch 11:00-11:30 && 1St Sat | 7:30-4 Lunch 11:00-11:30 Closed The Following Monday && 3Rd Sat | 7:30-4 Lunch 11:00-11:30 Closed The Following Friday,NA,29.716522,-95.497422,NO
2607,acres homes wic,aehmos,6719 West Montgomery,1679egmmnoorty,houston,tx,77091,harris,832-393-5427,NA,832-393-4128,Hltwicinfo@houstontx.gov,NA,Mon | 9:00-6:00 Lunch 12:00-1:00 && Tue/Wed/Thu/Fri | 8:00-5:00 Lunch 12:00-1:00 && 2nd Thu | 1:00-5:00 && 1st Sat | 8:00-12:00 && Friday after 1st Sat | 8:00-12:00,https://texaswic.org/about-wic/live-chat-with-wic?la=026,29.85747,-95.42148,NO
2616,dr chana ( airline ) wic center,aaacehiilnnr,5990 Airline Drive Suite 200,0002599aeiilnr,houston,tx,77076,harris,832-393-5427,NA,713-742-4897,Hltwicinfo@houstontx.gov,NA,Mon | 9:00-6:00 Lunch 12:00-1:00 && Tue/Wed/Thu/Fri | 8:00-5:00 Lunch 12:00-1:00 && 2nd Thu | 1:00-5:00 && 2nd Sat | 8:00-12:00 && Friday after 2nd Sat | 8:00-12:00,https://texaswic.org/about-wic/live-chat-with-wic?la=026,29.85274,-95.38346,NO
4802,antoine wic center,aeinnot,5815 Antoine Suite #A,1558aeinnot,houston,tx,77091,harris,713-407-5800,NA,713-602-3440,NA,https://publichealth.harriscountytx.gov/Divisions-Offices/Divisions/Community-Health-Wellness-Divisi,Mon/ Tue/ Wed/ Thu | 8:00-5:30 && Fri | 8:00-12:00 && 3rd Sat of the month | 8:00-12:00 && Closed the Friday after the 3rd Sat,https://texaswic.org/about-wic/live-chat-with-wic?la=048,29.84953,-95.47466,NO
2604,northwest wic center,nw,8536 Hammerly,3568aehlmmry,houston,tx,77055,harris,832-393-5427,NA,713-973-0182,Hltwicinfo@houstontx.gov,NA,Mon | 9:00-6:00 Lunch 12:00-1:00 && Tue/Wed/Thu/Fri | 8:00-5:00 Lunch 12:00-1:00 && 2nd Thu | 1:00-5:00 && 3rd Sat | 8:00-12:00 && Friday after 3rd Sat | 8:00-12:00,https://texaswic.org/about-wic/live-chat-with-wic?la=026,29.8111149,-95.499692,NO
2615,northside wic center,deins,8504 Schuller,0458cehllrsu,houston,tx,77093,harris,832-393-5427,NA,713-742-1310,Hltwicinfo@houstontx.gov,NA,Mon | 9:00-6:00 Lunch 12:00-1:00 && Tue/Wed/Thu/Fri | 8:00-5:00 Lunch 12:00-1:00 && 2nd Thu | 1:00-5:00 && 2nd Sat | 8:00-12:00 && Friday after 2nd Sat | 8:00-12:00,https://texaswic.org/about-wic/live-chat-with-wic?la=026,29.836968,-95.3411701,NO
1715,north channel wic clinic,acehlnnn,13457 East Freeway,13457,houston,tx,77015,harris,713-500-2800,NA,713-451-8091,Wicnchannelclinic@Uth.Tmc.Edu,https://med.uth.edu/wic/,Mon - Fri  |  7:30-4:00  Lunch 11:00-11:30 && 1St Sat | 7:30-4 Lunch 11:00-11:30 Closed The Following Monday && 3Rd Sat | 7:30-4 Lunch 11:00-11:30 Closed The Following Friday,NA,29.7710989,-95.1841955,NO
4822,emerald plaza wic center,adeelmr,"11509 Veterans Memorial, Suite 400",00011459aaeeilmmnorsv,houston,tx,77067,harris,713-407-5800,NA,281-444-1594,NA,https://publichealth.harriscountytx.gov/Divisions-Offices/Divisions/Community-Health-Wellness-Divisi,Mon/ Tue/ Wed/ Thu | 8:00-5:30 && Fri | 8:00-12:00 && 3rd Sat of the month | 8:00-12:00 && Closed the Friday after the 3rd Sat,https://texaswic.org/about-wic/live-chat-with-wic?la=048,29.94908,-95.46968,NO
4807,cypress station wic center,ceprssy,221 Fm 1960 West Ste A,0112269fm,houston,tx,77090,harris,713-407-5800,NA,281-880-4850,NA,https://publichealth.harriscountytx.gov/Divisions-Offices/Divisions/Community-Health-Wellness-Divisi,Mon/ Tue/ Wed/ Thu | 8:00-5:30 && Fri | 8:00-12:00 && 3rd Sat of the month | 8:00-12:00 && Closed the Friday after the 3rd Sat,https://texaswic.org/about-wic/live-chat-with-wic?la=048,30.0202605,-95.4313062,NO
4824,fallbrook wic center,afll,"14901 SH 249 Tomball Parkway, Suite 107",00111244799abhllmost,houston,tx,77086,harris,713-407-5800,NA,281-583-0677,NA,https://publichealth.harriscountytx.gov/Divisions-Offices/Divisions/Community-Health-Wellness-Divisi,Mon/ Tue/ Wed/ Thu | 8:00-5:30 && Fri | 8:00-12:00 && 3rd Sat of the month | 8:00-12:00 && Closed the Friday after the 3rd Sat,https://texaswic.org/about-wic/live-chat-with-wic?la=048,29.9306808,-95.5084197,NO
1718,ut greenspoint clinic,eegnrstu,11120 North Freeway Ste B,01112,houston,tx,77037,harris,713-500-2800,NA,281-590-3588,Wicgreenspoint@Uth.Tmc.Edu,https://med.uth.edu/wic/,Mon - Fri  |  7:30-4:00  Lunch 11:00-11:30 && 1St Sat | 7:30-4 Lunch 11:00-11:30 Closed The Following Monday && 3Rd Sat | 7:30-4 Lunch 11:00-11:30 Closed The Following Friday,NA,29.926971,-95.410642,NO
2602,northeast wic center,en,9720 Spaulding Street,0279adgilnpsu,houston,tx,77016,harris,832-393-5427,NA,713-636-8230,Hltwicinfo@houstontx.gov,NA,Mon | 9:00-6:00 Lunch 12:00-1:00 && Tue/Wed/Thu/Fri | 8:00-5:00 Lunch 12:00-1:00 && 2nd Thu | 1:00-5:00 && 3rd Sat | 8:00-12:00 && Friday after 3rd Sat | 8:00-12:00,https://texaswic.org/about-wic/live-chat-with-wic?la=026,29.8496866,-95.3033739,NO
2630,aldine community wic,acdeilmmnoy,3000 Aldine Mail Route,0003aadeiillmn,houston,tx,77039,harris,832-393-5427,NA,281-986-4855,Hltwicinfo@houstontx.gov,NA,Mon | 9:00-6:00 Lunch 12:00-1:00 && Tue/Wed/Thu/Fri | 8:00-5:00 Lunch 12:00-1:00 && 2nd Thu | 1:00-5:00 && 4th Sat | 8:00-12:00 && Friday after 4th Sat | 8:00-12:00,https://texaswic.org/about-wic/live-chat-with-wic?la=026,29.9023226,-95.3566146,NO
1706,spring branch wic clinic,ginprs,8575 Pitner,5578einprt,houston,tx,77080,harris,713-500-2800,NA,713-690-3931,Wicsbranchclinic@Uth.Tmc.Edu,https://med.uth.edu/wic/,Mon - Fri  |  7:30-4:00  Lunch 11:00-11:30 && 1St Sat | 7:30-4 Lunch 11:00-11:30 Closed The Following Monday && 3Rd Sat | 7:30-4 Lunch 11:00-11:30 Closed The Following Friday,NA,29.82755,-95.50039,NO
2634,sharpstown wic clinic,ahnoprsw,6201 Bonhomme Road Suite 300,0001236behmmnoo,houston,tx,77036,harris,832-393-5427,NA,713-977-1418,Hltwicinfo@houstontx.gov,NA,Mon | 9:00-6:00 Lunch 12:00-1:00 && Tue/Wed/Thu/Fri | 8:00-5:00 Lunch 12:00-1:00 && 2nd Thu | 1:00-5:00 && 4th Sat | 8:00-12:00 && Friday after 4th Sat | 8:00-12:00,https://texaswic.org/about-wic/live-chat-with-wic?la=026,29.71167,-95.51249,NO
1702,power center wic clinic,eoprw,12401 1/2 So Post Oak Rd # 128,0111122248akooops,houston,tx,77045,harris,713-500-2800,NA,713-728-8620,Wicpowercenter@Uth.Tmc.Edu,https://med.uth.edu/wic/,Mon - Fri  |  7:30-4:00  Lunch 11:00-11:30 && 1St Sat | 7:30-4 Lunch 11:00-11:30 Closed The Following Monday && 3Rd Sat | 7:30-4 Lunch 11:00-11:30 Closed The Following Friday,NA,29.64643,-95.4626399,NO
2625,braesner wic,aeenrs,10039 Bissonet Suite 120,00011239beinosst,houston,tx,77036,harris,832-393-5427,NA,713-773-7505,Hltwicinfo@houstontx.gov,NA,Mon | 9:00-6:00 Lunch 12:00-1:00 && Tue/Wed/Thu/Fri | 8:00-5:00 Lunch 12:00-1:00 && 2nd Thu | 1:00-5:00 && 2nd Sat | 8:00-12:00 && Friday after 2nd Sat | 8:00-12:00,https://texaswic.org/about-wic/live-chat-with-wic?la=026,29.674543,-95.55414,NO
2902,stafford wic clinic,af,10435 Greenbough United Way,01345bdeeegghnoru,stafford,tx,77477,harris,281-969-1836,NA,281-979-1764,NA,NA,Mon | 8:00-5:00 Lunch 12:00-1:00 && Tue | 8:00-7:00 Lunch 12:00-1:00 && Wed | 8:00-5:00 Lunch 12:00-1:00 && Thu | 8:00-6:00 Lunch 12:00-1:00 && Fri/3rd Sat | 8:00-1:00 && Closed Friday before 3rd Saturday,NA,29.62103,-95.56242,NO
7701,u t m b- stafford wic,abfmtu,2503 South Main Suite F,0235aimn,stafford,tx,77477,harris,281-499-1894,NA,281-499-2946,JSNeal@UTMB.edu,https://www.utmbhealth.com/services/rmchp/,Mon  |  9:00-6:00  &&  Tue  | 8:00-6:00  &&  Wed/Thu  |  8:00-5:00  &&  Fri  |  8:00-3:00  &&  2nd Sat  |  7:30-1:00,https://texaswic.org/about-wic/live-chat-with-wic?la=077,29.61376,-95.55295,NO
2606,alief wic center,aefil,11903 Bellaire Blvd,01139abeeillr,houston,tx,77072,harris,832-393-5427,NA,281-776-3197,Hltwicinfo@houstontx.gov,NA,Mon | 9:00-6:00 Lunch 12:00-1:00 && Tue/Wed/Thu/Fri | 8:00-5:00 Lunch 12:00-1:00 && 2nd Thu | 1:00-5:00 && 1st Sat | 8:00-12:00 && Friday after 1st Sat | 8:00-12:00,https://texaswic.org/about-wic/live-chat-with-wic?la=026,29.70268,-95.58889,NO
4821,scarsdale wic center,acrss,"10851 Scarsdale Boulevard, Suite 116",01111568acrss,houston,tx,77089,harris,713-407-5800,NA,281-922-6547,NA,https://publichealth.harriscountytx.gov/Divisions-Offices/Divisions/Community-Health-Wellness-Divisi,Mon/ Tue/ Wed/ Thu | 8:00-5:30 && Fri | 8:00-12:00 && 3rd Sat of the month | 8:00-12:00 && Closed the Friday after the 3rd Sat,https://texaswic.org/about-wic/live-chat-with-wic?la=048,29.5842385,-95.2144088,NO
4820,bear creek wic center,aber,"16233 Clay Road, Suite 318",11233368acly,houston,tx,77084,harris,713-407-5800,NA,281-345-8645,NA,https://publichealth.harriscountytx.gov/Divisions-Offices/Divisions/Community-Health-Wellness-Divisi,Mon/ Tue/ Wed/ Thu | 8:00-5:30 && Fri | 8:00-12:00 && 3rd Sat of the month | 8:00-12:00 && Closed the Friday after the 3rd Sat,https://texaswic.org/about-wic/live-chat-with-wic?la=048,29.835905,-95.648602,NO
4608,pearland wic clinic,aelpr,2825 Miller Ranch Road Ste 233,2223358acehillmnrr,pearland,tx,77584,harris,281-756-1576,NA,713-436-6918,NA,NA,Mon/Wed  | 8:00-5:30  Lunch 12:30-1:00 && Tue | 8:30-6:00  Lunch 12:30-1:00 &&  Thu | 9:00-5:30  Lunch 12:30-1:00 && Fri | 7:00-12:00  Closed 2nd Fri && 1st Sat | 7:30-12:30,https://texaswic.org/about-wic/live-chat-with-wic?la=046,29.5580161,-95.3730829,NO
7715,u t m b- league city wic,abceegilmttuuy,1100 Gulf Freeway Suite 108,0001118fglu,league city,tx,77573,harris,281-557-9400,NA,281-557-9880,JSNeal@UTMB.edu,https://www.utmbhealth.com/services/rmchp/,Mon | 8:00-6:00 && Tue | 8:00-6:00 Lunch 12:30-1:30 &&  Wed/Thu | 8:00-5:00  &&  Fri  |  8:00-3:00,https://texaswic.org/about-wic/live-chat-with-wic?la=077,29.49454,-95.10823,NO
7702,u t m b- pearland wic,abelmprtu,2750 East Broadway,0257,pearland,tx,77581,harris,281-485-0865,NA,281-412-5971,JSNeal@UTMB.edu,https://www.utmbhealth.com/services/rmchp/,Mon/ Tue  |  8:00-6:00  &&  Wed/Thu  |  8:00-5:00  &&  Fri  |  8:00-3:00  && 2nd Sat | 8:00-12:30,https://texaswic.org/about-wic/live-chat-with-wic?la=077,29.5551512,-95.2619718,NO
4803,humble wic center,behlmu,8950 Will Clayton Pkwy. Suite A,0589acilllnotwy,humble,tx,77338,harris,713-407-5800,NA,281-446-2510,NA,https://publichealth.harriscountytx.gov/Divisions-Offices/Divisions/Community-Health-Wellness-Divisi,Mon/ Tue/ Wed/ Thu | 8:00-5:30 && Fri | 8:00-12:00 && 3rd Sat of the month | 8:00-12:00 && Closed the Friday after the 3rd Sat,https://texaswic.org/about-wic/live-chat-with-wic?la=048,29.9790051,-95.2481598,NO
7718,conroe clinic,cenoor,703 East Davis,037adisv,conroe,tx,77301,montgomery,936-539-3399,NA,936-539-1735,JSNeal@UTMB.edu,https://www.utmbhealth.com/services/rmchp/,Mon |  8:00-7:00  &&  Tue | 8:00-7:00 Lunch 12:30-1:30 && Wed/Thu  |  7:00-6:00  &&  2Nd Sat  |  8:00-12:00,https://texaswic.org/about-wic/live-chat-with-wic?la=077,30.3143184,-95.4495632,NO
7723,lone star clinic,aelnor,605 S Conroe Medical Dr,056accdeeilmnoor,conroe,tx,77304,montgomery,936-788-5301,NA,--,JSNeal@UTMB.edu,https://www.utmbhealth.com/services/rmchp/,Mon  |  9:00-6:00  &&  Tue |  8:00-5:00 Lunch 12:30-1:30 && Wed/Thu  |  8:00-5:00  &&  Fri  |  8:00-3:00,https://texaswic.org/about-wic/live-chat-with-wic?la=077,30.28514,-95.47124,NO
7703,u t m b- huntsville wic,behillmnsttuuv,1210 10Th Street,001112ht,huntsville,tx,77340,walker,936-295-0552,NA,936-295-5030,JSNeal@UTMB.edu,https://www.utmbhealth.com/services/rmchp/,Mon  |  9:00-6:00  && Tue | 9:00-6:00 Lunch 12:30-1:30 && Wed/Thu  |  8:00-5:00  &&  Fri  |  8:00-3:00,https://texaswic.org/about-wic/live-chat-with-wic?la=077,30.72541,-95.55251,NO
7709,u t m b- coldspring wic,bcdgilmnoprstu,1 State Hwy 150 B1,01115abet,coldspring,tx,77331,san jacinto,936-653-2799,NA,936-653-4473,JSNeal@UTMB.edu,https://www.utmbhealth.com/services/rmchp/,1St/2Nd/4Th Tue 9:45-3:00 Lunch 12:00-1:00  &&  Thu  9:45-3:00  Lunch 12:00-1:00,https://texaswic.org/about-wic/live-chat-with-wic?la=077,30.59248,-95.12909,NO
4816,tomball wic center,abllmot,701 East Main Street Suite 145,011457aimn,tomball,tx,77375,harris,713-407-5800,NA,281-290-6780,NA,https://publichealth.harriscountytx.gov/Divisions-Offices/Divisions/Community-Health-Wellness-Divisi,Mon/ Tue/ Wed/ Thu | 8:00-5:30 && Fri | 8:00-12:00 && 3rd Sat of the month | 8:00-12:00 && Closed the Friday after the 3rd Sat,https://texaswic.org/about-wic/live-chat-with-wic?la=048,30.10119,-95.6063099,NO
7708,u t m b- livingston wic,bgiilmnnotuv,410 East Church Suite C,014cchhru,livingston,tx,77351,polk,936-327-5433,NA,936-328-8122,JSNeal@UTMB.edu,https://www.utmbhealth.com/services/rmchp/,Mon | 9:00-6:00  && Tue | 9:00-6:00 Lunch 12:30-1:30  Wed/Thu  |  8:00-5:00  &&  Fri  |  8:00-3:00,https://texaswic.org/about-wic/live-chat-with-wic?la=077,30.7108839,-94.9299003,NO
7720,magnolia clinic,aagilmno,18602 Fm 1488 Ste 600,000112466888fm,magnolia,tx,77355,montgomery,281-259-2404,NA,936-539-1735,JSNeal@UTMB.edu,https://www.utmbhealth.com/services/rmchp/,Mon | 9:00-6:00  && Tue | 9:00-6:00 Lunch 12:30-1:30 && Wed/Thu  |  8:00-5:00  &&  Fri  |  8:00-3:00,https://texaswic.org/about-wic/live-chat-with-wic?la=077,30.21349,-95.75335,NO
7719,new caney clinic,aceennwy,21134 Hwy 59 North,1123459,new caney,tx,77357,montgomery,281-577-8967,NA,281-577-8959,JSNeal@UTMB.edu,https://www.utmbhealth.com/services/rmchp/,Mon  |  10:00-7:00  &&  Tue  | 9:00-6:00 Lunch 12:30-1:30 &&  Wed/Thu  |  8:00-5:00  &&  Fri  |  8:00-3:00,https://texaswic.org/about-wic/live-chat-with-wic?la=077,30.13922,-95.2272799,NO
6001,bay city clinic,abcityy,3007 Avenue F,0037,bay city,tx,77414,matagorda,979-245-9848,NA,979-323-0355,WIC@MatagordaRegional.org,MatagordaRegional.org/WIC,Mon/Tue/Thu | 7:30-5:30 && Fri | 8:00 - 12:00,NA,28.97272,-95.96927,NO
2911,bellville wic clinic,beeillllv,800 Wendt St,008dentw,bellville,tx,77418,austin,979-865-9140,NA,979-865-9936,NA,NA,2nd/4th Mon | 8:00-5:30 Lunch 12:00-1:00 && Tue/Thu | 8:00-5:30 Lunch 12:00-1:00,NA,29.94009,-96.2539,NO
4606,brazoria wic clinic,aaiorz,203  North Nevada Street,023aadenv,brazoria,tx,77422,brazoria,979-864-1576,NA,979-798-1485,NA,NA,Mon/Wed  |  8:00-5:30  Lunch 12:30-1:00  &&  Fri  |  8:00-1:00  &&1St Sat | 7:30-12:30  && Closed 2nd Fri  && Closed Tue/Thur,https://texaswic.org/about-wic/live-chat-with-wic?la=046,29.0467153,-95.5718274,NO
2912,brookshire wic clinic,ehirs,531 Fm 359 South,133559fm,brookshire,tx,77423,waller,281-822-4242,NA,936-857-2000,NA,NA,Mon/Wed/Thu | 8:00-5:30 Lunch 12:00-1:00 && Tue | 8:00-6:00 Lunch 12:00-1:00 && Fri | 8:00-1:30,NA,29.7743,-95.95063,NO
6002,palacios clinic,aacilops,304 4th St,0344ht,palacios,tx,77465,matagorda,361-972-2351,NA,361-972-1578,WIC@MatagordaRegional.org,MatagordaRegional.org/WIC,Wed | 9:00-5:00  Lunch 12:00-1:00,NA,28.701649,-96.215057,NO
2914,eagle lake wic clinic,aaeeegkll,"First Baptist Church, 527 N Lake Ave",257abccefhhiiklrru,eagle lake,tx,77434,colorado,979-234-2066,NA,--,NA,NA,1st/3rd Mon | 1:00-4:30 && 2nd/4th Wed | 9:00-1:00,NA,29.59103,-96.32864,NO
2910,hempstead wic clinic,adehmp,1737 13Th St,113377ht,hempstead,tx,77445,waller,936-261-1440,NA,936-261-1451,NA,NA,Mon/Tue | 8:00-6:00 Lunch 12:00-1:00 && Wed/Thu | 8:00-5:30 Lunch 12:00-1:00 && Fri/3rd Sat | 8:00-1:00 && Closed Fri before 3rd Sat,NA,30.088731,-96.082608,NO
2903,wharton wic clinic,ahnortw,2015 N Fulton St,0125flnotu,wharton,tx,77488,wharton,979-532-8755,NA,979-532-0500,NA,NA,Mon | 8:00-5:00 Lunch 12:00-1:00 && Tue | 8:00-7:00 Lunch 12:00-1:00 && Wed | 8:00-5:00 Lunch 12:00-1:00 && Thu | 8:00-6:00 Lunch 12:00-1:00 && Fri/3rd Sat | 8:00-1:00 && Closed Friday before 3rd Saturday,NA,29.32921,-96.09323,NO
2908,katy wic clinic,akty,1260 Pin Oak Rd Ste 110,0011126aiknop,katy,tx,77494,harris,281-391-4168,NA,281-391-2068,NA,NA,Mon | 8:00-7:00 Lunch 12:00-1:00 && Tue/Wed/Thu | 8:00-5:30 Lunch 12:00-1:00 && Fri/3rd Sat | 8:00-12:30,NA,29.77156,-95.81862,NO
2901,rosenberg wic clinic,beegnorrs,1720 Bf Terry Blvd Suite A,0127bfry,rosenberg,tx,77471,fort bend,281-238-2306,NA,281-238-2350,NA,NA,Mon | 8:00-5:00 Lunch 12:00-1:00 && Tue | 8:00-7:00 Lunch 12:00-1:00 && Wed | 8:00-5:00 Lunch 12:00-1:00 && Thu | 8:00-6:00 Lunch 12:00-1:00 && Fri/3rd Sat | 8:00-1:00,NA,29.55428,-95.76698,NO
2909,sealy wic clinic,es,526 Ward Street,256aw,sealy,tx,77474,austin,979-885-0517,NA,979-885-0518,NA,NA,1st/3rd/5th Mon | 8:00-5:30 Lunch 12:00-1:00 && Wed | 8:00-6:00 Lunch 12:00-1:00 && Fri/3rd Sat | 8:00-1:30,NA,29.77764,-96.16002,NO
4808,southeast wic center,es,3737 Red Bluff Rd,3377der,pasadena,tx,77503,harris,713-407-5800,NA,713-947-6668,NA,https://publichealth.harriscountytx.gov/Divisions-Offices/Divisions/Community-Health-Wellness-Divisi,Mon/ Tue/ Wed/ Thu | 8:00-5:30 && Fri | 8:00-12:00 && 3rd Sat of the month | 8:00-12:00 && Closed the Friday after the 3rd Sat,https://texaswic.org/about-wic/live-chat-with-wic?la=048,29.68563,-95.1556,NO
1101,texas city wic office,aceisttxy,"9850 Emmett F Lowry Expressway, Suite B 101",0011589eemmtt,texas city,tx,77591,galveston,409-949-3471,NA,409-949-3475,Trice@Gchd.Org,https://www.gchd.org/,Mon | 8:00-2:00 && Tue | 8:00-7:00 Lunch 12:00-1:00 && Wed | 8:00-5:00 Lunch 12:00-1:00 && Thu | 8:00-7:00 Lunch 12:00-1:00 && Fri/ 2nd Sat | 8:00-2:00 && Closed Monday after the 2nd Sat,https://texaswic.org/about-wic/live-chat-with-wic?la=011,29.4019357,-95.0197076,NO
4603,alvin wic clinic,ailnv,1009 South Hood Street,0019dhoo,alvin,tx,77511,brazoria,281-756-1576,NA,281-585-3168,NA,NA,Mon/Wed  | 8:00-5:30  Lunch 12:30-1:00 && Tue | 8:30-6:00  Lunch 12:30-1:00 &&  Thu | 9:00-5:30  Lunch 12:30-1:00 && Fri | 7:00-12:00  Closed 2nd Fri && 1st Sat | 7:30-12:30,https://texaswic.org/about-wic/live-chat-with-wic?la=046,29.41571,-95.24548,NO
7001,chambers county health department-wic,aabcceehhhlmnorsttuy,102 Airport Rd,012aioprrt,anahuac,tx,77514,chambers,409-267-2772,NA,409-267-2773,atorres@chamberstx.gov,NA,Mon | 8:00-6:30  Lunch 12:00-1:00,NA,29.768585,-94.657153,NO
4601,angleton,aeglnnot,1108-C East Mulberry St,0118belmrruy,angleton,tx,77515,brazoria,979-864-1576,NA,979-848-2780,NA,NA,Mon/Wed  | 8:00-5:30  Lunch 12:30-1:00 && Tue | 8:30-6:00  Lunch 12:30-1:00 &&  Thu | 9:00-5:30  Lunch 12:30-1:00 && Fri | 7:00-12:00  Closed 2nd Fri && 1st Sat | 7:30-12:30,https://texaswic.org/about-wic/live-chat-with-wic?la=046,29.1694879,-95.4181701,NO
4809,baytown wic center,abnotwy,1000 Lee Dr,0001eel,baytown,tx,77520,harris,713-407-5800,NA,281-424-4175,NA,https://publichealth.harriscountytx.gov/Divisions-Offices/Divisions/Community-Health-Wellness-Divisi,Mon/ Tue/ Wed/ Thu | 8:00-5:30 && Fri | 8:00-12:00 && 3rd Sat of the month | 8:00-12:00 && Closed the Friday after the 3rd Sat,https://texaswic.org/about-wic/live-chat-with-wic?la=048,29.7681924,-95.0102553,NO
7003,mount belvieu clinic,beeilmnotuuv,10616 Eagle Drive,01166aeegl,mount belvieu,tx,77580,chambers,409-267-2620,NA,281-576-2619,atorres@chamberstx.gov,NA,Thu | 8:00-6:30 Lunch 12:00-1:00,NA,29.849,-94.85912,NO
4602,lake jackson wic clinic,aacejkklnos,202 Peach St,022acehp,lake jackson,tx,77566,brazoria,979-388-1576,NA,979-265-4071,NA,NA,Mon/Wed  | 8:00-5:30  Lunch 12:30-1:00 && Tue | 8:30-6:00  Lunch 12:30-1:00 &&  Thu | 9:00-5:30  Lunch 12:30-1:00 && Fri | 7:00-12:00  Closed 2nd Fri && 1st Sat | 7:30-12:30,https://texaswic.org/about-wic/live-chat-with-wic?la=046,29.020375,-95.425755,NO
1104,dickinson wic clinic,cdiiknnos,"2401 Termini St, Suite 100-B , Amegy Bank 1St Floor",00011124aabeegiikmnnty,dickinson,tx,77539,galveston,281-337-7606,NA,281-534-3646,Trice@Gchd.Org,https://www.gchd.org/,Mon | 8:00-2:00 && Wed | 8:00-7:00 Lunch 12:00-1:00 && Thu | 1:30-5:00 && 2nd Sat | 8:00-2:00 && Closed Monday after the 2nd Sat,https://texaswic.org/about-wic/live-chat-with-wic?la=011,29.461102,-95.05584,NO
1112,moody early childhood center wic office,acdddehhillmooooryy,1110 21st St,011112,galveston,tx,77550,galveston,409-978-4482,NA,NA,Trice@Gchd.Org,https://www.gchd.org/,Tue | 8:00-12:00 && Thu | 1:00-5:00,https://texaswic.org/about-wic/live-chat-with-wic?la=011,29.29945,-94.78881,NO
1102,island community health center-wic,acehhillmmosty,4700 Broadway St,0047,galveston,tx,77550,galveston,409-763-7207,NA,409-763-7295,Trice@Gchd.Org,https://www.gchd.org/,Tue | 8:00-7:00 Lunch 12:00-1:00 && Thu | 8:00-12:00 && Fri/ 4th Sat | 8:00-2:00 && Closed Friday prior to 4th Sat,https://texaswic.org/about-wic/live-chat-with-wic?la=011,29.294214,-94.820041,NO
7721,liberty wic clinic,beilrty,501 A Palmer St,015aelmpr,liberty,tx,77575,liberty,(936) 336-3859,NA,NA,JSNeal@UTMB.edu,https://www.utmbhealth.com/services/rmchp/,Mon/Tue  | 9:00-6:00  &&  Wed/Thu  |  8:00-5:00  &&  Fri  |  8:00-3:00,https://texaswic.org/about-wic/live-chat-with-wic?la=077,30.05257,-94.812999,NO
6103,jasper-newton county public health,aabcceeehhijllnnnoopprstttuuwy,33625 US-96,2335669su,buna,tx,77612,jasper,409-994-5950,NA,409-994-4086,wic6100@jaspernewton.org,https://www.jaspernewton.org/,Mon/Tue | 7:00-4:30  Lunch 12:00-12:30,NA,30.46014,-93.962,NO
6301,hardin county health dept,aacehhhilnnottuy,1135 Redwood St,1135ddeoorw,kountze,tx,77625,hardin,409-246-8383,NA,--,NA,NA,Full Services Available Tue/Thu | 7:00-6:00  && By Appointment Only Mon/Wed/Fri | 8:00-5:00 Lunch 12:00-1:00,NA,30.3684203,-94.317599,NO
7717,u t m b- vidor wic,bdimortuv,2014 N 10Th St,001124ht,orange,tx,77630,orange,409-883-9115,NA,409-783-9164,JSNeal@UTMB.edu,https://www.utmbhealth.com/services/rmchp/,Mon/Tue | 8:00-6:00 && Wed | 8:00-5:00 && Fri | 8:00-3:00,https://texaswic.org/about-wic/live-chat-with-wic?la=077,30.110485,-93.740299,NO
7716,u t m b- orange wic,abegmnortu,2014 N 10Th St,001124ht,orange,tx,77630,orange,409-883-9115,NA,409-883-8140,JSNeal@UTMB.edu,https://www.utmbhealth.com/services/rmchp/,Mon/Tue | 8:00-6:00 && Wed/Thu | 8:00-5:00 && Fri | 8:00-3:00,https://texaswic.org/about-wic/live-chat-with-wic?la=077,30.110485,-93.740299,NO
3001,city of port arthur health dept.,aacefhhhilooprrrttttuy,5860 9th Avenue,05689ht,port arthur,tx,77642,jefferson,409-983-8875,NA,--,Christina.Patteson@Portarthurtx.Gov,NA,Mon-Thu |  7:00-5:30 Lunch 12:00-1:00,NA,29.8717096,-93.9354809,NO
6304,silsbee wic clinic,beeilss,603 Hwy 418 W,013468,silsbee,tx,77656,hardin,409-246-8383,NA,--,Wic@Co.Hardin.Tx.Us,https://www.co.hardin.tx.us/page/hardin.County.WIC,Full Services Available Mon/Wed | 7:30-5:30 && By Appointment Only Tue/Thu/Fri | 8:00-5:00 Lunch 12:00-1:00,NA,30.36,-94.18,NO
6307,hardin county remote clinic,achinnotuy,826 N Main St,268aimn,lumberton,tx,77657,hardin,409-673-0508,NA,NA,Wic@Co.Hardin.Tx.Us,https://www.co.hardin.tx.us/page/hardin.County.WIC,Tue/Wed | 7:00-4:00,NA,30.2651,-94.19913,NO
6305,sour lake wic,aeklorsu,615 Hwy 105 W.,011556,sour lake,tx,77659,hardin,409-246-8383,NA,409-246-5266,Wic@Co.Hardin.Tx.Us,https://www.co.hardin.tx.us/page/hardin.County.WIC,1st Tue | 7:30-4:00  Lunch 12:00-1:00,NA,30.14057,-94.41314,NO
7002,winnie clinic,eiinnw,108 East Fear Rd,018aefr,winnie,tx,77665,chambers,409-267-2652,NA,409-267-2653,atorres@chamberstx.gov,NA,Tue/Wed | 8:00-6:30  Lunch 12:00-1:00,NA,29.801258,-94.3833,NO
4001,beaumont public health department,aabbceehhillmnopttuu,3040 College St,0034ceegllo,beaumont,tx,77701,jefferson,409-832-4000,NA,409-835-8983,Jammie.Wright@Beaumonttexas.Gov,NA,Mon/Tue/Wed/Thu | 7:00-6:00 && Fri | 7:00-12:00 && Closed 1st Thu of the month,NA,30.06915,-94.11841,NO
13301,bryan wic clinic,any,3400 S Texas Ave Ste 1,00134aestx,bryan,tx,77802,brazos,979-260-2942,NA,979-260-3916,NA,NA,Mon/Tue/Wed/Thu | 7:30-6:00 Lunch 12:30-1:30 & Fri | 7:30-12:00 & 3rd Sat | 8-12,NA,30.63976,-96.34927,NO
13308,29th street wic clinic,29ht,"4001 E 29th St, Suite 112",001112249ht,bryan,tx,77802,brazos,979-260-2942,NA,--,NA,NA,Mon/Tue/Wed/Thu | 7:30-6:00 Lunch 12:30-1:30,NA,30.64594,-96.33143,NO
13305,college station wic clinic,ceegllo,"1103 Anderson St, Suite 102",0011123enors,college station,tx,77840,brazos,979-260-2942,NA,979-260-3916,NA,NA,Mon/Tue/Wed/Thu | 7:30-6:00 Lunch 12:30-1:30,NA,30.60866,-96.31901,NO
12601,faith mission wic program,aafghiiimmnooprrsst,100 S Chappell Hill St Ste 101,000111acehhillllpp,brenham,tx,77833,washington,979-836-1913,NA,979-836-3897,Jd.Young@Faithmission.Us,NA,Mon/Tue/Wed/Thu | 8:30-6:30 && Fri | 8:30-12:30 && 3rd Sat | 8:30-12:00 && Mon Prior to 3rd Sat | 1:00-6:30,NA,30.16852,-96.3909,NO
13306,caldwell wic clinic,acdelllw,206 S Wright St,026ghirtw,caldwell,tx,77836,burleson,979-260-2942,NA,979-567-6368,NA,NA,Mon/Wed | 8:00-6:00  Lunch 12:30-1:30,NA,30.5418,-96.68875,NO
13302,hearne wic clinic,aeehnr,1000 Brown St,0001now,hearne,tx,77859,robertson,979-260-2942,NA,979-279-3986,NA,NA,Tue/Thu | 7:30-6:00  Lunch 12:30-1:30,NA,30.871927,-96.599826,NO
13304,madisonville wic clinic,adeiillmnosv,813 S State St Ste 103,011338aet,madisonville,tx,77864,madison,979-260-2942,NA,936-348-3694,NA,NA,Tue/Thu | 7:30-6:00  Lunch 12:30-1:30,NA,30.9430513,-95.9121695,NO
13303,navasota wic clinic,aaanostv,118 Farquhar St,118aafhqrru,navasota,tx,77868,grimes,979-260-2942,NA,936-825-8766,NA,NA,Wed/Thu | 7:30-5:30  Lunch 12:30-1:30,NA,30.3873149,-96.0886174,NO
3708,victoria co public health dept,aabccehhiiillooprtuv,2805 Navarro,0258aanorrv,victoria,tx,77901,victoria,361-578-2884,NA,361-578-6627,NA,https://www.vctx.org/page/health.wic.hours-locations,1st/2nd/3rd/4th Mon | 8:00-5:30 Lunch 12:00-12:30 && Mon after the 2nd/4th Sat | 9:30-7:00 Lunch 12:00-12:30 && 1st Tue | 8:00-5:30 Lunch 12:00-12:30 && 2nd Wed | 8:00-5:30 Lunch 12:00-12:30 && 4th Wed | 8:00-12:00 && 1st/2nd/4th Thu | 8:00-5:30 Lunch 12:00-12:30 && 3rd Thu | 8:00-5:30 Lunch 11:00-12:30 && 1st/2nd/3rd/4th Fri | 8:00-12:00 && 2nd/4th Sat | 8:00-12:00,NA,28.82141,-97.00172,NO
3701,cuero wic clinic,ceoru,"201 Leonard Roy Harmon Dr, Cuero Park Clubhouse",012aaceeehhlnnooooorrsuuy,cuero,tx,77954,dewitt,361-578-2884,NA,--,NA,https://www.vctx.org/page/health.wic.hours-locations,1st And 3rd Wed  |  9:00-4:00  Lunch  12:00-12:30,NA,29.0876616,-97.2742722,NO
3702,edna wic clinic,aden,"411 North Wells, Jackson County Services Building",114accceeeijkllnnoorsssstuvwy,edna,tx,77957,jackson,361-578-2884,NA,--,NA,https://www.vctx.org/page/health.wic.hours-locations,2nd And 4th Tue  |  9:00-4:00  Lunch  12:00-12:30,NA,28.98042,-96.64857,NO
3705,goliad housing authority,aadgghhiiilnooorsttuuy,360 North Fort Street,036fort,goliad,tx,77963,goliad,361-578-2884,NA,--,NA,https://www.vctx.org/page/health.wic.hours-locations,2nd Wed  |  9:00-1:00,NA,28.6710485,-97.3816049,NO
4304,hallettsville wic clinic,aeehillllsttv,200-A East 5Th Street,0025ht,hallettsville,tx,77964,lavaca,830-672-7083,NA,830-672-4575,NA,NA,1St And 3Rd Wed  |  9:00-4:00  Lunch 12:30-1:30,NA,29.44295,-96.94172,NO
3704,port lavaca wic clinic,aaacloprtv,17 W Ash St,17ahs,port lavaca,tx,77979,calhoun,361-578-2884,NA,--,NA,https://www.vctx.org/page/health.wic.hours-locations,"1st, 2nd, And 3rd Mon  |  9:00-4:00  Lunch  12:00-12:30  &&  1st And 3rd  Wed  |  9:00-4:00  Lunch 12:00-12:30",NA,28.621319,-96.6320388,NO
3706,yoakum community hospital annex,aachiklmmmooopstuyy,206 West Hugo,026ghou,yoakum,tx,77995,lavaca,361-578-2884,NA,--,NA,https://www.vctx.org/page/health.wic.hours-locations,3rd Tue  :  9:30-4:00  Lunch  12:00-12:30,NA,29.288385,-97.151656,NO
6410,lytle wic clinic,ellty,"15306 Main Street, Unit 2",012356aimn,lytle,tx,78052,bexar,830-665-8044,NA,830-741-6144,mandi.wilcox@medinatx.org,http://www.medinacountytexas.org/page/medina.WIC,2nd/3rd Mon | 8:15-5:00 Lunch 12:00-12:30 && Thu | 9:00-5:30 Lunch 12:00-12:30,NA,29.23628,-98.78586,NO
6404,bandera wic clinic,aber,1207 Cottonwood Street,0127cdnoooottw,bandera,tx,78003,bandera,830-460-7378,NA,--,mandi.wilcox@medinatx.org,http://www.medinacountytexas.org/page/medina.WIC,Mon | 9:00-5:45 Lunch 12:00-12:30 && Closed the last business day of the month,NA,29.73118,-99.07717,NO
8964,boerne wic clinic,beenor,1415 E Blanco Rd,1145abclno,boerne,tx,78800,kendall,830-249-3932,NA,NA,NA,NA,Mon | 8:30-4:30 Lunch 12:00-12:30,NA,29.79664,-98.71505,NO
6403,castroville clinic,aceillorv,8366 Fm 471 S,1346678fm,castroville,tx,78009,medina,830-931-4044,NA,--,mandi.wilcox@medinatx.org,http://www.medinacountytexas.org/page/medina.WIC,Tue | 8:45-6:00 Lunch 12:00-12:30 && Closed the last business day of the month,NA,29.341988,-98.829433,NO
1903,vida y salud-health systems inc,aaacddehhiillmnssstuvyy,916 Huddleston,169dehnou,cotulla,tx,78014,la salle,830-876-9755,NA,830-374-3364,NA,NA,Wed | 9:30-4:30 Lunch 12:00-1:00 && 1st Wed | Closed,NA,28.425992,-99.229061,NO
6402,devine clinic,deeinv,317 State Hwy 132 N,112337aet,devine,tx,78016,medina,830-665-8044,NA,--,mandi.wilcox@medinatx.org,http://www.medinacountytexas.org/page/medina.WIC,Tue/Wed | 8:30-6:30  Lunch 12:00-12:30 && Closed the last business day of the month,NA,29.1545604,-98.8921661,NO
4902,dilley clinic,deilly,101 N. Commerce,011cceemmor,dilley,tx,78017,frio,830-326-3254,NA,--,WICLA049@friocounty.org,NA,1st Tue/3rd Tue | 9:00-5:00 && Lunch 12-1,NA,28.669171,-99.16902,NO
1319,live oak co wic satellite clinic,aaceeeiikllloosttv,305 Bowie St.,035beiow,george west,tx,78022,live oak,(361) 449-2733,NA,NA,NA,NA,2nd & 4th Thu  |  9:45-5:00  Lunch 1:00-2:00,NA,28.333541,-98.113715,NO
6411,atascosa wic,aaacosst,608 Mesquite St,068eeimtu,jourdanton,tx,78026,atascosa,830-767-0903,NA,830-741-6149,mandi.wilcox@medinatx.org,http://www.medinacountytexas.org/page/medina.WIC,Mon-Thu | 7:00-5:30 Lunch 12:00-12:30 && Closed the last business day of the month,NA,28.92362,-98.55149,NO
8966,kerrville wic clinic,eeikllrrv,"836 Sidney Baker Hwy, Suite 838-F",336888abdeeiknrsy,kerrville,tx,78028,kerr,830-257-4400,NA,NA,NA,NA,Tue/Wed | 7:30-6:00 Lunch 12:00-12:30 && 4th Tue | Closed,NA,30.05238,-99.1352,NO
1303,cedar health promotion center,aacdeehhilmnoooprrtt,2600 Cedar Avenue,0026acder,laredo,tx,78041,webb,956-795-4943,NA,956-722-5562,NA,NA,Mon/Tue/Wed/Thu  |  8:00-6:00  &&  Fri  |  8:00-5:00,NA,27.52,-99.49015,NO
1301,ladrillera health promotion center,aaaeehhiillllmnoooprrtt,2100 Pinder,0012deinpr,laredo,tx,78040,webb,956-795-2487,NA,956-795-2107,NA,NA,Mon/Wed/Fri | Closed && Tue/Thu | 9:00-6:00  LUNCH 1:00-2:00,NA,27.51821,-99.51925,NO
1305,farias health promotion center,aaaefhhiilmnoooprrstt,1210 Philadelhphia Room 105,0011125aadehiill,laredo,tx,78042,webb,956-795-2482,NA,956-795-2482,NA,NA,Mon/Tue/Wed/Thu  |  9:00-6:00  &&  Fri  |  8:00-5:00,NA,27.53473,-99.50728,NO
1311,lmc wic clinic,clm,1700 East Saunders Suite 455,0014557adenrssu,laredo,tx,78041,webb,956-727-9253,NA,--,NA,NA,Mon/Tue/Wed/Thu  |  9:00-6:00  &&  Fri  |  8:00-5:00,NA,27.53248,-99.47807,NO
1302,santo nino wic clinic,ainnnoost,2201 Saltillo St,0122ailllost,laredo,tx,78046,webb,956-795-2488,NA,956-795-2489,NA,NA,Mon/Tue/Wed/Thu  | 9:00-6:00  &&  Fri  | 8:00-5:00,NA,27.47578,-99.47312,NO
1307,larga vista health prmotion center,aaaaeghhiillnooprttv,5401 Cisneros,0145ceinorss,laredo,tx,78043,webb,956-717-3538,NA,956-712-4256,NA,NA,Mon/Tue/Wed/Thu  |  9:00-6:00  &&  Fri  | 8:00-5:00,NA,27.5004647,-99.4317124,NO
1310,northwest wic clinic,nw,10224 Atlanta Drive,01224aaalntt,laredo,tx,78045,webb,956-712-4015,NA,--,NA,NA,Mon/Tue/Wed/Thu | 9:00-6:00  &&  Fri  | 8:00-5:00,NA,27.5938,-99.52081,NO
5935,luckey ranch wic,accehklnruy,11880 Us Hwy 90 Suite 104,0001114889su,san antonio,tx,78245,bexar,210-233-7150,NA,NA,NA,https://www.communicaresa.org/,Mon/Tue/Wed  |  8:00-6:00 &&  Thu  |  9:00-7:00 &&  Fri | 8:00-12:00 && Closed The Last Business Day Of Each Month,NA,29.37539,-98.727848,NO
4901,frio county wic,cfinoortuy,411 East Brazos Suite C,114aosz,pearsall,tx,78061,frio,830-505-7385,NA,830-334-0092,WICLA049@friocounty.org,NA,Mon/Tue/Wed| 8:00-6:00  Lunch 12:00-13:00 && Thu | 8:00-1:00,NA,28.89286,-99.09286,NO
1313,zapata wic clinic,aaaptz,101 1St Street,0111,zapata,tx,78076,zapata,956-765-8442,NA,--,NA,NA,Mon/Tue/Wed/Thu  |  9:00-6:00  Lunch 1:00-2:00  &&  Fri  |  8:00-5:00  Lunch  12:00-1:00,NA,26.91212,-99.2633,NO
6901,beeville wic clinic,beeeillv,3811 N Saint Mary'S St,1138aaimnrsty,beeville,tx,78102,bee,361-358-9300,NA,361-358-9301,swillow@ccsct.org,NA,Mon/Tue/Wed/Thu | 7:00-6:00  Lunch 12:00-1:00 && Closed the last Thursday of the month,NA,28.43591,-97.76061,NO
7305,centromed walzem wic,acdeeelmmnortwz,5255 Walzem Road,2555aelmwz,san antonio,tx,78218,bexar,210-924-6004,NA,210-590-8160,wic.help@centromedsa.Com,https://centromedsa.com/services/wic/,Mon/Wed/Fri  | 8:00-5:00 &&  Tue/Thu  | 8:00-7:00 && 4th Sat | 8:00-5:00,https://texaswic.org/about-wic/live-chat-with-wic?la=073,29.5104249,-98.38587,NO
6903,wilson county wic office,cilnnoostuwy,1104 D Street,0114,floresville,tx,78114,wilson,830-393-7423,NA,830-393-8989,swillow@ccsct.org,NA,Mon/Tue/Wed/Thu | 7:00-6:00  Lunch 12:00-1:00 && Closed the last Thursday of the month,NA,29.13263,-98.15686,NO
6902,karnes county,aceknnorstuy,302 N Butler St,023belrtu,karnes city,tx,78118,karnes,830-583-3685,NA,830-583-9808,swillow@ccsct.org,NA,Mon/Tue/Wed/Thu | 7:00-6:00  Lunch 12:00-1:00 && Closed the last Thursday of the month,NA,28.88722,-97.90378,NO
3606,new braunfels wic,aeeflnnsuw,705 Landa St,057al,new braunfels,tx,78130,comal,512-393-8040,NA,855-461-6665,NA,http://www.ci.san-marcos.tx.us/266/Women-Infants-Children-WIC,Mon/Wed | 8:00-4:30 Lunch 12:00-1:00 && Tue/Thu | 8:00-7:00 Lunch 12:00-1:00 && Fri | 8:00-12:00,NA,29.70068,-98.14354,NO
4303,nixon wic clinic,innox,217 N Nixon Ave,127innox,nixon,tx,78140,gonzales,830-672-7083,NA,830-672-4575,NA,NA,Every Thursday  |  9:00-4:00  Lunch 12:30-1:30,NA,29.26902,-97.76478,NO
3605,seguin wic clinic,eginsu,550 N Hwy 123 Bypass Ste 160,001123556,seguin,tx,78155,guadalupe,512-393-8040,NA,855-461-6662,NA,http://www.ci.san-marcos.tx.us/266/Women-Infants-Children-WIC,Wed | 8:00-4:30 Lunch 12:00-1:00,NA,29.57302,-97.94189,NO
3707,yorktown housing authority,aghhiiknnoooorrstttuuwyy,Community Room 406 N Eckhardt,046accehkmmoty,yorktown,tx,78164,dewitt,361-578-2884,NA,--,NA,https://www.vctx.org/page/health.wic.hours-locations,1st Tue  |  9:30-12:30,NA,28.985314,-97.505383,NO
5914,communicare wic northwest,acceimmnnoruw,7863 Callaghan Rd Suite 206,0236678aaacghlln,san antonio,tx,78229,bexar,210-233-7150,NA,--,NA,NA,Mon/Tue/Wed  |  8:00-6:00  Lunch  12:00-1:00  &&  Thu  |  9:00-7:00  Lunch  1:00-2:00  &&  Fri | 8:00-12:00 && Closed The Last Business Day Of Each Month,NA,29.50983,-98.55502,NO
4101,buena vista clinic,aabeinuv,2315 Buena Vista Street,1235aabeinuv,san antonio,tx,78207,bexar,210-207-4906,NA,210-207-4908,Kelly.Bocanegra@sanantonio.gov,https://www.sa.gov/Directory/Departments/SAMHD/Health-Services/WIC#9869248-how-to-get-benefits,Mon | 7:45-4:30 && Tue | 7:45-7:30 && Wed/Thu | 7:45-4:30 && Fri | 7:45-12:45  &&  3rd Sat  |  7:45-11:45,NA,29.4271,-98.52414,NO
8901,city center wic,city,401 North San Saba,014aaabnss,san antonio,tx,78207,bexar,210-704-4180,NA,210-704-4189,NA,NA,Mon/Tue/Wed/Thu | 8:00-6:30  Lunch 12:00-12:30,NA,29.42887,-98.5001,NO
4116,salinas clinic,aailnss,630 South General Mcmullen,036aceeeglllmmnnru,san antonio,tx,78237,bexar,210-207-4700,NA,210-207-4701,Kelly.Bocanegra@sanantonio.gov,https://www.sa.gov/Directory/Departments/SAMHD/Health-Services/WIC#9869248-how-to-get-benefits,Mon/Tue | 7:45-4:30 && Wed | 7:45-7:30  && Thu | 7:45-4:30 && Fri | 7:45-12:45  &&  1st Sat  |  7:45-11:45,NA,29.42281,-98.55476,NO
5901,communicare west campus wic,acceimmnorsuuw,1102 Barclay St,0112ably,san antonio,tx,78207,bexar,210-233-7150,NA,210-435-5429,NA,https://www.communicaresa.org/,Mon/Tue/Wed  |  8:00-6:00  &&  Thu  |  9:00-7:00  &&  Fri | 8:00-12:00 && Closed The Last Business Day Of Each Month,NA,29.40984,-98.54249,NO
4118,callaghan clinic,aaacghlln,4412 Callaghan,1244aaacghlln,san antonio,tx,78228,bexar,210-207-4694,NA,210-207-4696,Kelly.Bocanegra@sanantonio.gov,https://www.sa.gov/Directory/Departments/SAMHD/Health-Services/WIC#9869248-how-to-get-benefits,Mon/Tue/Wed | 7:45-4:30 && Thu | 7:45-7:30 && Fri | 7:45-12:45  &&  2nd Sat  |  7:45-11:45,NA,29.467977,-98.602448,NO
8963,fort sam houston,afhmnooorstu,3060 Stanley Rd Bldg 2797 - Military And Family Readiness Center,00236779aaaadeeefiiiilllmmnnrrsstyyy,fort sam houston,tx,78234,bexar,210-954-4566,NA,NA,NA,NA,1st Tue/ 3rd Wed | 7:30-4:00 Lunch 12:00-12:30,NA,29.45018,-98.458145,NO
4103,pecan valley clinic,acenpv,802 Pecan Valley Drive,028acenp,san antonio,tx,78220,bexar,210-207-4715,NA,210-207-4716,Kelly.Bocanegra@sanantonio.gov,https://www.sa.gov/Directory/Departments/SAMHD/Health-Services/WIC#9869248-how-to-get-benefits,Mon/Tue/Wed | 7:45-4:30 && Thu | 7:45-7:30 && Fri | 7:45-12:45  &&  3rd Sat  |  7:45-11:45,NA,29.40726,-98.43177,NO
4110,south flores clinic,eorss,6723 South Flores Suite 106,0123667eors,san antonio,tx,78221,bexar,210-207-4555,NA,210-207-4557,Kelly.Bocanegra@sanantonio.gov,https://www.sa.gov/Directory/Departments/SAMHD/Health-Services/WIC#9869248-how-to-get-benefits,Mon | 7:45-4:30 && Tue | 7:45-7:30 && Wed/Thu | 7:45-4:30 && Fri | 7:45-12:45  &&  2nd Sat  |  7:45-11:45,NA,29.3541767,-98.4900822,NO
7301,centromed clinic sw military dr,acdeeiilmmnorrsttwy,910 S W Military Drive,019aiilmrty,san antonio,tx,78221,bexar,210-924-6004,NA,210-924-6039,wic.help@centromedsa.com,https://centromedsa.com/services/wic/,Mon/Wed/Fri  | 8:00-5:00 &&  Tue/Thu  | 8:00-7:00 && 4th Sat | 8:00-5:00,https://texaswic.org/about-wic/live-chat-with-wic?la=073,29.35633,-98.50632,NO
4111,zarzamora wic clinic,aaamorrzz,4503 South Zarzamora,0345aaamorrzz,san antonio,tx,78211,bexar,210-207-4720,NA,210-207-4721,Kelly.Bocanegra@sanantonio.gov,https://www.sa.gov/Directory/Departments/SAMHD/Health-Services/WIC#9869248-how-to-get-benefits,Mon | 7:45-7:30  &&  Tue/Wed/Thu | 7:45-4:30 &&  Fri | 7:45-12:45,NA,29.381239,-98.534294,NO
4120,rittiman clinic,aiimnrtt,4343 Rittiman Road,3344aiimnrtt,san antonio,tx,78218,bexar,210-207-4750,NA,210-826-8239,Kelly.Bocanegra@sanantonio.gov,https://www.sa.gov/Directory/Departments/SAMHD/Health-Services/WIC#9869248-how-to-get-benefits,Mon/Tue  | 7:45-4:30  &&  Wed  | 7:45-7:30 && Thu | 7:45-4:30 && Fri | 7:45-12:45 && 1st Sat  |  7:45-11:45,NA,29.48445,-98.4079299,NO
4117,naco perrin clinic,aceinnoprr,4020 Naco Perrin,0024aceinnoprr,san antonio,tx,78217,bexar,210-207-4742,NA,210-207-4743,Kelly.Bocanegra@sanantonio.gov,https://www.sa.gov/Directory/Departments/SAMHD/Health-Services/WIC#9869248-how-to-get-benefits,Mon/Tue/Wed | 7:45-4:30 && Thu | 7:45-7:30 && Fri | 7:45-12:45  &&  3rd Sat  |  7:45-11:45,NA,29.54283,-98.41612,NO
8953,lackland air force base,aaabcceefikllorrs,2240 Walker Ave Bldg 5460,00224456aeklrw,lackland afb,tx,78236,bexar,210-674-7739,NA,210-674-2165,NA,NA,Mon-Thu | 7:30-6:00 Lunch 12:00-12:30,NA,29.382719,-98.613121,NO
8959,medical center wic,acdeilm,5500 Babcock  Ste 123,0012355abbccko,san antonio,tx,78240,bexar,210-340-1161,NA,210-694-4714,NA,NA,Mon/Tue/Wed/Thu | 7:30-6:00  Lunch 12:00-12:30,NA,29.51796,-98.59557,NO
4109,marbach clinic,aabchmr,7452 W Military Dr,2457aiilmrty,san antonio,tx,78227,bexar,210-207-4690,NA,210-207-4693,Kelly.Bocanegra@sanantonio.gov,https://www.sa.gov/Directory/Departments/SAMHD/Health-Services/WIC#9869248-how-to-get-benefits,Mon | 7:45-4:30 && Tue | 7:45-7:30 && Wed/Thu | 7:45-4:30 && Fri | 7:45-12:45  &&  1st Sat  |  7:45-11:45,NA,29.4167726,-98.6295351,NO
5915,communicare potranco wic,aaccceimmnnoooprrtu,10002 Westover Bluff,00012eorvw,san antonio,tx,78251,bexar,(210) 233-7150,NA,NA,NA,NA,Mon/Tue/Wed  |  8:00-6:00 &&  Thu  |  9:00-7:00 &&  Fri  |  8:00-12:00 && Closed The Last Business Day Of Each Month,NA,29.4371737,-98.6863714,NO
4121,sabine wic clinic,abeins,"Cross Creek Shopping Center, 9179 Grissom Road, Suite 147",1147799cgghiimnooopprrsssss,san antonio,tx,78251,bexar,210-207-4754,NA,210-207-4757,Kelly.Bocanegra@sanantonio.gov,https://www.sa.gov/Directory/Departments/SAMHD/Health-Services/WIC#9869248-how-to-get-benefits,Mon | 7:45-7:30 && Tue/Wed/Thu | 7:45-4:30 && Fri | 7:45-12:45  &&  2nd Sat  |  7:45-11:45,NA,29.48418,-98.66444,NO
504,agua dulce-nueces county,aacccdeeeglnnostuuuuy,1513 2nd Street,11235dn,aqua dulce,tx,78330,nueces,361-537-1867,NA,--,NA,NA,4Th Wed | 9:00-12:00,https://texaswic.org/about-wic/live-chat-with-wic?la=005,27.781841,-97.911298,NO
1318,alice wic clinic,aceil,"2041 E Main St, Suite 500",0001245aimn,alice,tx,78332,jim wells,361-453-4033,NA,NA,NA,NA,Mon/Tue/Wed/Thu  |  9:00-6:00  &&  Fri  8:00-5:00,NA,27.76421,-98.04722,NO
5111,san patricio county wic aransas pass clinic,aaaaaacciinnnoopprrsssssttuy,1212 W Wheeler Ave,1122eeehlrw,aransas pass,tx,78336,nueces,361-758-2102,NA,--,NA,NA,Mon/Tue | 8:00-5:00 Lunch 12:00-1:00 && Wed | 7:00-6:00 Lunch 12:00-1:00 && Thu/Fri | 8:00-5:00 Lunch 12:00-1:00&& 2nd Fri of Month | Closed,https://texaswic.org/about-wic/live-chat-with-wic?la=051,27.91415,-97.15798,NO
5102,san patricio county wic ingleside clinic,aaccdeegiiiilnnnooprssttuy,2681 San Angelo,1268aaeglnnos,ingleside,tx,78362,nueces,361-776-3819,NA,361-776-5158,NA,NA,Tue | 7:00-6:00 Lunch 12:00-1:00 && Wed | 8:00-5:00 Lunch 12:00-1:00,https://texaswic.org/about-wic/live-chat-with-wic?la=051,27.8772274,-97.21541,NO
503,banquete-l and m superette,abeeeeelmnpqrstttuu,4359 4th Street,34459ht,banquette,tx,78339,nueces,361-537-1867,NA,--,NA,NA,2nd Wed | 9:00-12:00,https://texaswic.org/about-wic/live-chat-with-wic?la=005,27.806986,-97.797043,NO
502,bishop community center,bchimmoopsy,102 West Joyce St,012cejoy,bishop,tx,78343,nueces,361-537-1867,NA,--,NA,NA,1st/3rd Wed | 9:00-12:00,https://texaswic.org/about-wic/live-chat-with-wic?la=005,27.581427,-97.80171,NO
1322,falfurrias wic clinic,aaffilrrsu,125 E Miller,125eillmr,falfurrias,tx,78355,brooks,(361) 325-2600,NA,NA,NA,NA,Mon/Wed  |  9:00-6:00  Lunch  1:00-2:00  &&  Fri  |  8:00-5:00  Lunch 12:00-1:00,NA,27.22622,-98.14343,NO
5106,san patricio county wic gregory portland clinic,aacceggiilnnoooopprrrrstttuyy,107 Church Street,017cchhru,gregory,tx,78359,san patricio,361-643-8205,NA,--,NA,NA,Thu | 8:00-5:00 Lunch 12:00-1:00,https://texaswic.org/about-wic/live-chat-with-wic?la=051,27.918448,-97.295063,NO
1312,hebbronville wic clinic,beehillnov,517 West Viggie,157eggiiv,hebbronville,tx,78361,jim hogg,361-527-9135,NA,--,NA,NA,Tue/Thu  |  9:45-5:00  Lunch  1:00-2:00,NA,27.3127465,-98.6828684,NO
1320,kingsville wic clinic,egiikllnsv,1403 E Corral,0134aclorr,kingsville,tx,78363,kleberg,(361) 592-2022,NA,NA,NA,NA,Mon/Tue/Wed/Thu  |  9:00-6:00  &&  Fri  | 8:00-5:00,NA,27.530386,-97.850699,NO
5103,san patricio county wic mathis clinic,aaacchiiimnnooprsstttuy,600 North Frio Street,006fior,mathis,tx,78368,san patricio,361-587-3655,NA,361-587-3755,NA,NA,Tue | 8:00-5:00 Lunch 12:00-1:00 && Wed | 7:00-6:00 Lunch 12:00-1:00 && Thu | 8:00-5:00 Lunch 12:00-1:00,https://texaswic.org/about-wic/live-chat-with-wic?la=051,28.10078,-97.8280774,NO
5110,san patricio county wic refugio clinic - special procedures -,aaaccccdeeeefgiiiilnnooooppprrrrsssttuuuy,"No In Person Services - For Assistance Email WIC51@sanpatriciocountytx.gov, 245 Fairgrounds Rd Expo Center",12455aaaaaacccccdeeeeeeffggiiiiiiiilmnnnnnnnooooooooppprrrrrrssssssstttuuvvwxxy,refugio,tx,78377,refugio,361-343-0907,NA,--,NA,NA,For Assistance Email WIC51@sanpatriciocountytx.gov,https://texaswic.org/about-wic/live-chat-with-wic?la=051,28.323298,-97.29358,NO
501,"dch wic at driscoll health center ""temporarily closed""",aaacccddeeehhhiilllllmoooprrssttty,"Please contact 361-242-2458 for assistance, 414 N Matiana Ortiz Blvd",1122234444568aaaaaaacceeefiiimnnnooorrssstttz,robstown,tx,78380,nueces,361-767-7777,NA,--,NA,NA,Mon/Tue/Thu | 8:00-6:00 Lunch 12:00-1:00 && Wed | 1:00-6:00 && Fri | 8:00-12:00 && 3rd Fri | Closed,https://texaswic.org/about-wic/live-chat-with-wic?la=005,27.794424,-97.671967,NO
5101,san patricio county wic sinton clinic,aacciiinnnnoooprsstttuy,313 North Rachal Avenue,133aachlr,sinton,tx,78387,san patricio,361-587-3510,NA,361-587-3712,NA,NA,Mon/Tue | 7:00-6:00 && Wed/Thur/Fri | 8:00-5:00 && 2nd Fri of Month | Closed,https://texaswic.org/about-wic/live-chat-with-wic?la=051,28.0391548,-97.5105749,NO
3801,corpus christi-nueces co public health district,abcccccdeeehhhiiiiillnoopprrrsstuuu,1702 Horne Road,0127ehnor,corpus christi,tx,78416,nueces,361-826-1355,NA,361-855-0792,Corpuschristiwic@Cctexas.Com,NA,Mon-Thu | 8:00-6:00  Lunch 12:00-1:00 && Fri | 8:00-12:00,https://texaswic.org/about-wic/live-chat-with-wic?la=038,27.75887,-97.4299,NO
508,dhc-wic of corpus christi,ccdhhiioprrsu,4141 South Staples,1144aes,corpus christi,tx,78411,nueces,361-694-6767,NA,--,NA,NA,Mon/ Tue/ Wed/ Thu | 8:00-6:00 Lunch 12:00-1:00 && Fri | 8:00-12:00 && 3rd Fri | Closed,https://texaswic.org/about-wic/live-chat-with-wic?la=005,27.72529,-97.37902,NO
505,annaville-hilltop community center,aacehiillllmmnnooptvy,11425 Leopard Street,11245aelop,corpus christi,tx,78410,nueces,361-242-2458,NA,--,NA,NA,Mon/ Tue/ Wed/ Thu | 8:00-6:00 Lunch 12:00-1:00 && Fri | 8:00-12:00 && 3rd Fri | Closed,https://texaswic.org/about-wic/live-chat-with-wic?la=005,27.84595,-97.59351,NO
3803,flour bluff,oru,"Janet Harte Library, 2629 Waldron Rd",2269aaaaehijllnnortwy,corpus christi,tx,78418,nueces,361-826-1355,NA,361-937-3291,Corpuschristiwic@Cctexas.Com,NA,1st Tue | 8:30-11:30 && 3rd Tue | 2:00-5:30,https://texaswic.org/about-wic/live-chat-with-wic?la=038,27.64399347,-97.29678798,NO
1218,mcallen wic clinic ii,acellmn,220 S Bicentennial  Suite D,022abceeiilnnnt,mcallen,tx,78501,hidalgo,956-292-7752,NA,956-668-1226,NA,https://www.hidalgocounty.us/108/WIC-Office,Mon/Thu | 8:00-6:00  && Tue/Wed/Fri | 8:00-5:00,https://texaswic.org/about-wic/live-chat-with-wic?la=012,26.20263,-98.23987,NO
1230,mcallen wic clinic #3,3acellmn,3001 North 23Rd Suite 8,0012338,mcallen,tx,78502,hidalgo,956-683-1822,NA,956-664-2392,NA,https://www.hidalgocounty.us/108/WIC-Office,Mon/Thu | 8:00-6:00  && Tue/Wed/Fri | 8:00-5:00,https://texaswic.org/about-wic/live-chat-with-wic?la=012,26.2325,-98.24091,NO
1204,pharr public health center,aabcehhillprrtu,1903 N Knights Dr,0139gikn,pharr,tx,78577,hidalgo,956-783-1151,NA,956-702-2493,NA,https://www.hidalgocounty.us/108/WIC-Office,Mon/Thu  |  8:00-6:00  &&  Tue/Wed/Fri  |  8:00-5:00,https://texaswic.org/about-wic/live-chat-with-wic?la=012,26.21236,-98.17315,NO
1224,pharr wic clinic ii,arr,300 W Hall Acres Rd Ste A,003ahll,pharr,tx,78577,hidalgo,956-781-4920,NA,956-781-4905,NA,https://www.hidalgocounty.us/108/WIC-Office,Mon/Thu | 8:00-6:00  && Tue/Wed/Fri | 8:00-5:00,https://texaswic.org/about-wic/live-chat-with-wic?la=012,26.16689,-98.19165,NO
1205,hidalgo public health center,aabcdeghhhiillloptu,702 East Ramon Ayala Dr,027aaaalmnory,hidalgo,tx,78557,hidalgo,956-843-8151,NA,956-843-2324,NA,https://www.hidalgocounty.us/108/WIC-Office,Mon/Tue/Wed/Thu/Fri | 8:00-5:00,https://texaswic.org/about-wic/live-chat-with-wic?la=012,26.1040289,-98.2559489,NO
1214,alton wic clinic i,ailnot,3513 E Main Ave  Suite 104,0113345aimn,alton,tx,78573,hidalgo,956-519-7159,NA,956-519-8551,NA,https://www.hidalgocounty.us/108/WIC-Office,Mon/Thu  |  8:00-6:00  &&  Tue/Wed/Fri  |  8:00-5:00,https://texaswic.org/about-wic/live-chat-with-wic?la=012,26.2826202,-98.2802333,NO
1228,wic mobile -unidos podemos,ddeimnooopssu,3105 West University Dr,0135eiinrstuvy,edinburg,tx,78539,hidalgo,956-279-7850,NA,--,NA,https://www.hidalgocounty.us/108/WIC-Office,Mon/Tue/Wed/Thu/Fri | 8:00-5:00,https://texaswic.org/about-wic/live-chat-with-wic?la=012,26.3084,-98.19854,NO
1215,alamo wic clinic i,aailmo,313 E Business Highway 83 Suite 113,11133338beinsssu,alamo,tx,78516,hidalgo,956-783-5369,NA,956-702-2452,NA,https://www.hidalgocounty.us/108/WIC-Office,Mon/Thu | 8:00-6:00  && Tue/Wed/Fri | 8:00-5:00,https://texaswic.org/about-wic/live-chat-with-wic?la=012,26.17951,-98.10408,NO
1245,alamo wic clinic #2,2aalmo,1429 South Tower Road,1249eortw,alamo,tx,78516,hidalgo,956-784-3523,NA,956-207-7097,NA,https://www.hidalgocounty.us/108/WIC-Office,Tue/Wed/Thu  |  8:00-5:00,https://texaswic.org/about-wic/live-chat-with-wic?la=012,26.164055,-98.11419,NO
1229,north san juan wic clinic,aajnnnsu,509 East Earling Rd,059aegilnr,san juan,tx,78589,hidalgo,956-702-7788,NA,956-702-7740,NA,https://www.hidalgocounty.us/108/WIC-Office,Mon/Thu | 8:00-6:00  && Tue/Wed/Fri | 8:00-5:00,https://texaswic.org/about-wic/live-chat-with-wic?la=012,26.2265885,-98.1304394,NO
1206,donna wic clinic,adnno,301 South 8Th Street,0138ht,donna,tx,78537,hidalgo,956-464-2251,NA,956-464-9249,NA,https://www.hidalgocounty.us/108/WIC-Office,Mon/Thu | 8:00-6:00  && Tue/Wed/Fri | 8:00-5:00,https://texaswic.org/about-wic/live-chat-with-wic?la=012,26.1679535,-98.0560615,NO
306,garden plaza wic clinic,aegn,"1225 North Expressway, Suite 2D",12225d,brownsville,tx,78520,cameron,888-942-4847,NA,956-574-8792,Wic.Clinics@Co.Cameron.Tx.Us,https://www.cameroncountytx.gov/publichealth/,Mon  |  7:45AM-8:00PM  &&  Tue  |  7:45AM-5:00PM  &&  Wedn  |  7:45AM-6:00PM  &&  Thu  |  7:45AM-5:00PM  &&  Fri  |  7:45AM-5:00PM,https://texaswic.org/about-wic/live-chat-with-wic?la=003,25.93901,-97.50192,NO
321,cameron park wic clinic,acemnor,2102 Avenida Gregory,0122adegginorry,brownsville,tx,78526,cameron,888-942-4847,NA,956-574-8781,Wic.Clinics@Co.Cameron.Tx.Us,https://www.cameroncountytx.gov/publichealth/,Mon  |  8:00AM-8:00PM  &&  Tue  |  8:00AM-6:00PM  &&  Wedn  |  8:00AM-5:00PM  &&  Thu  |  8:00AM-5:00PM  &&  Fri  |  8:00AM-1:00PM,https://texaswic.org/about-wic/live-chat-with-wic?la=003,25.970783,-97.4835073,NO
310,fruity wic clinic,firtuy,"4430 East 14th Street, Suite C",013444ht,brownsville,tx,78521,cameron,888-942-4847,NA,956-574-8791,Wic.Clinics@Co.Cameron.Tx.Us,https://www.cameroncountytx.gov/publichealth/,Mon  |  8:00AM-8:00PM  &&  Tue  |  8:00AM-6:00PM  &&  Wedn  |  8:00AM-5:00PM  &&  Thu  |  8:00AM-5:00PM  &&  Fri  |  8:00AM-1:00PM,https://texaswic.org/about-wic/live-chat-with-wic?la=003,25.91929,-97.46789,NO
302,lucio wic clinic,cilou,1204 Jose Colunga Jr. Street,0124acegjjlnoorsu,brownsville,tx,78521,cameron,888-942-4847,NA,956-574-8765,Wic.Clinics@Co.Cameron.Tx.Us,https://www.cameroncountytx.gov/publichealth/,Mon  |  7:45AM-8:00PM  &&  Tue  |  7:45AM-5:00PM  &&  Wedn  |  7:45AM-6:00PM  &&  Thu  |  7:45AM-5:00PM  &&  Fri  |  7:45AM-5:00PM,https://texaswic.org/about-wic/live-chat-with-wic?la=003,25.90504,-97.4385999,NO
312,browne wic clinic,enow,9901 California Rd.,0199aacfiilnor,brownsville,tx,78521,cameron,888-942-4847,NA,956-831-1502,Wic.Clinics@Co.Cameron.Tx.Us,https://www.cameroncountytx.gov/publichealth/,Mon  |  8:00AM-8:00PM  &&  Tue  |  8:00AM-6:00PM  &&  Wedn  |  8:00AM-5:00PM  &&  Thu  |  8:00AM-5:00PM  &&  Fri  |  8:00AM-1:00PM,https://texaswic.org/about-wic/live-chat-with-wic?la=003,25.8954533,-97.3904544,NO
303,harlingen wic clinic,aeghilnnr,711 North L Street,117,harlingen,tx,78550,cameron,888-942-4847,NA,956-423-5814,Wic.Clinics@Co.Cameron.Tx.Us,https://www.cameroncountytx.gov/publichealth/,Mon  |  7:45AM-8:00PM  &&  Tue  |  7:45AM-5:00PM  &&  Wedn  |  7:45AM-6:00PM  &&  Thu  |  7:45AM-5:00PM  &&  Fri  |  7:45AM-5:00PM,https://texaswic.org/about-wic/live-chat-with-wic?la=003,26.1982025,-97.7093861,NO
1207,weslaco public health center,aabcceehhilllopstuw,1901 North Bridge,0119,weslaco,tx,78596,hidalgo,956-968-0594,NA,956-969-4433,NA,https://www.hidalgocounty.us/108/WIC-Office,Mon/Thu  |  8:00-6:00  &&  Tue/Wed/Fri  |  8:00-5:00,https://texaswic.org/about-wic/live-chat-with-wic?la=012,26.17817,-97.985,NO
1209,elsa public health center,aabceehhilllpstu,708 East Edinburg Street,078dein,elsa,tx,78543,hidalgo,956-262-1324,NA,956-262-7041,NA,https://www.hidalgocounty.us/108/WIC-Office,Mon/Thu  |  8:00-6:00  &&  Tue/Wed/Fri  |  8:00-5:00,https://texaswic.org/about-wic/live-chat-with-wic?la=012,26.2933451,-97.9828322,NO
403,lasara community resource center,aaacceelmmoorrrssuy,706 East 6Th Street,0667ht,lasara,tx,78561,hidalgo,956-689-2425,NA,--,NA,NA,1st/4th Wed |  1:00-4:30,NA,26.2984351,-97.9242911,NO
1201,edinburg public health center,abcdeehhiillnptu,3105 East Richardson,0135achinors,edinburg,tx,78539,hidalgo,956-380-0363,NA,956-316-3772,NA,https://www.hidalgocounty.us/108/WIC-Office,Mon/Thu  |  8:00-6:00  &&  Tue/Wed/Fri  |  8:00-5:00,https://texaswic.org/about-wic/live-chat-with-wic?la=012,26.3039345,-98.1285518,NO
1226,san carlos community resource center,aaccceelmmnooorrrsssuy,230 North 86 Street,02368,edinburg,tx,78539,hidalgo,956-318-1476,NA,915-318-1609,NA,https://www.hidalgocounty.us/108/WIC-Office,Mon/Tue/Wed/Thu/Fri | 8:00-5:00,https://texaswic.org/about-wic/live-chat-with-wic?la=012,26.2957343,-98.068683,NO
301,san benito wic clinic,abeinnost,1390 W. Expressway 83,013389,san benito,tx,78586,cameron,888-942-4847,NA,956-361-4681,Wic.Clinics@Co.Cameron.Tx.Us,https://www.cameroncountytx.gov/publichealth/,Mon  |  7:45AM-8:00PM  &&  Tue  |  7:45AM-5:00PM  &&  Wedn  |  7:45AM-6:00PM  &&  Thu  |  7:45AM-5:00PM  &&  Fri  |  7:45AM-5:00PM,https://texaswic.org/about-wic/live-chat-with-wic?la=003,26.1393308,-97.6532758,NO
1216,sullivan city public health center,aabccehhiiillllnpsttuuvy,371 East Expressway 83,13378,sullivan city,tx,78595,hidalgo,956-485-2752,NA,956-485-9047,NA,https://www.hidalgocounty.us/108/WIC-Office,Mon/Tue/Wed/Thu/Fri | 8:00-5:00,https://texaswic.org/about-wic/live-chat-with-wic?la=012,26.2769667,-98.5631974,NO
311,los fresnos wic clinic,eflnoorsss,111 North Arroyo Blvd,111aoorry,los fresnos,tx,78566,cameron,888-942-4847,NA,956-233-6160,Wic.Clinics@Co.Cameron.Tx.Us,https://www.cameroncountytx.gov/publichealth/,Mon  |  8:00AM-8:00PM  &&  Tue  |  8:00AM-6:00PM  &&  Wedn  |  8:00AM-5:00PM  &&  Thu  |  8:00AM-5:00PM  &&  Fri  |  8:00AM-1:00PM,https://texaswic.org/about-wic/live-chat-with-wic?la=003,26.07216,-97.476622,NO
314,la paloma wic clinic,aaallmop,35005 Leal Rd,00355aell,san benito,tx,78586,cameron,888-942-4847,NA,956-361-4694,Wic.Clinics@Co.Cameron.Tx.Us,https://www.cameroncountytx.gov/publichealth/,Wedn  |  8:00AM-8:00PM  &&  Thu  |  8:00AM-5:00PM  &&  Fri  |  8:00AM-1:00PM,https://texaswic.org/about-wic/live-chat-with-wic?la=003,26.0516945,-97.6787252,NO
315,rio hondo wic clinic,dhinooor,125 Colorado Ave,125acdlooor,rio hondo,tx,78583,cameron,888-942-4847,NA,956-748-4636,Wic.Clinics@Co.Cameron.Tx.Us,https://www.cameroncountytx.gov/publichealth/,Mon  |  8:00AM-8:00PM  &&  Tue  |  8:00AM-6:00PM  &&  Fri  |  8:00AM-1:00PM,https://texaswic.org/about-wic/live-chat-with-wic?la=003,26.23455,-97.57898,NO
1208,mercedes wic clinic,cdeeemrs,540 South Texas,045aestx,mercedes,tx,78570,hidalgo,956-565-2603,NA,956-565-3626,NA,https://www.hidalgocounty.us/108/WIC-Office,Mon/Thu | 8:00-6:00  && Tue/Wed/Fri | 8:00-5:00,https://texaswic.org/about-wic/live-chat-with-wic?la=012,26.146492,-97.9132551,NO
1202,mission public health clinic,abcehhiiillmnopsstu,211 South Schuerbach Road Po B,112abccehhoprsu,mission,tx,78572,hidalgo,956-581-2723,NA,956-584-8890,NA,https://www.hidalgocounty.us/108/WIC-Office,Mon/Thu | 8:00-6:00  && Tue/Wed/Fri | 8:00-5:00,https://texaswic.org/about-wic/live-chat-with-wic?la=012,26.2098279,-98.3623686,NO
1217,mission wic clinic ii,iimnoss,722 North Breyfogle Road Suite 2-C,2227eefgloy,mission,tx,78572,hidalgo,956-584-3334,NA,956-584-9244,NA,https://www.hidalgocounty.us/108/WIC-Office,Mon/Thu | 8:00-6:00  && Tue/Wed/Fri | 8:00-5:00,https://texaswic.org/about-wic/live-chat-with-wic?la=012,26.2291282,-98.3587419,NO
1231,alton wic clinic #2,2alnot,"3503 W 5 Mile Rd Ste 5, 6 & 7",03355567eilm,mission,tx,78574,hidalgo,956-583-5791,NA,956-583-4681,NA,https://www.hidalgocounty.us/108/WIC-Office,Mon/Thu | 8:00-6:00  && Tue/Wed/Fri | 8:00-5:00,https://texaswic.org/about-wic/live-chat-with-wic?la=012,26.29296,-98.35764,NO
304,port isabel wic clinic,abeiloprst,142 Champion Ave,124achimnop,port isabel,tx,78578,cameron,888-942-4847,NA,956-943-6044,Wic.Clinics@Co.Cameron.Tx.Us,https://www.cameroncountytx.gov/publichealth/,Mon  |  8:00AM-8:00PM  &&  Tue  |  8:00AM-6:00PM  &&  Wedn  |  8:00AM-5:00PM  &&  Thu  |  8:00AM-5:00PM  &&  Fri  |  8:00AM-1:00PM,https://texaswic.org/about-wic/live-chat-with-wic?la=003,26.07164,-97.21444,NO
1212,progreso wic clinic,egooprrs,510 North Fm. 1015,0011155fm,progreso,tx,78579,hidalgo,956-514-0236,NA,956-565-3656,NA,https://www.hidalgocounty.us/108/WIC-Office,Mon/Thu | 8:00-6:00  && Tue/Wed/Fri | 8:00-5:00,https://texaswic.org/about-wic/live-chat-with-wic?la=012,26.065701,-97.9497872,NO
401,su clinica familiar inc,aaacfiiilmnrsu,131 Fm 3168,1113368fm,raymondville,tx,78580,willacy,956-689-2425,NA,--,NA,NA,Mon-Thu | 8:00-6:00  Lunch 12:00-1:00 && 1st Wed Of The Month Closed 8:00-1:00 && Fri | 8:00-5:00 Lunch 12:00-1:00 && Friday before 3rd Sat | 8:00-12:00 && 3rd Sat 8:00-12:00,NA,26.4670821,-97.784183,NO
1243,rio grande city wic clinic,cegiiorrty,5404 Brand Street Ste 5,04455,rio grande city,tx,78582,starr,956-488-0500,NA,956-488-8356,NA,https://www.hidalgocounty.us/108/WIC-Office,Mon/Thu | 8:00-6:00  && Tue/Wed/Fri | 8:00-5:00,https://texaswic.org/about-wic/live-chat-with-wic?la=012,26.3518712,-98.7720298,NO
1244,roma wic clinic,amor,2891 E Grant Street,1289agnrt,roma,tx,78584,starr,956-849-1459,NA,956-849-1453,NA,https://www.hidalgocounty.us/108/WIC-Office,Mon/Thu | 8:00-6:00  && Tue/Wed/Fri | 8:00-5:00,https://texaswic.org/about-wic/live-chat-with-wic?la=012,26.4076274,-98.979468,NO
332,santa rosa wic clinic,aaanorsst,116 Santa Vista Ave.,116aaainstv,santa rosa,tx,78593,cameron,888-942-4847,NA,956-636-1469,Wic.Clinics@Co.Cameron.Tx.Us,https://www.cameroncountytx.gov/publichealth/,Mon  |  8:00AM-8:00PM  &&  Tue  |  8:00AM-6:00PM  &&  Wedn  |  8:00AM-5:00PM  &&  Thu  |  8:00AM-5:00PM  &&  Fri  |  8:00AM-1:00PM,https://texaswic.org/about-wic/live-chat-with-wic?la=003,26.2533641,-97.8255457,NO
128,bastrop wic,abopr,605 Old Austin Hwy,056adilnou,bastrop,tx,78602,bastrop,512-972-4942,NA,BasWICFax@austintexas.gov,BastropWIC@austintexas.gov,https://www.austintexas.gov/page/wic-locations,Mon/Tue/Thu | 7:30-4:30 Lunch 12:00-12:30 && Wed | Closed && Fri | 7:30-1:30,https://texaswic.org/about-wic/live-chat-with-wic?la=001,30.11174,-97.33819,NO
4204,cedar park public health center,aabccdeehhillprtu,"Appointments are now in person. Please enter the WIC clinic building for your appointment., 350 Discovery Blvd Suite 102",001235aaaacccdeeeeeeeefhiiiiilmmnnnnnnnooooppprrrrrsssstttuwwyy,cedar park,tx,78613,williamson,512-260-4241,NA,512-260-4293,Cedarparkwic@Wilco.Org,http://www.wcchd.org/,Mon/Tue/Wed/Thu | 8:00-6:00 Lunch 12:00-1:00 && Fri | 8:00-12:00,NA,30.5188,-97.82578,NO
121,del valle clinic,adeelllv,3518 FM 973,1335789fm,del valle,tx,78617,travis,512-972-4942,NA,512-978-7619,DelValleWIC@austintexas.gov,https://www.austintexas.gov/WIC,Mon-Thu | 7:30-4:30 Lunch 12:00-12:30 && 2nd Wed | Closed && Fri | 7:30-1:30,https://texaswic.org/about-wic/live-chat-with-wic?la=001,30.19893,-97.64282,NO
129,elgin wic clinic,egiln,218 South Main St,128aimn,elgin,tx,78621,bastrop,512-972-4942,NA,512-972-7365,ElginWIC@austintexas.gov,https://www.austintexas.gov/WIC,Wed| 7:30-4:30 Lunch 12:00-12:30 && 2nd Wed | Closed && Fri | 7:30-1:30,https://texaswic.org/about-wic/live-chat-with-wic?la=001,30.34535,-97.3698299,NO
8965,fredericksburg wic clinic,cdeefikrrs,"Heart of the Hills Mom Center, 103 Industrial Loop #900",000139aadeefhhhiiillllmmnooooprrsttu,fredericksburg,tx,78624,gillespie,210-990-3732,NA,NA,NA,NA,Thu | 8:00-4:30 Lunch 12:30-1:00,NA,30.25005,-98.84953,NO
4201,georgetown public health center,abceeegghhillnooprttuw,"Appointments are now in person. Please enter the WIC clinic building for your appointment., 1200 W 17th St",001127aaaaccceeeeeeeefhhiiiilmmnnnnnnnooooppprrrrsssttttuwwy,georgetown,tx,78626,williamson,512-943-3680,NA,512-868-9759,Georgetownwic@Wilco.Org,http://www.wcchd.org/,Mon/Tue/Wed/Thu | 8:00-6:00 Lunch 12:00-1:00 && Fri | 8:00-12:00,NA,30.62824,-97.68611,NO
4301,gonzales community health center,aaceeghhllmmnoostyz,229 Saint George Street,229aeegginorst,gonzales,tx,78629,gonzales,830-672-7083,NA,830-672-4575,NA,NA,Mon | 8:00-5:30  Lunch 12:30-1:30 && Closed last Monday of the month && Tue | 8:00-7:00 Lunch 12:30-1:30 && Wed/Thu | 8:00-5:30  Lunch 12:30-1:30 && Fri/3rd Sat | 8:00-12:00,NA,29.5019029,-97.4551905,NO
8967,johnson city wic clinic,chijnnoosty,206 S. Hwy 281,012268,johnson city,tx,78636,blanco,210-990-3732,NA,NA,NA,NA,4th Tue | 8:00-4:30 Lunch 12:00-12:30,NA,30.27944,-98.40483,NO
3620,kyle wic clinic,ekly,150 W Lockhart St,015achklort,kyle,tx,78640,hays,512-393-8040,NA,833-851-4341,NA,http://www.ci.san-marcos.tx.us/266/Women-Infants-Children-WIC,Mon/Wed | 8:00-7:00 Lunch 12:00-1:00 && Tue/Thu | 8:00-4:30 Lunch 12:00-1:00 && Fri | 8:00-12:00,NA,29.98969,-97.87576,NO
4210,liberty hill crc,bccehiilllrrty,"Appointments are now in person. Please enter the WIC clinic building for your appointment., 155 Hillcrest Ln Ste B",155aaaacccceeeeeeeeefhhiiiiilllmmnnnnnnnooooppprrrrrssstttuwwy,liberty hill,tx,78642,williamson,512-943-3680,NA,512-943-3618,Georgetownwic@Wilco.Org,http://www.wcchd.org/,2nd Wed of the month | 9:00-5:00 Lunch 12:00-1:00 && 4th Mon of the month | 9:00-5:00 Lunch 12:00-1:00,NA,30.6697768,-97.930814,NO
13172,llano wic,allno,100 Legend Hills Blvd,001deeghilllns,llano,tx,78639,llano,325-428-6381,NA,NA,Wictx@Spcaa.Org,https://www.spcaawic.org/,1st/3rd Tue | 10:00-5:00  Lunch 12:00-1:00,https://texaswic.org/about-wic/live-chat-with-wic?la=130-131,30.7514394,-98.6971435,NO
3612,lockhart wic clinic,achklort,901 Bois D' Arc,019bios,lockhart,tx,78644,caldwell,512-393-8040,NA,855-461-6673,NA,http://www.ci.san-marcos.tx.us/266/Women-Infants-Children-WIC,Tue/Thu | 8:00-4:30 Lunch 12:00-1:00,NA,29.8858,-97.68492,NO
115,pflugerville clinic,eegillpruv,15822-B Foothill Farms Loop,12258affhillloooopst,pflugerville,tx,78660,williamson,512-972-4942,NA,512-854-1579,PflugervilleWIC@austintexas.gov,https://www.austintexas.gov/WIC,Mon-Thu | 7:30-4:30 Lunch 12:00-12:30 && 2nd Wed | Closed && Fri | 7:30-1:30,https://texaswic.org/about-wic/live-chat-with-wic?la=001,30.44906,-97.65199,NO
114,manor clinic,amnor,"14008 Shadowglen Blvd, Ste 207",00012478adhosw,manor,tx,78653,travis,512-972-4942,NA,512-854-1639,ManorWIC@austintexas.gov,https://www.austintexas.gov/WIC,Mon-Thu | 7:30-4:30 Lunch 12:00-12:30 | Fri | 7:30-1:30,https://texaswic.org/about-wic/live-chat-with-wic?la=001,30.3399343,-97.5619897,NO
13161,marble falls wic,abelmr,"503 FM 1431 E, Suite 103",0011133345fm,marble falls,tx,78654,burnet,830-693-8226,NA,NA,Wictx@Spcaa.Org,https://www.spcaawic.org/,Mon/Tue/Wed | 9:00-6:00 Lunch 12:00-1:00 && 1st Wed | Closed && Thu | 7:00-4:00 Lunch 12:00-1:00,https://texaswic.org/about-wic/live-chat-with-wic?la=130-131,30.5757722,-98.2552608,NO
4203,round rock public health center,abccehhikllnooprtuu,"Appointments are now in person. Please enter the WIC clinic building for your appointment., 355 Texas Ave",355aaaaaccceeeeeeeeefhiiiilmmnnnnnnnooooppprrrrssssttttuwwxy,round rock,tx,78664,williamson,512-248-3254,NA,512-248-7603,Roundrockwic@Wilco.Org,http://www.wcchd.org/,Mon/Tue/Wed/Thu | 8:00-6:00 Lunch 12:00-1:00 && Fri | 8:00-12:00,NA,30.529922,-97.683404,NO
3601,city of san marcos wic,acfimnoossty,215 S Reimer Ave,125eeimrr,san marcos,tx,78666,hays,512-393-8040,NA,855-759-2838,NA,http://www.ci.san-marcos.tx.us/266/Women-Infants-Children-WIC,Mon/Wed | 8:00-4:30 Lunch 12:00-1:00 && Tue/Thu | 8:00-7:00 Lunch 12:00-1:00 && Fri | 8:00-12:00,NA,29.850165,-97.974067,NO
104,st johns community center,chjmmnoosy,7500 Blessing Ave,0057begilnss,austin,tx,78752,travis,512-972-4942,NA,512-972-5172,Stjohnswic@Austintexas.Gov,https://www.austintexas.gov/WIC,Mon-Thu | 7:30-4:30 Lunch 12:00-12:30 && 2nd Wed | Closed && Fri | 7:30-1:30,https://texaswic.org/about-wic/live-chat-with-wic?la=001,30.33205,-97.69322,NO
105,northwest wic,nw,"8701 Research Blvd, Suite A",0178eehrs,austin,tx,78758,travis,512-972-4942,NA,512-972-6709,NorthwestWIC@austintexas.gov,https://www.austintexas.gov/WIC,Mon-Thu | 7:30-4:30 Lunch 12:00-12:30 && 2nd Wed | Closed && Fri | 7:30-1:30,https://texaswic.org/about-wic/live-chat-with-wic?la=001,30.36494,-97.71741,NO
1904,vida y salud-health systems inc,aaacddehhiillmnssstuvyy,400 S Getty St Suite C,004egtty,uvalde,tx,78801,uvalde,830-278-3117,NA,830-374-3364,NA,NA,Mon/Tue/Thu | 9:00-6:00  && Wed | 8:00-6:00  && 1st Wed of the month | Closed && Fri | 9:00-5:00,NA,29.20513,-99.78379,NO
6405,camp wood clinic,doow,201 4Th St,0124ht,camp wood,tx,78833,edwards,866-419-8564,NA,830-741-6144,mandi.wilcox@medinatx.org,http://www.medinacountytexas.org/page/medina.WIC,1st Thu | 10:00-4:30 Lunch 12:00-12:30 every 3 months - June/Sept/December | 2024,NA,29.669141,-100.013736,NO
2402,kinney county clinic -special procedures-,acccdeeeeiiklnnnoopprrsstuuyy,201 James Street,012aejms,brackettville,tx,78832,kinney,830-773-1105,NA,830-752-3020,lfuentes@umchealth.org,NA,2nd Tue | 10:00 - 4:00 Lunch 12:00 - 1:00,NA,29.3122558,-100.4171349,NO
1902,vida y salud-health systems inc,aaacddehhiillmnssstuvyy,109-B 1St Street,0119,carrizo springs,tx,78834,dimmit,830-876-9755,NA,--,NA,NA,Mon/Tue/Thu | 9:00-6:00 Lunch 12:00-1:00 && Wed | Closed  && Fri | 9:00-5:00 Lunch 12:00-1:00,NA,28.521199,-99.857363,NO
1901,vida y salud-health systems inc,aaacddehhiillmnssstuvyy,308 Cesar Chavez Avenue,038accehrsz,crystal city,tx,78839,zavala,830-374-2417,NA,830-374-5849,NA,NA,Mon/Tue/Thu | 9:00-6:00  && Wed | 8:00-6:00 && 1st Wed of the month | Closed && Fri | 9:00-5:00,NA,28.6764412,-99.8242355,NO
4401,del rio ( city of )-wic program,acdefgiilmoooprrrty,200 Bridge Street,002,del rio,tx,78840,val verde,830-774-8609,NA,830-703-5357,NA,NA,Mon/Tue/Wed/Thu | 8:00-6:00 && Fri | 8:00-12:00  &&  Closed 1st Working Day Of Each Month,NA,29.3609201,-100.8896695,NO
4404,city of del rio wic program-lafb,aabcdeffgiillmoooprrrty,"Military & Family Readiness Center, 47 FSS/FSH",47aaadeefffhiiiillmmnrrssssstyy,laughlin afb,tx,78843,val verde,830-774-8609,NA,830-703-5357,NA,NA,3rd Tue | 9:00-12:00,NA,29.3549409,-100.7899175,NO
2404,eidson wic clinic -special procedures-,accddeeeeiilnoopprrsssu,1175 Eidson Road,1157deinos,eagle pass,tx,78852,maverick,830-752-3000,NA,830-752-3005,lfuentes@umchealth.org,NA,Tue/Thu | 8:30-5:30 Lunch 12:00-1:00,NA,28.69337,-100.48633,NO
2401,united medical center,acddeeilm,2525 Veterans Blvd.,2255aensv,eagle pass,tx,78852,maverick,830-773-1105,NA,830-752-3017,lfuentes@umchealth.org,NA,Mon | 8:30-8:30 Lunch 12:00-1:00 && Wed | 8:30-5:30 Lunch 12:00-1:00 && Fri | 8:00-1:00,NA,28.72987,-100.47955,NO
6401,medina county health unit,aacdeehhilmnnottuy,1402 Avenue M,0124,hondo,tx,78861,medina,830-741-6144,NA,830-741-6149,mandi.wilcox@medinatx.org,http://www.medinacountytexas.org/page/medina.WIC,Mon/Wed/Thu | 8:00-6:30 Lunch 12:00-12:30 && Fri | 8:00-12:00 && Closed the last business day of the month,NA,29.351343,-99.142296,NO
1911,la pryor clinic,aloprry,117 E Hwy 57 Po Box 640,01145677boopx,la pryor,tx,78872,zavala,830-374-2417,NA,--,NA,NA,2nd Wed | 9:00-2:00 Lunch 12:00-1:00,NA,28.9437891,-99.8431774,NO
6406,rocksprings clinic,cgiknoprrss,102 N Nueces St,012ceensu,rocksprings,tx,78880,edwards,866-419-8564,NA,830-741-6144,mandi.wilcox@medinatx.org,http://www.medinacountytexas.org/page/medina.WIC,2nd Thu | 10:30-4:30 Lunch 12:00-12:30,NA,30.015853,-100.2065551,NO
2913,columbus wic clinic,bclmosuu,539 Spring St,359ginprs,columbus,tx,78934,colorado,979-732-6635,NA,979-732-6417,NA,NA,2nd/4th/5th Mon | 8:00-5:30 Lunch 12:00-1:00 && Tue/Thu | 8:00-5:30 Lunch 12:00-1:00 && Fri/3rd Sat | 8:00-1:30 && Closed Fri before 3rd Sat,NA,29.70522,-96.54155,NO
11002,lee county wic clinic,ceelnotuy,185-A Decker Drive,158cdeekr,giddings,tx,78942,lee,979-542-1651,NA,979-968-6303,NA,NA,Tue/Wed | 7:00-4:30 Lunch 12:00-1:00  &&  2nd Tue | 7:00Am-7:00Pm  Lunch 12:00-1:00 &&  2nd/4th Fri  |  7:00-12:00 && Closed Friday following the 2nd Tuesday,NA,30.191244,-96.926682,NO
11001,fayette county wic clinic,aceefnotttuyy,275 Ellinger Road,257eegillnr,la grange,tx,78945,fayette,979-968-6391,NA,979-968-6903,NA,NA,Mon/Thu | 7:00-4:30  Lunch 12:00-1:00  &&  3rd Thu  |  7:00-7:00  Lunch 12:00-1:00  &&  1st/3rd/5th Fri  |  7:00-12:00 && Closed Friday after the 3rd Thursday,NA,29.91271,-96.86183,NO
4305,waelder wic clinic,adeelrw,311 Hwy 90 W,01139,waelder,tx,78959,gonzales,830-672-7083,NA,--,NA,NA,2nd Wed Of Month  |  9:00-4:00  Lunch 12:30-1:30,NA,29.69403,-97.30044,NO
2907,weimar wic clinic,aeimrw,"First United Methodist Church, 301 W St Charles",013acccddeeefhhhhiilmorrrstu,weimar,tx,78962,colorado,979-725-6100,NA,--,NA,NA,1st Wed/3rd Wed | 9:00-4:30  Lunch 12:00-1:00,NA,29.69858,-96.78488,NO
13032,booker wic,bekoor,322 S Eastern St,223eenr,booker,tx,79005,lipscomb,806-893-3814,NA,NA,Wictx@Spcaa.Org,https://www.spcaawic.org/,2nd Mon | 10:00-3:00 Lunch 12:00-1:00,https://texaswic.org/about-wic/live-chat-with-wic?la=130-131,36.4522,-100.53262,NO
13015,borger wic,begorr,200 N McGee St,002ceegm,borger,tx,79007,hutchinson,806-893-3814,806-699-6522,806-699-6526,Wictx@Spcaa.Org,https://www.spcaawic.org/,1st/3rd/5th Mon | 9:00-6:00 && 2nd Mon | 8:00-5:00 && Tue | 8:00-5:00 && 5th Tue | 7:00-4:00 && 1st/4th/5th Wed | 7:00-4:00 && 2nd/3rd Wed | 8:00-5:00 && Thu | 7:00-4:00,https://texaswic.org/about-wic/live-chat-with-wic?la=130-131,35.6671,-101.39367,NO
13037,cactus wic,acsu,"Cactus City Park, 500 North Dr",005accistuy,cactus,tx,79013,moore,806-893-6518,NA,NA,Wictx@Spcaa.Org,https://www.spcaawic.org/,2nd/3rd Wed | 8:30-3:00  Lunch 12:00-1:00,https://texaswic.org/about-wic/live-chat-with-wic?la=130-131,36.05378,-101.99929,NO
13028,canadian wic,aaacdinn,520 Main St,025aimn,canadian,tx,79014,hemphill,806-662-0436,NA,--,Wictx@Spcaa.Org,https://www.spcaawic.org/,4th Mon | 9:00-4:00 Lunch 11:00-12:00,https://texaswic.org/about-wic/live-chat-with-wic?la=130-131,35.9126192,-100.3819558,NO
10004,canyon wic clinic,,1818 4Th Street,11488ht,canyon,tx,79015,randall,806-371-1119,NA,--,NA,NA,2nd Thu | 9:30-4:30  Lunch 12:00-13:00,NA,34.97952,-101.92434,NO
13023,dalhart wic,aadhlrt,221 Hillcrest Ave,122cehillr,dalhart,tx,79022,dallam,806-893-6518,NA,806-249-5524,Wictx@Spcaa.Org,https://www.spcaawic.org/,Tue | 9:00-4:00 Lunch 11:00-12:00,https://texaswic.org/about-wic/live-chat-with-wic?la=130-131,36.06362,-102.5064,NO
2005,dimmitt clinic,diimmtt,113 West Bedford Street Po Box,113bbdeoopx,dimmitt,tx,79027,castro,806-647-4240,NA,806-647-0503,NA,NA,Tue | 9:30-6:00  Lunch 12:30-1:00,NA,34.5507895,-102.312605,NO
13006,dumas wic,admsu,"205 N Dumas Ave, Suite B",025admsu,dumas,tx,79029,moore,806-935-4494,NA,806-935-5663,Wictx@Spcaa.Org,https://www.spcaawic.org/,1st/2nd/4th Mon | 9:00-6:00 Lunch 11:00-12:00 && 4th Wed | 7:00-4:00 Lunch 12:00-1:00 && Thu | 7:00-4:00 Lunch 12:00-1:00,https://texaswic.org/about-wic/live-chat-with-wic?la=130-131,35.86812,-101.97358,NO
2012,friona clinic,afinor,616 Euclid,166cdeilu,friona,tx,79035,parmer,806-247-3482,NA,806-247-3482,NA,NA,Wed | 9:30-6:00  Lunch 12:30-1:00,NA,34.63704,-102.71938,NO
10011,groom wic clinic,,Community Center  200 Broadway,002cmmoy,groom,tx,79039,carson,806-371-1119,NA,--,NA,NA,1st Mon | 4:30-5:30,NA,35.2027581,-101.1073531,NO
2006,hereford clinic,eehr,125 W Park Ave,125,hereford,tx,79045,deaf smith,806-364-7692,NA,806-360-4834,NA,NA,Mon/Tue/Wed/Thu | 9:00-6:30  Lunch 12:30-1:00,NA,34.82151,-102.40745,NO
13001,pampa wic,aampp,1835 N Hobart St,1358abhort,pampa,tx,79065,gray,806-665-1182,NA,806-665-1184,Wictx@Spcaa.Org,https://www.spcaawic.org/,Mon | 7:00-4:00 Lunch 11:00-12:00 && Tue | 9:00-6:00 Lunch 11:00-12:00  && Wed | 7:00-4:00 Lunch 11:00-12:00 && Thu | 7:00-4:00 Lunch 11:00-12:00 && 1st Wed/ 4th Mon | Closed,https://texaswic.org/about-wic/live-chat-with-wic?la=130-131,35.55608,-100.972357,NO
10013,panhandle wic clinic,aaehnnp,"500 Main St, War Memorial Bldg",005aaaeiilmmmnorrw,panhandle,tx,79068,carson,806-371-1119,NA,--,NA,NA,1st Mon  |  1:30-3:15,NA,35.345672,-101.380795,NO
13016,perryton wic,enoprrty,"514 S Main St, 3rd Floor",1345aimn,perryton,tx,79070,ochiltree,806-893-3814,NA,NA,Wictx@Spcaa.Org,https://www.spcaawic.org/,Tue | 10:00-3:00 Lunch 12:00-1:00 && 5th Tue | Closed,https://texaswic.org/about-wic/live-chat-with-wic?la=130-131,36.394603,-100.803272,NO
2001,plainview clinic,aeiinvw,2801 West 8Th,01288ht,plainview,tx,79072,hale,806-293-0182,NA,806-293-5826,NA,NA,Mon  |  8:00-7:00  Lunch 12:30-1:00  &&  Tues/Wed/Thu  |  8:00-5:30  Lunch 12:30-1:00,NA,34.1876749,-101.7370367,NO
13029,shamrock wic,achkmors,122 W 2nd St,1222dn,shamrock,tx,79079,wheeler,806-893-3831,NA,NA,Wictx@Spcaa.Org,https://www.spcaawic.org/,2nd Wed | 9:30-3:30  Lunch 11:00-12:00,https://texaswic.org/about-wic/live-chat-with-wic?la=130-131,35.21534,-100.25021,NO
13026,spearman wic,aaenps,"First Baptist Church , 123 S Bernice St",123bbccceefhhiiinrrru,spearman,tx,79081,hansford,806-893-3814,NA,--,Wictx@Spcaa.Org,https://www.spcaawic.org/,2nd/3rd Wed | 9:30-3:30  Lunch 12:00-1:00,https://texaswic.org/about-wic/live-chat-with-wic?la=130-131,36.196891,-101.191625,NO
13021,stratford wic,art,1109 Beaver Rd,0119ber,stratford,tx,79084,sherman,806-893-6518,NA,--,Wictx@Spcaa.Org,https://www.spcaawic.org/,3rd Mon | 10:00-4:00  Lunch 11:00-12:00,https://texaswic.org/about-wic/live-chat-with-wic?la=130-131,36.34078,-102.06311,NO
2008,tulia clinic,ailtu,104 Southeast 2nd,0124dens,tulia,tx,79088,swisher,806-293-0182,NA,806-293-5826,NA,NA,1st Wed/3rd Wed | 8:30-5:00 Lunch 12:30-1:00,NA,34.5358528,-101.7640144,NO
10012,vega wic clinic,aegv,"305 Coke St, County Barn Bldg",035abcceknnoortuy,vega,tx,79092,oldham,806-371-1119,NA,--,NA,NA,1st Mon | 9:15-11:15,NA,35.246055,-102.419712,NO
13024,wellington wic,egillnnotw,910 1/2 West Avenue,01129,wellington,tx,79095,collingsworth,806-447-0641,NA,--,Wictx@Spcaa.Org,https://www.spcaawic.org/,2nd Tue | 9:30-3:30  Lunch 11:00-12:00,https://texaswic.org/about-wic/live-chat-with-wic?la=130-131,34.8549389,-100.2140451,NO
13020,wheeler wic,eeehlrw,7939 US-83,337899su,wheeler,tx,79096,wheeler,806-893-3831,NA,--,Wictx@Spcaa.Org,https://www.spcaawic.org/,3rd Mon | 9:30-3:30 Lunch 11:00-12:00,https://texaswic.org/about-wic/live-chat-with-wic?la=130-131,35.4521965,-100.2723149,NO
10003,austin street wic clinic,ainu,411 South Austin,114ainu,amarillo,tx,79106,potter,806-371-1119,NA,--,NA,NA,Mon/Tue | 9:00-5:30  Lunch 12:00-13:00 && Wed | 1:00-5:30 && Thu/Fri | 9:00-5:30  Lunch 12:00-13:00 && 1st Sat/3rd Sat | 8:30-3:45,NA,35.21239,-101.8604,NO
10006,north branch library wic clinic,ailnry,1500 Ne 24Th Avenue,001245ehnt,amarillo,tx,79107,potter,806-371-1119,NA,--,NA,NA,Tue/1St Thu | 9:00-5:30  Lunch 12:00-13:00 && 2nd Sat/4th Sat | 8:30-3:45,NA,35.23596,-101.81608,NO
13014,childress wic,cehilss,211 Avenue F N.W.,112,childress,tx,79201,childress,940-219-9124,NA,--,Wictx@Spcaa.Org,https://www.spcaawic.org/,2nd Tue/ 3rd Thu | 8:30-3:00 Lunch 12:00-1:00,https://texaswic.org/about-wic/live-chat-with-wic?la=130-131,34.4267542,-100.2057233,NO
13025,clarendon wic,acdelnnor,401 W 2nd St,0124dn,clarendon,tx,79226,donley,806-893-3831,NA,--,Wictx@Spcaa.Org,https://www.spcaawic.org/,2nd Mon | 9:00-4:00 Lunch 11:00-12:00,https://texaswic.org/about-wic/live-chat-with-wic?la=130-131,34.93907,-100.89152,NO
2002,floydada clinic,aaddoy,319 S Main,139aimn,floydada,tx,79235,floyd,806-983-3449,NA,806-983-5376,NA,NA,Wed | 8:00-6:30  Lunch 12:30-1:00 && Thu | 8:00-5:30  Lunch 12:30-1:00,NA,33.98232,-101.33447,NO
13011,memphis wic,eimms,1313 N Boykin,1133biknoy,memphis,tx,79245,hall,806-893-3831,NA,NA,Wictx@Spcaa.Org,https://www.spcaawic.org/,2nd Thu | 9:30-3:30 Lunch 12:00-1:00,https://texaswic.org/about-wic/live-chat-with-wic?la=130-131,34.735867,-100.545083,NO
13124,paducah wic,aacdhpu,"Paducah Housing Authority, 711 Richards  St",117aaaaccdghhhhiiinooprrssttuuuy,paducah,tx,79248,cottle,940-219-9124,NA,--,Wictx@Spcaa.Org,https://www.spcaawic.org/,1st Tue | 12:30-3:00,https://texaswic.org/about-wic/live-chat-with-wic?la=130-131,34.0134051,-100.2998225,NO
13123,quanah wic,aahnqu,300 S. Main St,003aimn,quanah,tx,79252,hardeman,940-219-9124,NA,NA,Wictx@Spcaa.Org,https://www.spcaawic.org/,3rd Mon | 8:00-3:30,https://texaswic.org/about-wic/live-chat-with-wic?la=130-131,34.297606,-99.73972,NO
13007,brownfield wic,now,111 N Avenue D,111,brownfield,tx,79316,terry,806-632-2425,NA,806-637-4392,Wictx@Spcaa.Org,https://www.spcaawic.org/,"2nd/4th Mon | 10:00-5:00 Lunch 1:00-2:00 && 4th/5th Tue, 3rd/5th Wed, 1st Thu | 10:00-5:00 Lunch 1:00-2:00",https://texaswic.org/about-wic/live-chat-with-wic?la=130-131,33.179501,-102.264904,NO
13005,denver city wic,cdeeinrtvy,112 West 2nd St,1122dn,denver city,tx,79323,yoakum,806-777-5307,NA,806-592-7163,Wictx@Spcaa.Org,https://www.spcaawic.org/,2nd/4th Wed | 9:30-5:30 Lunch 1:00-2:00 && Thu | 9:30-5:30 Lunch 1:00-2:00,https://texaswic.org/about-wic/live-chat-with-wic?la=130-131,32.96606,-102.83001,NO
13009,lamesa wic,aaelms,501 S 1st St,0115,lamesa,tx,79331,dawson,806-872-2352,NA,806-872-2354,Wictx@Spcaa.Org,https://www.spcaawic.org/,Mon | 9:00-6:00  Lunch 12:00-1:00 && Thu | 7:00-4:00 Lunch 12:00-1:00,https://texaswic.org/about-wic/live-chat-with-wic?la=130-131,32.73177,-101.95266,NO
13008,levelland wic,eelllv,411 Austin St,114ainu,levelland,tx,79336,hockley,806-632-2425,NA,806-894-7557,Wictx@Spcaa.Org,https://www.spcaawic.org/,1st/3rd/5th Mon | 9:00-6:00 Lunch 1:00-2:00 && 1st/3rd Tue | 9:00-6:00 Lunch 1:00-2:00 && 2nd/3rd/4th/5th Thu | 9:00-6:00 Lunch 1:00-2:00,https://texaswic.org/about-wic/live-chat-with-wic?la=130-131,33.58659,-102.3725,NO
2003,littlefield clinic,eilltt,500 East 6Th,0056ht,littlefield,tx,79339,lamb,806-385-5368,NA,806-385-7941,NA,NA,Mon | 9:00-6:00  Lunch 12:30-1:00,NA,33.92005,-102.33104,NO
13002,morton wic,mnoort,107 A SW 4th,0147hstw,morton,tx,79346,cochran,806-632-2425,NA,806-894-7557,Wictx@Spcaa.Org,https://www.spcaawic.org/,2nd Tue | 10:00-5:00 Lunch 1:00-2:00,https://texaswic.org/about-wic/live-chat-with-wic?la=130-131,33.7248156,-102.7543185,NO
2009,muleshoe clinic,eehlmosu,104 West 2Nd Ste B,0124dn,muleshoe,tx,79347,bailey,806-272-4521,NA,806-272-4493,NA,NA,Mon | 8:00-7:00  Lunch 12:30-1:00 && Tue | 8:00-5:30 Lunch 12:30-1:00 && Wed  |  10:00-5:30 Lunch 12:30-1:00  &&  Thu | 8:00-5:30 Lunch 12:30-1:00,NA,34.2268497,-102.7251356,NO
13004,post wic,op,108 N Broadway St,018,post,tx,79356,garza,806-523-8917,NA,806-894-7557,Wictx@Spcaa.Org,https://www.spcaawic.org/,2nd/4th Tue | 10:15-4:45  Lunch 1:00-2:00,https://texaswic.org/about-wic/live-chat-with-wic?la=130-131,33.19158,-101.37807,NO
2004,ralls wic program,aagllmoprrrs,623 Tilford Po Box 1106,0112366bilooptx,ralls,tx,79357,crosby,806-253-2577,NA,806-253-2856,NA,NA,Tue | 8:30-5:30 Lunch 12:30-1:00,NA,33.68022,-101.38563,NO
13010,seminole wic,eeilmnos,700 Hobbs Hwy,007bbhos,seminole,tx,79360,gaines,432-758-6503,NA,432-758-2501,Wictx@Spcaa.Org,https://www.spcaawic.org/,Mon | 9:00-6:00  Lunch 1:00-2:00 && Tue | 7:00-4:00 Lunch 11:00-12:00 && 3rd/5th Wed | 9:00-6:00 Lunch 1:00-2:00,https://texaswic.org/about-wic/live-chat-with-wic?la=130-131,32.71973,-102.65301,NO
13022,slaton wic,alnost,121 W Panhandle St,112aaehnnp,slaton,tx,79364,lubbock,806-632-2425,NA,806-894-7557,Wictx@Spcaa.Org,https://www.spcaawic.org/,2nd/4th Wed | 10:30-4:30 Lunch 1:00-2:00,https://texaswic.org/about-wic/live-chat-with-wic?la=130-131,33.438131,-101.644515,NO
13012,spur wic,prsu,502 N Burlington Ave,025bgilnnortu,spur,tx,79370,dickens,940-256-0013,NA,--,Wictx@Spcaa.Org,https://www.spcaawic.org/,3rd Wed | 9:00-2:00,https://texaswic.org/about-wic/live-chat-with-wic?la=130-131,33.47762,-100.85445,NO
13003,tahoka wic,aahkot,1627 Ave K,1267,tahoka,tx,79373,lynn,806-523-5189,NA,806-998-6017,Wictx@Spcaa.Org,https://www.spcaawic.org/, 2nd Tue | 9:00-4:00  Lunch 12:00-1:00 ,https://texaswic.org/about-wic/live-chat-with-wic?la=130-131,33.165996,-101.798454,NO
13018,central lubbock wic,abbccekllnortu,"1946 Avenue Q, 1st floor",11469,lubbock,tx,79411,lubbock,806-747-0104,NA,806-747-0147,Wictx@Spcaa.Org,https://www.spcaawic.org/,Mon/Wed | 9:00-6:00  && Tue/Thur | 7:00-4:00 && 1st Wed of the month | Closed,https://texaswic.org/about-wic/live-chat-with-wic?la=130-131,33.57612,-101.85587,NO
13019,freedom wic,deefmor,"1301 50th St, Space #10 A",00011135acehpst,lubbock,tx,79412,lubbock,806-747-0006,NA,806-747-0067,Wictx@Spcaa.Org,https://www.spcaawic.org/,Mon/Tue/Thur | 9:00-6:00 && Wed | 7:00-4:00 Lunch 1:00-2:00 && 1st Wed of the month | Closed,https://texaswic.org/about-wic/live-chat-with-wic?la=130-131,33.54834,-101.84941,NO
13027,parkway wic,,2630 Parkway Dr,0236,lubbock,tx,79403,lubbock,806-747-1129,NA,806-747-0147,Wictx@Spcaa.Org,https://www.spcaawic.org/,Mon/Thur | 7:00-4:00 Lunch 1:00-2:00 && Tue/Wed | 9:00-6:00 Lunch 1:00-2:00 && 1st Wed of the month | Closed,https://texaswic.org/about-wic/live-chat-with-wic?la=130-131,33.597151,-101.808397,NO
13017,celia ann wic,aaceilnn,602 West Loop 289 Suite 100,000122689loop,lubbock,tx,79416,lubbock,806-747-0178,NA,806-747-0180,Wictx@Spcaa.Org,https://www.spcaawic.org/,Mon/Tue/Wed | 9:00-6:00 Lunch 1:00-2:00 && 1st Wed of the month | Closed &&  Thu | 7:00-4:00  Lunch  12:30-1:30,https://texaswic.org/about-wic/live-chat-with-wic?la=130-131,33.58988,-101.93493,NO
13115,aspermont wic,aenopst,"Stonewall County Library, 516 S Washington Ave",156aaaceghiilllnnnnooorsttuwwyy,aspermont,tx,79502,stonewall,325-268-7739,NA,NA,Wictx@Spcaa.Org,https://www.spcaawic.org/,2nd Tue | 1:30-4:30,https://texaswic.org/about-wic/live-chat-with-wic?la=130-131,33.139824,-100.228867,NO
13103,clyde wic,cdely,"First Assembly of God, 822 Red Oak Farm Rd",228aaabddeefffgiklmooorrssy,clyde,tx,79510,callahan,254-212-9914,NA,NA,Wictx@Spcaa.Org,https://www.spcaawic.org/,2nd/4th/5th Wed & 2nd/3rd/4th/5th Thu | 7:00-4:00  Lunch 12:00-1:00,https://texaswic.org/about-wic/live-chat-with-wic?la=130-131,32.415012,-99.513801,NO
13107,colorado city wic,accdilooorty,1426 Walnut,1246atuw,colorado city,tx,79512,mitchell,325-207-0114,NA,NA,Wictx@Spcaa.Org,https://www.spcaawic.org/,1st/3rd Tue | 10:00-5:00 Lunch 1:00-2:00,https://texaswic.org/about-wic/live-chat-with-wic?la=130-131,32.40168,-100.86535,NO
13151,hamlin wic,ahilmn,"Housing Authority , 200 SE Ave A",002aeghhiinoorssttuuy,hamlin,tx,79520,jones,940-256-0013,NA,--,Wictx@Spcaa.Org,https://www.spcaawic.org/,3rd Tue | 9:00-12:00,https://texaswic.org/about-wic/live-chat-with-wic?la=130-131,32.88276,-100.125,NO
13113,haskell wic,aehklls,Haskell Housing Authority 702 S Ave H,027aaeghhhiikllnoorssttuuy,haskell,tx,79521,haskell,940-256-0013,NA,--,Wictx@Spcaa.Org,https://www.spcaawic.org/,Thu | 8:00-3:00 && Closed last day of the month,https://texaswic.org/about-wic/live-chat-with-wic?la=130-131,33.151283,-99.737656,NO
13105,hawley wic,aehlwy,"First Baptist Church, 350 5th St",0355bccfhhhiirrtu,hawley,tx,79525,jones,254-212-9914,NA,NA,Wictx@Spcaa.Org,https://www.spcaawic.org/,3rd Wed | 12:00-3:00,https://texaswic.org/about-wic/live-chat-with-wic?la=130-131,32.6102222,-99.813262,NO
13119,rotan wic,anort,504 E 7Th St,0457ht,rotan,tx,79546,fisher,325-735-3105,NA,NA,Wictx@Spcaa.Org,https://www.spcaawic.org/,2nd Wed | 10:30-4:30 Lunch 1:00-2:00,https://texaswic.org/about-wic/live-chat-with-wic?la=130-131,32.86102,-100.4632,NO
13106,snyder wic,denrsy,"5305 Trinity Blvd, Suite B",0355iinrtty,snyder,tx,79549,scurry,325-573-0191,325-573-0192,NA,Wictx@Spcaa.Org,https://www.spcaawic.org/,Mon | 9:00-6:00  Lunch 1:00-2:00 && 5th Tue | 9:00-6:00 Lunch 1:00-2:00 && Wed/Thu | 7:00-4:00 Lunch 11:00-12:00 && 1st Wed of the month | Closed,https://texaswic.org/about-wic/live-chat-with-wic?la=130-131,32.687493,-100.918757,NO
13114,stamford wic,am,207 S Swenson St,027ennossw,stamford,tx,79553,jones,325-773-0119,NA,325-773-0120,Wictx@Spcaa.Org,https://www.spcaawic.org/,Tue/Wed| 8:30-3:00 Lunch 12:00-1:00 && 1st/3rd Wed | Closed && 3rd Tue | 1:00-3:00 | Closed last business day of the month,https://texaswic.org/about-wic/live-chat-with-wic?la=130-131,32.943926,-99.803006,NO
13177,sweetwater wic,aeestww,"1104 Henderson St, Suite A",0114deehnnors,sweetwater,tx,79556,nolan,806-523-1592,806-523-5441,NA,Wictx@Spcaa.Org,https://www.spcaawic.org/,Mon/Tue/Wed | 9:00-6:00 Lunch 1:00-2:00 && 1st/2nd Wed of the month | Closed && Thu | 7:00-4:00 Lunch 11:00-12:00,https://texaswic.org/about-wic/live-chat-with-wic?la=130-131,32.45773,-100.40345,NO
3401,abilene public health dept,aabbceeehhiilllnptu,850 N 6th St,0568ht,abilene,tx,79601,taylor,325-692-1680,NA,NA,Wic@Abilenetx.Gov,https://abilenetx.gov/wic,Mon/Tue/Wed/Thu/Fri | 8:00-6:00  && Closed all major holidays && Please refer to our website for our temporary summer Friday and Saturday hours,NA,32.455025,-99.730952,NO
13030,midland wic,im,"4500 W Illinois Ave, Suite 113",0011345iiillnos,midland,tx,79703,midland,432-699-2332,NA,432-699-2355,Wictx@Spcaa.Org,https://www.spcaawic.org/,Mon/Tue | 9:00-6:00  Lunch 1:00-2:00 && Wed/Thu | 7:00-4:00 Lunch 1:00-2:00 && 1st Wed of the month | Closed,https://texaswic.org/about-wic/live-chat-with-wic?la=130-131,31.988216,-102.136517,NO
13033,andrews wic,aensw,"801 N Main St, Suite A",018aimn,andrews,tx,79714,andrews,432-523-6587,NA,432-524-5716,Wictx@Spcaa.Org,https://www.spcaawic.org/,1st/3rd/4th/5th Tue | 9:00-4:00 Lunch 12:00-1:00 && 2nd Tue | 10:00-5:00 Lunch 1:00-2:00 && Wed | 9:30-4:00 Lunch 12:30-1:00 && 1st Wed of the month | Closed,https://texaswic.org/about-wic/live-chat-with-wic?la=130-131,32.3262068,-102.5491012,NO
13048,big spring wic,bggiinprs,"501 Birdwell Ln, Suite 28B",01258bbeillw,big spring,tx,79720,howard,432-631-1734,NA,432-606-5055,Wictx@Spcaa.Org,https://www.spcaawic.org/,1st/3rd/5th Mon | 7:00-4:00 Lunch 12:30-1:00 && 2nd/4th Mon | 9:00-6:00 Lunch 12:00-1:00 && Thu | 7:00-4:00 Lunch 12:00-1:00,https://texaswic.org/about-wic/live-chat-with-wic?la=130-131,32.25795,-101.45355,NO
13038,fort stockton wic,cfknooortt,"461 S Hwy 285, Suite 103",011234568,fort stockton,tx,79735,pecos,432-336-2127,NA,432-336-6239,Wictx@Spcaa.Org,https://www.spcaawic.org/,Mon |  9:00-6:00  Lunch 1:00-2:00  && 1st/3rd/5th Tue | 7:00-4:00 Lunch 12:00-1:00 && Wed |  7:00-4:00  Lunch 12:00-1:00 && 1st Wed of the month | Closed,https://texaswic.org/about-wic/live-chat-with-wic?la=130-131,30.8823695,-102.8696931,NO
13039,kermit wic,eikt,735 S East Ave,357,kermit,tx,79745,winkler,432-385-9009,NA,NA,Wictx@Spcaa.Org,https://www.spcaawic.org/,2nd/4th Wed | 8:00-3:00  Lunch 1:00-2:00,https://texaswic.org/about-wic/live-chat-with-wic?la=130-131,31.860905,-103.082658,NO
13031,mccamey wic,accemmy,100 E 7th St,0017ht,mccamey,tx,79752,upton,806-891-9384,NA,NA,Wictx@Spcaa.Org,https://www.spcaawic.org/,1st/3rd TUE | 8:30-3:00  Lunch 12:00-12:30,https://texaswic.org/about-wic/live-chat-with-wic?la=130-131,31.1314436,-102.2219275,NO
13034,monahans wic,aahmnnos,405 East A St,045,monahans,tx,79756,ward,432-385-9009,NA,NA,Wictx@Spcaa.Org,https://www.spcaawic.org/,1st/3rd Mon | 10:00-5:00  Lunch 1:00-2:00,https://texaswic.org/about-wic/live-chat-with-wic?la=130-131,31.59677,-102.89003,NO
13041,odessa wic,adeoss,"835 Tower Dr, Suite 34",33458eortw,odessa,tx,79762,ector,432-444-5687,NA,432-580-9735,Wictx@Spcaa.Org,https://www.spcaawic.org/,Mon/Tue | 9:00-6:00  Lunch 1:00-2:00 && Wed/Thu | 7:00-4:00 Lunch 1:00-2:00 && 1st Wed of the month | Closed,https://texaswic.org/about-wic/live-chat-with-wic?la=130-131,31.86326,-102.3425199,NO
13040,pecos wic,ceops,111 S Hickory St,111chikory,pecos,tx,79772,reeves,432-556-0320,NA,NA,Wictx@Spcaa.Org,https://www.spcaawic.org/,2nd/4th Tue | 8:30-3:00 Lunch 12:00-12:30 && Thur | 8:30-3:00  Lunch 12:00-12:30,https://texaswic.org/about-wic/live-chat-with-wic?la=130-131,31.4261408,-103.4992888,NO
13036,stanton wic,annot,201 N Carrol St,012aclorr,stanton,tx,79782,martin,806-523-7186,NA,NA,Wictx@Spcaa.Org,https://www.spcaawic.org/,1st/3rd Tue | 8:30-3:00 Lunch 12:00-12:30,https://texaswic.org/about-wic/live-chat-with-wic?la=130-131,32.1267052,-101.7996505,NO
3307,canutillo wic center,acillnotu,300 Farm Road 259,002359af,canutillo,tx,79835,el paso,915-212-4942,NA,915-877-3897,NA,https://www.elpasotexas.gov/public-health/services/women-infants-and-children-wic/,Please refer to our website's Hours of Operation for details,https://texaswic.org/about-wic/live-chat-with-wic?la=033,31.9153349,-106.60558,NO
13047,alpine wic,aeilnp,607 W Gallego Ave,067aeggllo,alpine,tx,79830,brewster,432-661-5171,NA,NA,Wictx@Spcaa.Org,https://www.spcaawic.org/,Tue | 9:15-1:30  Lunch 12:30-1:00,https://texaswic.org/about-wic/live-chat-with-wic?la=130-131,30.353565,-103.665643,NO
3310,san elizario wic center,aaeiilnorsz,"11970 Socorro Rd, Suite D & E",01179cooorrs,san elizario,tx,79849,el paso,915-212-4942,NA,915-851-5389,NA,https://www.elpasotexas.gov/public-health/services/women-infants-and-children-wic/,Please refer to our website's Hours of Operation for details,https://texaswic.org/about-wic/live-chat-with-wic?la=033,31.5995502,-106.2741967,NO
3330,dell city mobile wic center,cdeillty,Dell City Court House Main Str,acdeehiillmnostuy,dell city,tx,79837,hudspeth,915-212-4942,NA,--,NA,https://www.elpasotexas.gov/public-health/services/women-infants-and-children-wic/,Please refer to our website's Hours of Operation for details,https://texaswic.org/about-wic/live-chat-with-wic?la=033,31.9425522,-105.2008967,NO
3338,fabens mobile wic center,abefns,601 NE G Ave,016en,fabens,tx,79838,el paso,915-212-4942,NA,915-212-0179,NA,https://www.elpasotexas.gov/public-health/services/women-infants-and-children-wic/,Please refer to our website's Hours of Operation for details,NA,31.5018,-106.14795,NO
3329,ft. hancock mobile wic center,accfhknot,561 S Knox Ave,156knox,fort hancock,tx,79839,hudspeth,915-212-4942,NA,--,NA,https://www.elpasotexas.gov/public-health/services/women-infants-and-children-wic/,Please refer to our website's Hours of Operation for details,https://texaswic.org/about-wic/live-chat-with-wic?la=033,31.294869,-105.848855,NO
13045,marfa wic,aafmr,1412 W Berlin St,1124beilnr,marfa,tx,79843,presidio,432-661-5171,NA,NA,Wictx@Spcaa.Org,https://www.spcaawic.org/,2nd/4th Mon | 9:30-1:30  Lunch 12:00-12:30,https://texaswic.org/about-wic/live-chat-with-wic?la=130-131,30.30617,-104.03775,NO
13046,presidio wic,deiioprs,507 Henry Daly St,057ehnry,presidio,tx,79845,presidio,432-661-5171,NA,NA,Wictx@Spcaa.Org,https://www.spcaawic.org/,Wed/Thur | 7:00-4:00  Lunch 12:00-1:00,https://texaswic.org/about-wic/live-chat-with-wic?la=130-131,29.566126,-104.378958,NO
3331,sierra blanca mobile wic center,aaabceilnrrs,500 Walling Street,005agillnw,sierra blanca,tx,79851,hudspeth,915-212-4942,NA,--,NA,https://www.elpasotexas.gov/public-health/services/women-infants-and-children-wic/,Please refer to our website's Hours of Operation for details,https://texaswic.org/about-wic/live-chat-with-wic?la=033,31.18293,-105.352075,NO
3317,tornillo mobile wic center,illnoort,19200 Cobb Ave,00129bbco,tornillo,tx,79853,el paso,915-212-4942,NA,--,NA,https://www.elpasotexas.gov/public-health/services/women-infants-and-children-wic/,Please refer to our website's Hours of Operation for details,https://texaswic.org/about-wic/live-chat-with-wic?la=033,31.44448,-106.089597,NO
13051,van horn wic,ahnnorv,700 A W Broadway,007,van horn,tx,79855,culberson,432-661-5171,NA,NA,Wictx@Spcaa.Org,https://www.spcaawic.org/,1st/3rd Mon | 9:30-1:30  Lunch 12:00-12:30,https://texaswic.org/about-wic/live-chat-with-wic?la=130-131,31.0384939,-104.8485638,NO
2801,la fe wic clinic at central,aaaceefllnrtt,700 South Ochoa Street,007achoo,el paso,tx,79901,el paso,915-545-7048,NA,915-532-6078,Guadalupe.Delgado@Lafe-Ep.Org,https://lafe-ep.org/,Mon/Tue/Wed/Thu | 8:00 - 6:00  Lunch 1:00-2:00 && Fri | 8:00-12:00,NA,31.75385,-106.47972,NO
3301,henderson wic center,deehnnors,721 South Mesa St,127aems,el paso,tx,79901,el paso,915-212-4942,NA,915-545-2595,NA,https://www.elpasotexas.gov/public-health/services/women-infants-and-children-wic/,Please refer to our website's Hours of Operation for details,https://texaswic.org/about-wic/live-chat-with-wic?la=033,31.75225,-106.48537,NO
2803,la fe wic clinic at yandell,aaeeflllty,815 East Yandell,158elly,el paso,tx,79902,el paso,915-351-1739,NA,915-351-4491,Guadalupe.Vasquez@Lafe-ep.org,https://lafe-ep.org/,Mon/Tue/Wed/Thu | 8:00 - 6:00  Lunch 1:00-2:00 && Fri | 8:00-12:00,NA,31.76705,-106.48552,NO
3322,center for career and technology academy mobile wic center,aaacccdeeeefghlmnooorrrtyy,2851 Grant Ave,1258agnrt,el paso,tx,79930,el paso,915-212-4942,NA,--,NA,https://www.elpasotexas.gov/public-health/services/women-infants-and-children-wic/,Please refer to our website's Hours of Operation for details,https://texaswic.org/about-wic/live-chat-with-wic?la=033,31.7793782,-106.4714563,NO
3316,project vida mobile wic center,adeijoprv,3612 Pera Ave,1236aepr,el paso,tx,79905,el paso,915-212-4942,NA,--,NA,https://www.elpasotexas.gov/public-health/services/women-infants-and-children-wic/,Please refer to our website's Hours of Operation for details,https://texaswic.org/about-wic/live-chat-with-wic?la=033,31.77205,-106.45038,NO
3323,homeless shelter mobile wic center,eeehhllmosss,Salvation Army 4300 E Paisano,0034aaaaaiilnnoopsstvy,el paso,tx,79905,el paso,915-212-4942,NA,915-771-5873,NA,https://www.elpasotexas.gov/public-health/services/women-infants-and-children-wic/,Please refer to our website's Hours of Operation for details,https://texaswic.org/about-wic/live-chat-with-wic?la=033,31.76653,-106.44042,NO
3314,pershing wic center,eghinprs,3707 Pershing Drive,0377eghinprs,el paso,tx,79903,el paso,915-212-4942,NA,915-566-6569,NA,https://www.elpasotexas.gov/public-health/services/women-infants-and-children-wic/,Please refer to our website's Hours of Operation for details,https://texaswic.org/about-wic/live-chat-with-wic?la=033,31.78802,-106.44989,NO
3304,sunrise wic center,einrssu,8500 Dyer St Suite 54,004558dery,el paso,tx,79904,el paso,915-212-4942,NA,915-757-2843,NA,https://www.elpasotexas.gov/public-health/services/women-infants-and-children-wic/,Please refer to our website's Hours of Operation for details,https://texaswic.org/about-wic/live-chat-with-wic?la=033,31.8582,-106.43386,NO
3303,ysleta wic center,aelsty,110 Candelaria St,011aaceilr,el paso,tx,79907,el paso,915-212-4942,NA,915-860-9845,NA,https://www.elpasotexas.gov/public-health/services/women-infants-and-children-wic/,Please refer to our website's Hours of Operation for details,https://texaswic.org/about-wic/live-chat-with-wic?la=033,31.69149,-106.32558,NO
3308,gate way wic center,aegt,"10821 Gateway West, Suite 200",00011228aegt,el paso,tx,79935,el paso,915-212-4942,NA,915-592-1605,NA,https://www.elpasotexas.gov/public-health/services/women-infants-and-children-wic/,Please refer to our website's Hours of Operation for details,https://texaswic.org/about-wic/live-chat-with-wic?la=033,31.749017,-106.337762,NO
3336,americas wic center,aaceimrs,10039 North Loop,00139loop,el paso,tx,79927,el paso,915-212-4942,NA,915-860-0834,NA,https://www.elpasotexas.gov/public-health/services/women-infants-and-children-wic/,Please refer to our website's Hours of Operation for details,https://texaswic.org/about-wic/live-chat-with-wic?la=033,31.67295,-106.28429,NO
3302,lee trevino wic center,eeeilnortv,1840 Lee Trevino Dr Suite 201,0011248eeeilnortv,el paso,tx,79935,el paso,915-212-4942,NA,915-592-3124,NA,https://www.elpasotexas.gov/public-health/services/women-infants-and-children-wic/,Please refer to our website's Hours of Operation for details,https://texaswic.org/about-wic/live-chat-with-wic?la=033,31.76666,-106.31872,NO
3334,george dieter mobile wic center,deeeggior,1757 George Dieter Suite 109-1,01115779deeeggior,el paso,tx,79936,el paso,915-212-4942,NA,915-594-3056,NA,https://www.elpasotexas.gov/public-health/services/women-infants-and-children-wic/,Please refer to our website's Hours of Operation for details,https://texaswic.org/about-wic/live-chat-with-wic?la=033,31.76346,-106.30258,NO
3305,westside wic center,deisw,5195 Mace St,1559acem,el paso,tx,79932,el paso,915-212-4942,NA,915-585-2253,NA,https://www.elpasotexas.gov/public-health/services/women-infants-and-children-wic/,Please refer to our website's Hours of Operation for details,https://texaswic.org/about-wic/live-chat-with-wic?la=033,31.84951,-106.5807,NO
3326,sparks mobile wic center,ss,106 Peyton,016enopty,horizon city,tx,79928,el paso,915-212-4942,NA,--,NA,https://www.elpasotexas.gov/public-health/services/women-infants-and-children-wic/,Please refer to our website's Hours of Operation for details,https://texaswic.org/about-wic/live-chat-with-wic?la=033,31.6824,-106.24092,NO
3318,horizon mobile wic center,hinoorz,15371 Kentwood Ave,11357deknootw,horizon city,tx,79928,el paso,915-212-4942,NA,--,NA,https://www.elpasotexas.gov/public-health/services/women-infants-and-children-wic/,Please refer to our website's Hours of Operation for details,https://texaswic.org/about-wic/live-chat-with-wic?la=033,31.6542949,-106.136966,NO
3315,montana vista wic center,aaaimnnotv,14612 Gregg Dr,11246egggr,el paso,tx,79938,el paso,915-212-4942,NA,915-921-0950,NA,https://www.elpasotexas.gov/public-health/services/women-infants-and-children-wic/,Please refer to our website's Hours of Operation for details,https://texaswic.org/about-wic/live-chat-with-wic?la=033,31.79769,-106.16867,NO
